"Station Name","VANCOUVER INT'L A"
"Province","BRITISH COLUMBIA"
"Latitude","49.20"
"Longitude","-123.18"
"Elevation","4.30"
"Climate Identifier","1108447"
"WMO Identifier","71892"
"TC Identifier","YVR"
"All times are specified in Local Standard Time (LST). Add 1 hour to adjust for Daylight Saving Time where and when it is observed."

"Legend"
"M","Missing"
"E","Estimated"
"NA","Not Available"
"**","Partner data that is not subject to review by the National Climate Archives"

"Date/Time","Year","Month","Day","Time","Data Quality","Temp (°C)","Temp Flag","Dew Point Temp (°C)","Dew Point Temp Flag","Rel Hum (%)","Rel Hum Flag","Wind Dir (10's deg)","Wind Dir Flag","Wind Spd (km/h)","Wind Spd Flag","Visibility (km)","Visibility Flag","Stn Press (kPa)","Stn Press Flag","Hmdx","Hmdx Flag","Wind Chill","Wind Chill Flag","Weather"
"2010-05-01 00:00","2010","05","01","00:00"," ","8.00","","6.00","","87.00","","11.00","","9.00","","19.30","","101.63","","","","","","Rain Showers"
"2010-05-01 01:00","2010","05","01","01:00"," ","8.10","","5.00","","81.00","","10.00","","4.00","","19.30","","101.62","","","","","","Rain Showers"
"2010-05-01 02:00","2010","05","01","02:00"," ","7.90","","5.50","","85.00","","9.00","","9.00","","19.30","","101.58","","","","","","Rain Showers"
"2010-05-01 03:00","2010","05","01","03:00"," ","7.90","","6.10","","88.00","","14.00","","11.00","","19.30","","101.51","","","","","","Cloudy"
"2010-05-01 04:00","2010","05","01","04:00"," ","7.40","","6.10","","91.00","","11.00","","7.00","","24.10","","101.48","","","","","","Cloudy"
"2010-05-01 05:00","2010","05","01","05:00"," ","7.70","","6.30","","91.00","","13.00","","6.00","","24.10","","101.45","","","","","","Cloudy"
"2010-05-01 06:00","2010","05","01","06:00"," ","8.00","","6.50","","90.00","","15.00","","4.00","","24.10","","101.48","","","","","","Cloudy"
"2010-05-01 07:00","2010","05","01","07:00"," ","8.70","","6.70","","87.00","","0.00","","0.00","","24.10","","101.49","","","","","","Cloudy"
"2010-05-01 08:00","2010","05","01","08:00"," ","9.00","","6.60","","85.00","","23.00","","13.00","","24.10","","101.54","","","","","","Cloudy"
"2010-05-01 09:00","2010","05","01","09:00"," ","9.50","","7.20","","86.00","","25.00","","17.00","","24.10","","101.54","","","","","","Cloudy"
"2010-05-01 10:00","2010","05","01","10:00"," ","10.30","","6.60","","78.00","","28.00","","13.00","","24.10","","101.56","","","","","","Mostly Cloudy"
"2010-05-01 11:00","2010","05","01","11:00"," ","11.30","","7.50","","77.00","","27.00","","24.00","","24.10","","101.58","","","","","","Mostly Cloudy"
"2010-05-01 12:00","2010","05","01","12:00"," ","12.00","","8.10","","77.00","","29.00","","24.00","","48.30","","101.57","","","","","","Mostly Cloudy"
"2010-05-01 13:00","2010","05","01","13:00"," ","12.40","","6.90","","69.00","","28.00","","33.00","","48.30","","101.56","","","","","","Mainly Clear"
"2010-05-01 14:00","2010","05","01","14:00"," ","13.40","","8.30","","71.00","","28.00","","33.00","","48.30","","101.53","","","","","","Mainly Clear"
"2010-05-01 15:00","2010","05","01","15:00"," ","13.70","","7.90","","68.00","","27.00","","32.00","","48.30","","101.51","","","","","","Mainly Clear"
"2010-05-01 16:00","2010","05","01","16:00"," ","13.10","","7.40","","68.00","","26.00","","33.00","","48.30","","101.51","","","","","","Mainly Clear"
"2010-05-01 17:00","2010","05","01","17:00"," ","13.00","","6.80","","66.00","","26.00","","35.00","","48.30","","101.51","","","","","","Mainly Clear"
"2010-05-01 18:00","2010","05","01","18:00"," ","12.50","","6.40","","66.00","","26.00","","33.00","","48.30","","101.53","","","","","","Mainly Clear"
"2010-05-01 19:00","2010","05","01","19:00"," ","12.20","","6.70","","69.00","","24.00","","28.00","","48.30","","101.57","","","","","","Mainly Clear"
"2010-05-01 20:00","2010","05","01","20:00"," ","11.50","","7.10","","74.00","","22.00","","30.00","","48.30","","101.63","","","","","","Mainly Clear"
"2010-05-01 21:00","2010","05","01","21:00"," ","11.90","","6.70","","70.00","","26.00","","32.00","","32.20","","101.68","","","","","","Mainly Clear"
"2010-05-01 22:00","2010","05","01","22:00"," ","11.50","","7.20","","75.00","","28.00","","35.00","","32.20","","101.74","","","","","","Mainly Clear"
"2010-05-01 23:00","2010","05","01","23:00"," ","11.00","","6.30","","73.00","","28.00","","37.00","","24.10","","101.75","","","","","","Mostly Cloudy"
"2010-05-02 00:00","2010","05","02","00:00"," ","10.80","","5.80","","71.00","","28.00","","32.00","","24.10","","101.85","","","","","","Mostly Cloudy"
"2010-05-02 01:00","2010","05","02","01:00"," ","9.50","","5.40","","76.00","","30.00","","22.00","","24.10","","101.86","","","","","","Mostly Cloudy"
"2010-05-02 02:00","2010","05","02","02:00"," ","9.60","","5.70","","77.00","","30.00","","19.00","","24.10","","101.92","","","","","","Mostly Cloudy"
"2010-05-02 03:00","2010","05","02","03:00"," ","9.50","","5.30","","75.00","","28.00","","24.00","","24.10","","101.97","","","","","","Cloudy"
"2010-05-02 04:00","2010","05","02","04:00"," ","9.50","","5.30","","75.00","","28.00","","19.00","","24.10","","102.00","","","","","","Cloudy"
"2010-05-02 05:00","2010","05","02","05:00"," ","9.40","","4.80","","73.00","","29.00","","9.00","","24.10","","102.04","","","","","","Cloudy"
"2010-05-02 06:00","2010","05","02","06:00"," ","9.40","","5.50","","77.00","","29.00","","6.00","","32.20","","102.04","","","","","","Cloudy"
"2010-05-02 07:00","2010","05","02","07:00"," ","8.90","","6.60","","85.00","","0.00","","0.00","","16.10","","102.07","","","","","","Rain"
"2010-05-02 08:00","2010","05","02","08:00"," ","9.10","","7.50","","90.00","","0.00","","0.00","","24.10","","102.09","","","","","","Rain"
"2010-05-02 09:00","2010","05","02","09:00"," ","9.00","","7.40","","90.00","","0.00","","0.00","","24.10","","102.05","","","","","","Rain"
"2010-05-02 10:00","2010","05","02","10:00"," ","10.80","","6.80","","76.00","","11.00","","7.00","","24.10","","102.03","","","","","","Cloudy"
"2010-05-02 11:00","2010","05","02","11:00"," ","11.70","","4.90","","63.00","","20.00","","11.00","","24.10","","101.98","","","","","","Cloudy"
"2010-05-02 12:00","2010","05","02","12:00"," ","11.60","","4.70","","63.00","","21.00","","28.00","","24.10","","101.97","","","","","","Cloudy"
"2010-05-02 13:00","2010","05","02","13:00"," ","10.70","","5.40","","70.00","","20.00","","22.00","","24.10","","101.97","","","","","","Cloudy"
"2010-05-02 14:00","2010","05","02","14:00"," ","10.20","","6.80","","79.00","","17.00","","22.00","","24.10","","101.92","","","","","","Rain"
"2010-05-02 15:00","2010","05","02","15:00"," ","9.10","","7.10","","87.00","","16.00","","24.00","","19.30","","101.84","","","","","","Rain"
"2010-05-02 16:00","2010","05","02","16:00"," ","8.40","","7.30","","93.00","","15.00","","20.00","","19.30","","101.77","","","","","","Rain"
"2010-05-02 17:00","2010","05","02","17:00"," ","7.90","","7.00","","94.00","","14.00","","22.00","","19.30","","101.71","","","","","","Rain"
"2010-05-02 18:00","2010","05","02","18:00"," ","7.50","","6.50","","93.00","","13.00","","22.00","","16.10","","101.54","","","","","","Rain"
"2010-05-02 19:00","2010","05","02","19:00"," ","7.00","","6.40","","96.00","","9.00","","17.00","","16.10","","101.36","","","","","","Rain"
"2010-05-02 20:00","2010","05","02","20:00"," ","6.80","","6.30","","97.00","","8.00","","17.00","","16.10","","101.21","","","","","","Rain"
"2010-05-02 21:00","2010","05","02","21:00"," ","6.40","","6.00","","97.00","","9.00","","28.00","","19.30","","101.04","","","","","","Rain"
"2010-05-02 22:00","2010","05","02","22:00"," ","7.70","","7.10","","96.00","","13.00","","28.00","","24.10","","100.86","","","","","","Rain"
"2010-05-02 23:00","2010","05","02","23:00"," ","8.20","","7.50","","95.00","","14.00","","28.00","","24.10","","100.65","","","","","","Rain"
"2010-05-03 00:00","2010","05","03","00:00"," ","8.40","","7.70","","95.00","","15.00","","26.00","","24.10","","100.46","","","","","","Rain"
"2010-05-03 01:00","2010","05","03","01:00"," ","8.90","","7.20","","89.00","","16.00","","37.00","","24.10","","100.30","","","","","","Rain"
"2010-05-03 02:00","2010","05","03","02:00"," ","9.70","","7.70","","87.00","","16.00","","24.00","","24.10","","100.17","","","","","","Mostly Cloudy"
"2010-05-03 03:00","2010","05","03","03:00"," ","10.10","","4.90","","70.00","","22.00","","39.00","","24.10","","100.13","","","","","","Mainly Clear"
"2010-05-03 04:00","2010","05","03","04:00"," ","9.30","","3.40","","67.00","","22.00","","41.00","","24.10","","100.22","","","","","","Mostly Cloudy"
"2010-05-03 05:00","2010","05","03","05:00"," ","6.60","","4.10","","84.00","","30.00","","54.00","","19.30","","100.34","","","","","","Rain"
"2010-05-03 06:00","2010","05","03","06:00"," ","6.60","","4.20","","85.00","","31.00","","35.00","","19.30","","100.42","","","","","","Rain Showers"
"2010-05-03 07:00","2010","05","03","07:00"," ","6.90","","4.40","","84.00","","30.00","","33.00","","24.10","","100.60","","","","","","Mostly Cloudy"
"2010-05-03 08:00","2010","05","03","08:00"," ","7.90","","4.80","","81.00","","30.00","","32.00","","24.10","","100.69","","","","","","Rain Showers"
"2010-05-03 09:00","2010","05","03","09:00"," ","8.10","","3.90","","75.00","","28.00","","28.00","","24.10","","100.79","","","","","","Rain Showers"
"2010-05-03 10:00","2010","05","03","10:00"," ","10.50","","6.80","","78.00","","30.00","","41.00","","32.20","","100.87","","","","","","Mostly Cloudy"
"2010-05-03 11:00","2010","05","03","11:00"," ","9.60","","1.60","","57.00","","29.00","","52.00","","32.20","","100.97","","","","","","Mostly Cloudy"
"2010-05-03 12:00","2010","05","03","12:00"," ","12.10","","2.70","","53.00","","29.00","","50.00","","32.20","","101.05","","","","","","Mostly Cloudy"
"2010-05-03 13:00","2010","05","03","13:00"," ","12.30","","0.50","","44.00","","29.00","","44.00","","32.20","","101.15","","","","","","Mainly Clear"
"2010-05-03 14:00","2010","05","03","14:00"," ","12.00","","2.30","","51.00","","29.00","","43.00","","32.20","","101.27","","","","","","Mainly Clear"
"2010-05-03 15:00","2010","05","03","15:00"," ","11.30","","1.70","","52.00","","28.00","","48.00","","32.20","","101.38","","","","","","Mainly Clear"
"2010-05-03 16:00","2010","05","03","16:00"," ","11.20","","2.60","","55.00","","27.00","","44.00","","32.20","","101.46","","","","","","Mainly Clear"
"2010-05-03 17:00","2010","05","03","17:00"," ","8.40","","2.30","","65.00","","24.00","","48.00","","32.20","","101.57","","","","","","Mostly Cloudy"
"2010-05-03 18:00","2010","05","03","18:00"," ","8.60","","3.20","","69.00","","27.00","","54.00","","32.20","","101.64","","","","","","Mostly Cloudy"
"2010-05-03 19:00","2010","05","03","19:00"," ","8.00","","3.40","","73.00","","27.00","","37.00","","32.20","","101.72","","","","","","Mainly Clear"
"2010-05-03 20:00","2010","05","03","20:00"," ","7.40","","1.90","","68.00","","26.00","","44.00","","32.20","","101.84","","","","","","Mainly Clear"
"2010-05-03 21:00","2010","05","03","21:00"," ","7.80","","2.40","","69.00","","27.00","","35.00","","32.20","","101.96","","","","","","Mainly Clear"
"2010-05-03 22:00","2010","05","03","22:00"," ","7.10","","3.30","","77.00","","26.00","","39.00","","32.20","","102.09","","","","","","Mainly Clear"
"2010-05-03 23:00","2010","05","03","23:00"," ","7.40","","2.70","","72.00","","27.00","","35.00","","32.20","","102.13","","","","","","Mainly Clear"
"2010-05-04 00:00","2010","05","04","00:00"," ","7.40","","2.40","","71.00","","27.00","","37.00","","32.20","","102.22","","","","","","Mainly Clear"
"2010-05-04 01:00","2010","05","04","01:00"," ","7.20","","2.30","","71.00","","28.00","","30.00","","32.20","","102.30","","","","","","Mainly Clear"
"2010-05-04 02:00","2010","05","04","02:00"," ","6.80","","1.30","","68.00","","27.00","","32.00","","32.20","","102.37","","","","","","Mostly Cloudy"
"2010-05-04 03:00","2010","05","04","03:00"," ","6.60","","2.80","","77.00","","27.00","","28.00","","32.20","","102.43","","","","","","Mainly Clear"
"2010-05-04 04:00","2010","05","04","04:00"," ","6.80","","1.00","","66.00","","27.00","","28.00","","32.20","","102.46","","","","","","Mainly Clear"
"2010-05-04 05:00","2010","05","04","05:00"," ","6.10","","0.00","","65.00","","28.00","","20.00","","32.20","","102.51","","","","","","Mainly Clear"
"2010-05-04 06:00","2010","05","04","06:00"," ","6.80","","0.90","","66.00","","29.00","","19.00","","48.30","","102.54","","","","","","Mainly Clear"
"2010-05-04 07:00","2010","05","04","07:00"," ","7.70","","1.10","","63.00","","28.00","","15.00","","48.30","","102.60","","","","","","Mostly Cloudy"
"2010-05-04 08:00","2010","05","04","08:00"," ","8.60","","0.80","","58.00","","28.00","","15.00","","48.30","","102.64","","","","","","Mainly Clear"
"2010-05-04 09:00","2010","05","04","09:00"," ","9.10","","3.20","","67.00","","24.00","","13.00","","48.30","","102.66","","","","","","Mainly Clear"
"2010-05-04 10:00","2010","05","04","10:00"," ","9.60","","2.40","","61.00","","26.00","","15.00","","48.30","","102.70","","","","","","Mainly Clear"
"2010-05-04 11:00","2010","05","04","11:00"," ","10.00","","0.90","","53.00","","25.00","","13.00","","48.30","","102.70","","","","","","Mainly Clear"
"2010-05-04 12:00","2010","05","04","12:00"," ","10.10","","-0.10","","49.00","","23.00","","13.00","","48.30","","102.69","","","","","","Mainly Clear"
"2010-05-04 13:00","2010","05","04","13:00"," ","10.50","","0.60","","50.00","","24.00","","13.00","","48.30","","102.66","","","","","","Mainly Clear"
"2010-05-04 14:00","2010","05","04","14:00"," ","10.60","","1.10","","52.00","","23.00","","22.00","","48.30","","102.63","","","","","","Mainly Clear"
"2010-05-04 15:00","2010","05","04","15:00"," ","9.30","","2.80","","64.00","","34.00","","11.00","","48.30","","102.61","","","","","","Mostly Cloudy"
"2010-05-04 16:00","2010","05","04","16:00"," ","9.90","","4.90","","71.00","","28.00","","17.00","","48.30","","102.60","","","","","","Mostly Cloudy"
"2010-05-04 17:00","2010","05","04","17:00"," ","9.90","","3.00","","62.00","","28.00","","9.00","","48.30","","102.56","","","","","","Mostly Cloudy"
"2010-05-04 18:00","2010","05","04","18:00"," ","8.70","","2.60","","65.00","","35.00","","6.00","","48.30","","102.54","","","","","","Mostly Cloudy"
"2010-05-04 19:00","2010","05","04","19:00"," ","8.20","","2.00","","65.00","","1.00","","6.00","","48.30","","102.50","","","","","","Mainly Clear"
"2010-05-04 20:00","2010","05","04","20:00"," ","7.60","","0.90","","62.00","","2.00","","4.00","","48.30","","102.50","","","","","","Mostly Cloudy"
"2010-05-04 21:00","2010","05","04","21:00"," ","6.40","","2.00","","73.00","","9.00","","7.00","","48.30","","102.52","","","","","","Mainly Clear"
"2010-05-04 22:00","2010","05","04","22:00"," ","4.60","","1.50","","80.00","","4.00","","6.00","","48.30","","102.50","","","","","","Mainly Clear"
"2010-05-04 23:00","2010","05","04","23:00"," ","5.00","","2.50","","84.00","","0.00","","0.00","","48.30","","102.49","","","","","","Mainly Clear"
"2010-05-05 00:00","2010","05","05","00:00"," ","4.40","","1.90","","84.00","","10.00","","6.00","","48.30","","102.47","","","","","","Mainly Clear"
"2010-05-05 01:00","2010","05","05","01:00"," ","3.90","","1.20","","83.00","","0.00","","0.00","","48.30","","102.45","","","","","","Mainly Clear"
"2010-05-05 02:00","2010","05","05","02:00"," ","4.20","","2.70","","90.00","","14.00","","4.00","","48.30","","102.43","","","","","","Mainly Clear"
"2010-05-05 03:00","2010","05","05","03:00"," ","3.40","","2.40","","93.00","","9.00","","7.00","","48.30","","102.41","","","","","","Mainly Clear"
"2010-05-05 04:00","2010","05","05","04:00"," ","3.50","","2.30","","92.00","","10.00","","6.00","","48.30","","102.40","","","","","","Mainly Clear"
"2010-05-05 05:00","2010","05","05","05:00"," ","3.50","","2.30","","92.00","","11.00","","6.00","","48.30","","102.38","","","","","","Cloudy"
"2010-05-05 06:00","2010","05","05","06:00"," ","4.10","","2.70","","91.00","","11.00","","7.00","","32.20","","102.38","","","","","","Mostly Cloudy"
"2010-05-05 07:00","2010","05","05","07:00"," ","5.20","","3.20","","87.00","","11.00","","7.00","","32.20","","102.40","","","","","","Mostly Cloudy"
"2010-05-05 08:00","2010","05","05","08:00"," ","6.60","","3.80","","82.00","","11.00","","7.00","","32.20","","102.40","","","","","","Cloudy"
"2010-05-05 09:00","2010","05","05","09:00"," ","7.90","","3.40","","73.00","","0.00","","0.00","","32.20","","102.38","","","","","","Mostly Cloudy"
"2010-05-05 10:00","2010","05","05","10:00"," ","9.40","","3.40","","66.00","","21.00","","6.00","","32.20","","102.39","","","","","","Mostly Cloudy"
"2010-05-05 11:00","2010","05","05","11:00"," ","9.60","","4.40","","70.00","","28.00","","15.00","","32.20","","102.41","","","","","","Cloudy"
"2010-05-05 12:00","2010","05","05","12:00"," ","9.30","","4.60","","72.00","","28.00","","11.00","","32.20","","102.40","","","","","","Cloudy"
"2010-05-05 13:00","2010","05","05","13:00"," ","9.90","","5.10","","72.00","","27.00","","9.00","","32.20","","102.36","","","","","","Cloudy"
"2010-05-05 14:00","2010","05","05","14:00"," ","10.80","","4.50","","65.00","","29.00","","7.00","","32.20","","102.35","","","","","","Cloudy"
"2010-05-05 15:00","2010","05","05","15:00"," ","11.50","","3.80","","59.00","","30.00","","4.00","","32.20","","102.33","","","","","","Cloudy"
"2010-05-05 16:00","2010","05","05","16:00"," ","10.80","","3.30","","60.00","","24.00","","9.00","","32.20","","102.32","","","","","","Mostly Cloudy"
"2010-05-05 17:00","2010","05","05","17:00"," ","12.10","","4.40","","59.00","","23.00","","9.00","","32.20","","102.29","","","","","","Mostly Cloudy"
"2010-05-05 18:00","2010","05","05","18:00"," ","11.90","","3.00","","54.00","","21.00","","9.00","","32.20","","102.28","","","","","","Mostly Cloudy"
"2010-05-05 19:00","2010","05","05","19:00"," ","11.60","","2.60","","54.00","","20.00","","13.00","","32.20","","102.31","","","","","","Mainly Clear"
"2010-05-05 20:00","2010","05","05","20:00"," ","10.50","","4.10","","65.00","","15.00","","9.00","","32.20","","102.34","","","","","","Mainly Clear"
"2010-05-05 21:00","2010","05","05","21:00"," ","9.10","","4.20","","71.00","","10.00","","9.00","","32.20","","102.38","","","","","","Mainly Clear"
"2010-05-05 22:00","2010","05","05","22:00"," ","7.50","","4.00","","78.00","","7.00","","13.00","","32.20","","102.40","","","","","","Mainly Clear"
"2010-05-05 23:00","2010","05","05","23:00"," ","7.10","","3.60","","78.00","","7.00","","15.00","","32.20","","102.42","","","","","","Mainly Clear"
"2010-05-06 00:00","2010","05","06","00:00"," ","6.30","","3.00","","79.00","","11.00","","11.00","","32.20","","102.47","","","","","","Mainly Clear"
"2010-05-06 01:00","2010","05","06","01:00"," ","4.90","","2.40","","84.00","","9.00","","13.00","","32.20","","102.52","","","","","","Mainly Clear"
"2010-05-06 02:00","2010","05","06","02:00"," ","4.50","","2.20","","85.00","","8.00","","11.00","","32.20","","102.54","","","","","","Mainly Clear"
"2010-05-06 03:00","2010","05","06","03:00"," ","6.60","","4.10","","84.00","","9.00","","15.00","","32.20","","102.59","","","","","","Mostly Cloudy"
"2010-05-06 04:00","2010","05","06","04:00"," ","6.90","","4.30","","83.00","","8.00","","17.00","","32.20","","102.61","","","","","","Mostly Cloudy"
"2010-05-06 05:00","2010","05","06","05:00"," ","7.70","","4.90","","82.00","","9.00","","17.00","","32.20","","102.65","","","","","","Mostly Cloudy"
"2010-05-06 06:00","2010","05","06","06:00"," ","8.00","","4.80","","80.00","","9.00","","17.00","","24.10","","102.68","","","","","","Mainly Clear"
"2010-05-06 07:00","2010","05","06","07:00"," ","8.80","","5.30","","79.00","","10.00","","15.00","","24.10","","102.73","","","","","","Mostly Cloudy"
"2010-05-06 08:00","2010","05","06","08:00"," ","10.10","","5.80","","75.00","","9.00","","11.00","","32.20","","102.74","","","","","","Mostly Cloudy"
"2010-05-06 09:00","2010","05","06","09:00"," ","10.20","","5.50","","73.00","","9.00","","15.00","","32.20","","102.76","","","","","","Cloudy"
"2010-05-06 10:00","2010","05","06","10:00"," ","10.70","","5.40","","70.00","","13.00","","9.00","","32.20","","102.77","","","","","","Cloudy"
"2010-05-06 11:00","2010","05","06","11:00"," ","11.70","","5.10","","64.00","","15.00","","13.00","","32.20","","102.79","","","","","","Mostly Cloudy"
"2010-05-06 12:00","2010","05","06","12:00"," ","12.50","","4.90","","60.00","","23.00","","17.00","","32.20","","102.77","","","","","","Mostly Cloudy"
"2010-05-06 13:00","2010","05","06","13:00"," ","13.40","","4.90","","56.00","","23.00","","19.00","","32.20","","102.74","","","","","","Mostly Cloudy"
"2010-05-06 14:00","2010","05","06","14:00"," ","13.80","","6.50","","61.00","","22.00","","22.00","","32.20","","102.71","","","","","","Mainly Clear"
"2010-05-06 15:00","2010","05","06","15:00"," ","13.30","","5.90","","61.00","","22.00","","20.00","","32.20","","102.68","","","","","","Mainly Clear"
"2010-05-06 16:00","2010","05","06","16:00"," ","12.70","","6.00","","64.00","","26.00","","17.00","","32.20","","102.64","","","","","","Mainly Clear"
"2010-05-06 17:00","2010","05","06","17:00"," ","12.30","","7.10","","71.00","","27.00","","13.00","","32.20","","102.63","","","","","","Mainly Clear"
"2010-05-06 18:00","2010","05","06","18:00"," ","12.10","","6.60","","69.00","","30.00","","7.00","","32.20","","102.61","","","","","","Mainly Clear"
"2010-05-06 19:00","2010","05","06","19:00"," ","11.10","","5.60","","69.00","","31.00","","4.00","","32.20","","102.60","","","","","","Mainly Clear"
"2010-05-06 20:00","2010","05","06","20:00"," ","11.20","","3.30","","58.00","","21.00","","4.00","","32.20","","102.60","","","","","","Mainly Clear"
"2010-05-06 21:00","2010","05","06","21:00"," ","9.60","","4.50","","70.00","","0.00","","0.00","","24.10","","102.63","","","","","","Mainly Clear"
"2010-05-06 22:00","2010","05","06","22:00"," ","9.40","","3.80","","68.00","","7.00","","7.00","","24.10","","102.62","","","","","","Mainly Clear"
"2010-05-06 23:00","2010","05","06","23:00"," ","8.40","","3.60","","72.00","","27.00","","11.00","","24.10","","102.62","","","","","","Mainly Clear"
"2010-05-07 00:00","2010","05","07","00:00"," ","7.80","","3.90","","76.00","","8.00","","13.00","","24.10","","102.61","","","","","","Clear"
"2010-05-07 01:00","2010","05","07","01:00"," ","6.20","","3.00","","80.00","","7.00","","11.00","","24.10","","102.61","","","","","","Clear"
"2010-05-07 02:00","2010","05","07","02:00"," ","5.60","","2.70","","82.00","","5.00","","9.00","","24.10","","102.57","","","","","","Mainly Clear"
"2010-05-07 03:00","2010","05","07","03:00"," ","6.50","","2.60","","76.00","","36.00","","4.00","","24.10","","102.56","","","","","","Mainly Clear"
"2010-05-07 04:00","2010","05","07","04:00"," ","5.70","","1.90","","77.00","","34.00","","6.00","","24.10","","102.55","","","","","","Mainly Clear"
"2010-05-07 05:00","2010","05","07","05:00"," ","6.80","","2.90","","76.00","","0.00","","0.00","","32.20","","102.54","","","","","","Mainly Clear"
"2010-05-07 06:00","2010","05","07","06:00"," ","7.50","","2.90","","73.00","","17.00","","4.00","","48.30","","102.52","","","","","","Mainly Clear"
"2010-05-07 07:00","2010","05","07","07:00"," ","9.60","","4.60","","71.00","","33.00","","17.00","","48.30","","102.52","","","","","","Clear"
"2010-05-07 08:00","2010","05","07","08:00"," ","10.10","","5.80","","75.00","","26.00","","17.00","","48.30","","102.50","","","","","","Mainly Clear"
"2010-05-07 09:00","2010","05","07","09:00"," ","10.90","","5.00","","67.00","","27.00","","15.00","","48.30","","102.49","","","","","","Mainly Clear"
"2010-05-07 10:00","2010","05","07","10:00"," ","11.80","","8.00","","78.00","","28.00","","20.00","","48.30","","102.44","","","","","","Mainly Clear"
"2010-05-07 11:00","2010","05","07","11:00"," ","11.60","","7.60","","76.00","","29.00","","20.00","","48.30","","102.42","","","","","","Mainly Clear"
"2010-05-07 12:00","2010","05","07","12:00"," ","12.50","","8.10","","75.00","","28.00","","19.00","","48.30","","102.36","","","","","","Mainly Clear"
"2010-05-07 13:00","2010","05","07","13:00"," ","13.50","","7.30","","66.00","","29.00","","22.00","","48.30","","102.30","","","","","","Mainly Clear"
"2010-05-07 14:00","2010","05","07","14:00"," ","14.20","","6.30","","59.00","","30.00","","22.00","","48.30","","102.23","","","","","","Mainly Clear"
"2010-05-07 15:00","2010","05","07","15:00"," ","14.50","","7.00","","61.00","","30.00","","24.00","","48.30","","102.14","","","","","","Mainly Clear"
"2010-05-07 16:00","2010","05","07","16:00"," ","14.60","","5.30","","54.00","","30.00","","15.00","","48.30","","102.09","","","","","","Mainly Clear"
"2010-05-07 17:00","2010","05","07","17:00"," ","14.50","","4.60","","51.00","","30.00","","15.00","","48.30","","102.06","","","","","","Mainly Clear"
"2010-05-07 18:00","2010","05","07","18:00"," ","14.30","","3.80","","49.00","","31.00","","11.00","","48.30","","102.03","","","","","","Mainly Clear"
"2010-05-07 19:00","2010","05","07","19:00"," ","13.50","","1.60","","44.00","","28.00","","6.00","","48.30","","102.00","","","","","","Mainly Clear"
"2010-05-07 20:00","2010","05","07","20:00"," ","12.40","","2.60","","51.00","","0.00","","0.00","","48.30","","102.01","","","","","","Mainly Clear"
"2010-05-07 21:00","2010","05","07","21:00"," ","11.20","","2.20","","54.00","","9.00","","4.00","","32.20","","102.02","","","","","","Mainly Clear"
"2010-05-07 22:00","2010","05","07","22:00"," ","10.00","","3.50","","64.00","","9.00","","6.00","","32.20","","102.00","","","","","","Mainly Clear"
"2010-05-07 23:00","2010","05","07","23:00"," ","9.30","","2.80","","64.00","","5.00","","9.00","","24.10","","101.97","","","","","","Mainly Clear"
"2010-05-08 00:00","2010","05","08","00:00"," ","9.00","","2.40","","63.00","","11.00","","7.00","","24.10","","101.96","","","","","","Mainly Clear"
"2010-05-08 01:00","2010","05","08","01:00"," ","8.30","","1.30","","61.00","","0.00","","0.00","","24.10","","101.96","","","","","","Mainly Clear"
"2010-05-08 02:00","2010","05","08","02:00"," ","7.60","","1.30","","64.00","","7.00","","4.00","","24.10","","101.92","","","","","","Mainly Clear"
"2010-05-08 03:00","2010","05","08","03:00"," ","8.60","","2.60","","66.00","","15.00","","6.00","","24.10","","101.88","","","","","","Mainly Clear"
"2010-05-08 04:00","2010","05","08","04:00"," ","6.30","","1.70","","72.00","","0.00","","0.00","","32.20","","101.88","","","","","","Mainly Clear"
"2010-05-08 05:00","2010","05","08","05:00"," ","6.30","","2.50","","77.00","","11.00","","4.00","","32.20","","101.88","","","","","","Mainly Clear"
"2010-05-08 06:00","2010","05","08","06:00"," ","8.00","","3.50","","73.00","","0.00","","0.00","","48.30","","101.90","","","","","","Clear"
"2010-05-08 07:00","2010","05","08","07:00"," ","10.50","","5.20","","70.00","","24.00","","6.00","","48.30","","101.89","","","","","","Clear"
"2010-05-08 08:00","2010","05","08","08:00"," ","11.30","","6.10","","70.00","","24.00","","7.00","","48.30","","101.87","","","","","","Mainly Clear"
"2010-05-08 09:00","2010","05","08","09:00"," ","12.20","","8.00","","75.00","","26.00","","11.00","","48.30","","101.84","","","","","","Mainly Clear"
"2010-05-08 10:00","2010","05","08","10:00"," ","12.30","","6.20","","66.00","","24.00","","13.00","","48.30","","101.81","","","","","","Mainly Clear"
"2010-05-08 11:00","2010","05","08","11:00"," ","13.00","","7.20","","68.00","","25.00","","11.00","","48.30","","101.79","","","","","","Mainly Clear"
"2010-05-08 12:00","2010","05","08","12:00"," ","13.30","","7.50","","68.00","","27.00","","11.00","","48.30","","101.73","","","","","","Mainly Clear"
"2010-05-08 13:00","2010","05","08","13:00"," ","14.00","","6.90","","62.00","","29.00","","9.00","","48.30","","101.68","","","","","","Mainly Clear"
"2010-05-08 14:00","2010","05","08","14:00"," ","15.40","","3.30","","44.00","","28.00","","9.00","","48.30","","101.62","","","","","","Mainly Clear"
"2010-05-08 15:00","2010","05","08","15:00"," ","15.30","","6.00","","54.00","","25.00","","11.00","","48.30","","101.59","","","","","","Mainly Clear"
"2010-05-08 16:00","2010","05","08","16:00"," ","15.50","","6.10","","53.00","","26.00","","13.00","","48.30","","101.57","","","","","","Mainly Clear"
"2010-05-08 17:00","2010","05","08","17:00"," ","16.10","","4.10","","45.00","","22.00","","13.00","","48.30","","101.56","","","","","","Mainly Clear"
"2010-05-08 18:00","2010","05","08","18:00"," ","15.50","","4.80","","49.00","","23.00","","13.00","","48.30","","101.57","","","","","","Mainly Clear"
"2010-05-08 19:00","2010","05","08","19:00"," ","14.00","","6.80","","62.00","","28.00","","17.00","","48.30","","101.51","","","","","","Mainly Clear"
"2010-05-08 20:00","2010","05","08","20:00"," ","11.20","","5.80","","69.00","","31.00","","11.00","","48.30","","101.51","","","","","","Mainly Clear"
"2010-05-08 21:00","2010","05","08","21:00"," ","12.90","","6.50","","65.00","","0.00","","0.00","","32.20","","101.54","","","","","","Mainly Clear"
"2010-05-08 22:00","2010","05","08","22:00"," ","11.20","","5.40","","67.00","","11.00","","4.00","","32.20","","101.54","","","","","","Mainly Clear"
"2010-05-08 23:00","2010","05","08","23:00"," ","10.10","","3.70","","64.00","","9.00","","9.00","","24.10","","101.55","","","","","","Mainly Clear"
"2010-05-09 00:00","2010","05","09","00:00"," ","8.20","","3.30","","71.00","","9.00","","11.00","","24.10","","101.56","","","","","","Mainly Clear"
"2010-05-09 01:00","2010","05","09","01:00"," ","7.40","","3.10","","74.00","","9.00","","13.00","","24.10","","101.56","","","","","","Mainly Clear"
"2010-05-09 02:00","2010","05","09","02:00"," ","6.90","","2.90","","76.00","","9.00","","13.00","","24.10","","101.55","","","","","","Mainly Clear"
"2010-05-09 03:00","2010","05","09","03:00"," ","7.00","","3.10","","76.00","","9.00","","9.00","","24.10","","101.55","","","","","","Mainly Clear"
"2010-05-09 04:00","2010","05","09","04:00"," ","5.80","","2.40","","79.00","","9.00","","15.00","","32.20","","101.53","","","","","","Mainly Clear"
"2010-05-09 05:00","2010","05","09","05:00"," ","6.10","","2.40","","77.00","","10.00","","13.00","","32.20","","101.53","","","","","","Mainly Clear"
"2010-05-09 06:00","2010","05","09","06:00"," ","8.30","","3.90","","74.00","","12.00","","11.00","","48.30","","101.56","","","","","","Mainly Clear"
"2010-05-09 07:00","2010","05","09","07:00"," ","10.00","","4.40","","68.00","","11.00","","13.00","","48.30","","101.57","","","","","","Mainly Clear"
"2010-05-09 08:00","2010","05","09","08:00"," ","11.90","","4.10","","59.00","","13.00","","17.00","","48.30","","101.54","","","","","","Mainly Clear"
"2010-05-09 09:00","2010","05","09","09:00"," ","13.00","","5.60","","61.00","","12.00","","17.00","","48.30","","101.53","","","","","","Mostly Cloudy"
"2010-05-09 10:00","2010","05","09","10:00"," ","13.90","","6.10","","59.00","","15.00","","15.00","","48.30","","101.50","","","","","","Mainly Clear"
"2010-05-09 11:00","2010","05","09","11:00"," ","14.70","","6.40","","57.00","","15.00","","9.00","","48.30","","101.46","","","","","","Mainly Clear"
"2010-05-09 12:00","2010","05","09","12:00"," ","16.70","","6.60","","51.00","","11.00","","11.00","","48.30","","101.40","","","","","","Mainly Clear"
"2010-05-09 13:00","2010","05","09","13:00"," ","17.40","","0.40","","32.00","","22.00","","13.00","","48.30","","101.34","","","","","","Mainly Clear"
"2010-05-09 14:00","2010","05","09","14:00"," ","18.30","","1.10","","31.00","","14.00","","6.00","","48.30","","101.29","","","","","","Mostly Cloudy"
"2010-05-09 15:00","2010","05","09","15:00"," ","17.80","","1.30","","33.00","","18.00","","7.00","","48.30","","101.22","","","","","","Mostly Cloudy"
"2010-05-09 16:00","2010","05","09","16:00"," ","18.10","","-1.30","","27.00","","22.00","","20.00","","48.30","","101.15","","","","","","Mostly Cloudy"
"2010-05-09 17:00","2010","05","09","17:00"," ","16.50","","-1.20","","30.00","","20.00","","20.00","","48.30","","101.09","","","","","","Mostly Cloudy"
"2010-05-09 18:00","2010","05","09","18:00"," ","15.80","","1.20","","37.00","","19.00","","9.00","","48.30","","101.06","","","","","","Cloudy"
"2010-05-09 19:00","2010","05","09","19:00"," ","15.20","","1.70","","40.00","","19.00","","4.00","","48.30","","101.01","","","","","","Cloudy"
"2010-05-09 20:00","2010","05","09","20:00"," ","13.20","","2.00","","47.00","","36.00","","7.00","","48.30","","100.96","","","","","","Mostly Cloudy"
"2010-05-09 21:00","2010","05","09","21:00"," ","12.50","","3.00","","52.00","","3.00","","7.00","","32.20","","100.95","","","","","","Mostly Cloudy"
"2010-05-09 22:00","2010","05","09","22:00"," ","12.20","","-0.70","","41.00","","8.00","","9.00","","32.20","","100.91","","","","","","Mostly Cloudy"
"2010-05-09 23:00","2010","05","09","23:00"," ","12.00","","-0.60","","42.00","","5.00","","7.00","","32.20","","100.88","","","","","","Mostly Cloudy"
"2010-05-10 00:00","2010","05","10","00:00"," ","10.80","","-0.90","","44.00","","3.00","","4.00","","24.10","","100.86","","","","","","Mostly Cloudy"
"2010-05-10 01:00","2010","05","10","01:00"," ","11.00","","-0.30","","46.00","","11.00","","4.00","","24.10","","100.85","","","","","","Mostly Cloudy"
"2010-05-10 02:00","2010","05","10","02:00"," ","11.60","","-0.30","","44.00","","15.00","","7.00","","24.10","","100.84","","","","","","Cloudy"
"2010-05-10 03:00","2010","05","10","03:00"," ","10.90","","1.30","","51.00","","17.00","","9.00","","24.10","","100.89","","","","","","Cloudy"
"2010-05-10 04:00","2010","05","10","04:00"," ","10.20","","1.40","","54.00","","4.00","","9.00","","24.10","","100.93","","","","","","Cloudy"
"2010-05-10 05:00","2010","05","10","05:00"," ","10.20","","5.60","","73.00","","14.00","","7.00","","24.10","","101.02","","","","","","Cloudy"
"2010-05-10 06:00","2010","05","10","06:00"," ","9.40","","5.10","","74.00","","9.00","","11.00","","32.20","","101.06","","","","","","Cloudy"
"2010-05-10 07:00","2010","05","10","07:00"," ","10.60","","5.20","","69.00","","9.00","","20.00","","32.20","","101.13","","","","","","Cloudy"
"2010-05-10 08:00","2010","05","10","08:00"," ","11.10","","5.80","","70.00","","9.00","","15.00","","32.20","","101.17","","","","","","Cloudy"
"2010-05-10 09:00","2010","05","10","09:00"," ","12.60","","6.30","","65.00","","12.00","","17.00","","32.20","","101.21","","","","","","Cloudy"
"2010-05-10 10:00","2010","05","10","10:00"," ","14.00","","6.80","","62.00","","10.00","","17.00","","32.20","","101.25","","","","","","Mostly Cloudy"
"2010-05-10 11:00","2010","05","10","11:00"," ","14.90","","6.90","","59.00","","0.00","","0.00","","32.20","","101.27","","","","","","Mostly Cloudy"
"2010-05-10 12:00","2010","05","10","12:00"," ","13.80","","8.00","","68.00","","27.00","","24.00","","48.30","","101.29","","","","","","Mainly Clear"
"2010-05-10 13:00","2010","05","10","13:00"," ","14.50","","9.00","","70.00","","29.00","","19.00","","48.30","","101.30","","","","","","Mainly Clear"
"2010-05-10 14:00","2010","05","10","14:00"," ","14.40","","7.80","","65.00","","29.00","","17.00","","48.30","","101.31","","","","","","Mostly Cloudy"
"2010-05-10 15:00","2010","05","10","15:00"," ","14.90","","7.50","","61.00","","28.00","","19.00","","48.30","","101.32","","","","","","Mostly Cloudy"
"2010-05-10 16:00","2010","05","10","16:00"," ","14.80","","7.40","","61.00","","24.00","","19.00","","48.30","","101.33","","","","","","Mostly Cloudy"
"2010-05-10 17:00","2010","05","10","17:00"," ","15.30","","6.70","","56.00","","21.00","","19.00","","48.30","","101.34","","","","","","Mostly Cloudy"
"2010-05-10 18:00","2010","05","10","18:00"," ","15.50","","5.50","","51.00","","22.00","","19.00","","48.30","","101.37","","","","","","Mainly Clear"
"2010-05-10 19:00","2010","05","10","19:00"," ","14.60","","6.10","","57.00","","16.00","","22.00","","48.30","","101.44","","","","","","Mainly Clear"
"2010-05-10 20:00","2010","05","10","20:00"," ","11.70","","6.80","","72.00","","11.00","","17.00","","48.30","","101.55","","","","","","Mainly Clear"
"2010-05-10 21:00","2010","05","10","21:00"," ","10.50","","6.50","","76.00","","10.00","","20.00","","48.30","","101.64","","","","","","Mainly Clear"
"2010-05-10 22:00","2010","05","10","22:00"," ","9.70","","5.10","","73.00","","9.00","","17.00","","48.30","","101.71","","","","","","Mainly Clear"
"2010-05-10 23:00","2010","05","10","23:00"," ","9.30","","5.00","","74.00","","8.00","","15.00","","48.30","","101.77","","","","","","Mainly Clear"
"2010-05-11 00:00","2010","05","11","00:00"," ","8.60","","4.50","","75.00","","10.00","","13.00","","48.30","","101.83","","","","","","Mainly Clear"
"2010-05-11 01:00","2010","05","11","01:00"," ","9.50","","5.00","","73.00","","11.00","","13.00","","48.30","","101.89","","","","","","Mainly Clear"
"2010-05-11 02:00","2010","05","11","02:00"," ","7.90","","4.60","","80.00","","10.00","","15.00","","48.30","","101.94","","","","","","Mainly Clear"
"2010-05-11 03:00","2010","05","11","03:00"," ","8.80","","5.50","","80.00","","10.00","","13.00","","48.30","","102.02","","","","","","Mainly Clear"
"2010-05-11 04:00","2010","05","11","04:00"," ","7.70","","4.70","","81.00","","9.00","","7.00","","48.30","","102.09","","","","","","Mainly Clear"
"2010-05-11 05:00","2010","05","11","05:00"," ","7.90","","4.90","","81.00","","9.00","","7.00","","48.30","","102.16","","","","","","Clear"
"2010-05-11 06:00","2010","05","11","06:00"," ","10.00","","6.10","","77.00","","9.00","","9.00","","48.30","","102.23","","","","","","Clear"
"2010-05-11 07:00","2010","05","11","07:00"," ","11.20","","7.20","","76.00","","10.00","","11.00","","48.30","","102.33","","","","","","Mainly Clear"
"2010-05-11 08:00","2010","05","11","08:00"," ","12.90","","7.80","","71.00","","8.00","","4.00","","48.30","","102.36","","","","","","Mainly Clear"
"2010-05-11 09:00","2010","05","11","09:00"," ","13.70","","7.90","","68.00","","13.00","","9.00","","48.30","","102.39","","","","","","Mostly Cloudy"
"2010-05-11 10:00","2010","05","11","10:00"," ","14.20","","8.30","","68.00","","16.00","","11.00","","48.30","","102.40","","","","","","Mostly Cloudy"
"2010-05-11 11:00","2010","05","11","11:00"," ","14.80","","8.50","","66.00","","17.00","","13.00","","48.30","","102.41","","","","","","Mainly Clear"
"2010-05-11 12:00","2010","05","11","12:00"," ","15.30","","8.00","","62.00","","15.00","","13.00","","48.30","","102.38","","","","","","Mainly Clear"
"2010-05-11 13:00","2010","05","11","13:00"," ","16.60","","8.50","","59.00","","22.00","","17.00","","48.30","","102.38","","","","","","Mainly Clear"
"2010-05-11 14:00","2010","05","11","14:00"," ","16.60","","10.80","","69.00","","23.00","","22.00","","48.30","","102.32","","","","","","Mainly Clear"
"2010-05-11 15:00","2010","05","11","15:00"," ","17.10","","7.90","","55.00","","21.00","","20.00","","48.30","","102.28","","","","","","Mainly Clear"
"2010-05-11 16:00","2010","05","11","16:00"," ","17.10","","7.30","","52.00","","22.00","","17.00","","48.30","","102.27","","","","","","Mainly Clear"
"2010-05-11 17:00","2010","05","11","17:00"," ","17.10","","7.40","","53.00","","20.00","","11.00","","48.30","","102.26","","","","","","Mainly Clear"
"2010-05-11 18:00","2010","05","11","18:00"," ","16.20","","7.60","","57.00","","17.00","","13.00","","48.30","","102.24","","","","","","Mostly Cloudy"
"2010-05-11 19:00","2010","05","11","19:00"," ","15.30","","6.60","","56.00","","14.00","","15.00","","48.30","","102.24","","","","","","Mostly Cloudy"
"2010-05-11 20:00","2010","05","11","20:00"," ","13.00","","7.00","","67.00","","10.00","","13.00","","48.30","","102.28","","","","","","Mostly Cloudy"
"2010-05-11 21:00","2010","05","11","21:00"," ","11.90","","7.60","","75.00","","10.00","","24.00","","48.30","","102.29","","","","","","Mostly Cloudy"
"2010-05-11 22:00","2010","05","11","22:00"," ","11.70","","6.90","","72.00","","11.00","","17.00","","48.30","","102.33","","","","","","Mainly Clear"
"2010-05-11 23:00","2010","05","11","23:00"," ","11.20","","5.70","","69.00","","10.00","","19.00","","48.30","","102.35","","","","","","Mainly Clear"
"2010-05-12 00:00","2010","05","12","00:00"," ","9.70","","5.30","","74.00","","9.00","","19.00","","48.30","","102.39","","","","","","Mainly Clear"
"2010-05-12 01:00","2010","05","12","01:00"," ","9.60","","5.30","","75.00","","10.00","","19.00","","48.30","","102.39","","","","","","Mainly Clear"
"2010-05-12 02:00","2010","05","12","02:00"," ","9.30","","4.90","","74.00","","11.00","","20.00","","48.30","","102.42","","","","","","Mainly Clear"
"2010-05-12 03:00","2010","05","12","03:00"," ","9.40","","3.60","","67.00","","11.00","","19.00","","48.30","","102.45","","","","","","Mainly Clear"
"2010-05-12 04:00","2010","05","12","04:00"," ","8.40","","3.30","","70.00","","9.00","","20.00","","48.30","","102.46","","","","","","Mainly Clear"
"2010-05-12 05:00","2010","05","12","05:00"," ","8.40","","4.20","","75.00","","8.00","","22.00","","48.30","","102.50","","","","","","Mainly Clear"
"2010-05-12 06:00","2010","05","12","06:00"," ","10.00","","5.20","","72.00","","9.00","","24.00","","32.20","","102.54","","","","","","Mostly Cloudy"
"2010-05-12 07:00","2010","05","12","07:00"," ","11.20","","5.70","","69.00","","11.00","","24.00","","32.20","","102.59","","","","","","Mostly Cloudy"
"2010-05-12 08:00","2010","05","12","08:00"," ","12.20","","5.60","","64.00","","11.00","","26.00","","32.20","","102.59","","","","","","Mostly Cloudy"
"2010-05-12 09:00","2010","05","12","09:00"," ","13.20","","5.80","","61.00","","12.00","","24.00","","32.20","","102.57","","","","","","Mostly Cloudy"
"2010-05-12 10:00","2010","05","12","10:00"," ","13.70","","4.80","","55.00","","15.00","","24.00","","32.20","","102.58","","","","","","Mostly Cloudy"
"2010-05-12 11:00","2010","05","12","11:00"," ","13.70","","5.70","","58.00","","13.00","","15.00","","32.20","","102.57","","","","","","Mostly Cloudy"
"2010-05-12 12:00","2010","05","12","12:00"," ","14.50","","6.60","","59.00","","17.00","","11.00","","48.30","","102.53","","","","","","Mostly Cloudy"
"2010-05-12 13:00","2010","05","12","13:00"," ","14.80","","5.90","","55.00","","16.00","","13.00","","48.30","","102.48","","","","","","Mostly Cloudy"
"2010-05-12 14:00","2010","05","12","14:00"," ","15.10","","5.40","","52.00","","20.00","","13.00","","48.30","","102.46","","","","","","Mostly Cloudy"
"2010-05-12 15:00","2010","05","12","15:00"," ","15.30","","5.60","","52.00","","23.00","","19.00","","48.30","","102.43","","","","","","Mostly Cloudy"
"2010-05-12 16:00","2010","05","12","16:00"," ","13.80","","4.40","","53.00","","25.00","","15.00","","48.30","","102.40","","","","","","Mostly Cloudy"
"2010-05-12 17:00","2010","05","12","17:00"," ","13.10","","5.40","","60.00","","25.00","","11.00","","48.30","","102.38","","","","","","Cloudy"
"2010-05-12 18:00","2010","05","12","18:00"," ","13.10","","5.40","","60.00","","28.00","","6.00","","32.20","","102.31","","","","","","Cloudy"
"2010-05-12 19:00","2010","05","12","19:00"," ","12.40","","5.20","","61.00","","21.00","","4.00","","32.20","","102.25","","","","","","Mostly Cloudy"
"2010-05-12 20:00","2010","05","12","20:00"," ","11.90","","5.20","","63.00","","20.00","","4.00","","32.20","","102.26","","","","","","Mostly Cloudy"
"2010-05-12 21:00","2010","05","12","21:00"," ","11.70","","5.20","","64.00","","0.00","","0.00","","32.20","","102.26","","","","","","Mostly Cloudy"
"2010-05-12 22:00","2010","05","12","22:00"," ","10.80","","4.90","","67.00","","2.00","","6.00","","32.20","","102.23","","","","","","Mostly Cloudy"
"2010-05-12 23:00","2010","05","12","23:00"," ","9.90","","5.10","","72.00","","10.00","","7.00","","32.20","","102.22","","","","","","Mostly Cloudy"
"2010-05-13 00:00","2010","05","13","00:00"," ","8.80","","5.00","","77.00","","11.00","","6.00","","32.20","","102.21","","","","","","Mostly Cloudy"
"2010-05-13 01:00","2010","05","13","01:00"," ","7.90","","4.90","","81.00","","9.00","","7.00","","32.20","","102.20","","","","","","Mainly Clear"
"2010-05-13 02:00","2010","05","13","02:00"," ","7.80","","5.10","","83.00","","10.00","","9.00","","32.20","","102.20","","","","","","Mainly Clear"
"2010-05-13 03:00","2010","05","13","03:00"," ","8.40","","5.50","","82.00","","0.00","","0.00","","32.20","","102.19","","","","","","Mainly Clear"
"2010-05-13 04:00","2010","05","13","04:00"," ","8.10","","5.20","","82.00","","9.00","","6.00","","32.20","","102.18","","","","","","Mainly Clear"
"2010-05-13 05:00","2010","05","13","05:00"," ","7.70","","4.90","","82.00","","11.00","","6.00","","32.20","","102.19","","","","","","Mainly Clear"
"2010-05-13 06:00","2010","05","13","06:00"," ","10.00","","6.30","","78.00","","11.00","","6.00","","48.30","","102.19","","","","","","Mainly Clear"
"2010-05-13 07:00","2010","05","13","07:00"," ","11.00","","6.40","","73.00","","18.00","","4.00","","48.30","","102.19","","","","","","Mainly Clear"
"2010-05-13 08:00","2010","05","13","08:00"," ","12.50","","6.90","","69.00","","23.00","","7.00","","48.30","","102.15","","","","","","Mainly Clear"
"2010-05-13 09:00","2010","05","13","09:00"," ","12.70","","8.10","","74.00","","25.00","","9.00","","48.30","","102.11","","","","","","Mainly Clear"
"2010-05-13 10:00","2010","05","13","10:00"," ","13.50","","7.90","","69.00","","25.00","","11.00","","48.30","","102.07","","","","","","Mainly Clear"
"2010-05-13 11:00","2010","05","13","11:00"," ","14.30","","9.40","","72.00","","23.00","","11.00","","48.30","","102.04","","","","","","Clear"
"2010-05-13 12:00","2010","05","13","12:00"," ","14.80","","8.10","","64.00","","25.00","","11.00","","48.30","","102.00","","","","","","Clear"
"2010-05-13 13:00","2010","05","13","13:00"," ","15.60","","10.00","","69.00","","25.00","","13.00","","48.30","","101.94","","","","","","Clear"
"2010-05-13 14:00","2010","05","13","14:00"," ","16.80","","9.90","","64.00","","25.00","","13.00","","48.30","","101.88","","","","","","Mainly Clear"
"2010-05-13 15:00","2010","05","13","15:00"," ","16.70","","8.90","","60.00","","25.00","","17.00","","48.30","","101.81","","","","","","Mainly Clear"
"2010-05-13 16:00","2010","05","13","16:00"," ","16.30","","7.30","","55.00","","25.00","","11.00","","48.30","","101.77","","","","","","Mainly Clear"
"2010-05-13 17:00","2010","05","13","17:00"," ","16.10","","7.80","","58.00","","27.00","","9.00","","48.30","","101.73","","","","","","Mostly Cloudy"
"2010-05-13 18:00","2010","05","13","18:00"," ","16.30","","5.10","","47.00","","25.00","","6.00","","48.30","","101.70","","","","","","Mainly Clear"
"2010-05-13 19:00","2010","05","13","19:00"," ","15.70","","5.20","","50.00","","24.00","","4.00","","48.30","","101.65","","","","","","Mainly Clear"
"2010-05-13 20:00","2010","05","13","20:00"," ","14.50","","7.80","","64.00","","0.00","","0.00","","48.30","","101.66","","","","","","Mainly Clear"
"2010-05-13 21:00","2010","05","13","21:00"," ","14.60","","7.10","","61.00","","14.00","","4.00","","48.30","","101.67","","","","","","Mainly Clear"
"2010-05-13 22:00","2010","05","13","22:00"," ","13.60","","6.40","","62.00","","2.00","","6.00","","48.30","","101.64","","","","","","Clear"
"2010-05-13 23:00","2010","05","13","23:00"," ","10.90","","5.90","","71.00","","10.00","","13.00","","48.30","","101.65","","","","","","Clear"
"2010-05-14 00:00","2010","05","14","00:00"," ","11.20","","7.10","","76.00","","8.00","","11.00","","48.30","","101.65","","","","","","Clear"
"2010-05-14 01:00","2010","05","14","01:00"," ","11.10","","6.40","","73.00","","7.00","","13.00","","48.30","","101.66","","","","","","Clear"
"2010-05-14 02:00","2010","05","14","02:00"," ","11.60","","5.90","","68.00","","10.00","","7.00","","48.30","","101.66","","","","","","Clear"
"2010-05-14 03:00","2010","05","14","03:00"," ","9.80","","6.00","","77.00","","11.00","","17.00","","48.30","","101.68","","","","","","Clear"
"2010-05-14 04:00","2010","05","14","04:00"," ","9.10","","5.70","","79.00","","0.00","","0.00","","48.30","","101.69","","","","","","Mainly Clear"
"2010-05-14 05:00","2010","05","14","05:00"," ","9.60","","5.60","","76.00","","2.00","","4.00","","48.30","","101.74","","","","","","Mostly Cloudy"
"2010-05-14 06:00","2010","05","14","06:00"," ","11.70","","6.60","","71.00","","0.00","","0.00","","48.30","","101.76","","","","","","Mostly Cloudy"
"2010-05-14 07:00","2010","05","14","07:00"," ","13.00","","7.90","","71.00","","20.00","","4.00","","48.30","","101.78","","","","","","Mostly Cloudy"
"2010-05-14 08:00","2010","05","14","08:00"," ","14.20","","8.10","","67.00","","25.00","","4.00","","48.30","","101.78","","","","","","Mostly Cloudy"
"2010-05-14 09:00","2010","05","14","09:00"," ","14.80","","8.90","","68.00","","24.00","","9.00","","48.30","","101.77","","","","","","Mostly Cloudy"
"2010-05-14 10:00","2010","05","14","10:00"," ","15.30","","9.30","","67.00","","26.00","","9.00","","48.30","","101.78","","","","","","Mostly Cloudy"
"2010-05-14 11:00","2010","05","14","11:00"," ","16.20","","10.40","","68.00","","26.00","","7.00","","48.30","","101.77","","","","","","Mainly Clear"
"2010-05-14 12:00","2010","05","14","12:00"," ","16.40","","9.80","","65.00","","24.00","","11.00","","48.30","","101.74","","","","","","Mainly Clear"
"2010-05-14 13:00","2010","05","14","13:00"," ","17.60","","10.70","","64.00","","26.00","","7.00","","48.30","","101.72","","","","","","Mainly Clear"
"2010-05-14 14:00","2010","05","14","14:00"," ","18.50","","10.20","","58.00","","24.00","","6.00","","48.30","","101.70","","","","","","Mainly Clear"
"2010-05-14 15:00","2010","05","14","15:00"," ","19.30","","9.90","","54.00","","26.00","","7.00","","48.30","","101.63","","","","","","Mainly Clear"
"2010-05-14 16:00","2010","05","14","16:00"," ","18.10","","7.40","","50.00","","28.00","","11.00","","48.30","","101.60","","","","","","Mainly Clear"
"2010-05-14 17:00","2010","05","14","17:00"," ","17.80","","9.60","","59.00","","28.00","","9.00","","48.30","","101.58","","","","","","Mainly Clear"
"2010-05-14 18:00","2010","05","14","18:00"," ","17.80","","8.40","","54.00","","32.00","","7.00","","48.30","","101.53","","","","","","Mainly Clear"
"2010-05-14 19:00","2010","05","14","19:00"," ","16.10","","8.30","","60.00","","32.00","","6.00","","48.30","","101.53","","","","","","Mainly Clear"
"2010-05-14 20:00","2010","05","14","20:00"," ","16.20","","7.20","","55.00","","0.00","","0.00","","48.30","","101.56","","","","","","Mainly Clear"
"2010-05-14 21:00","2010","05","14","21:00"," ","13.90","","8.40","","69.00","","11.00","","7.00","","48.30","","101.59","","","","","","Mainly Clear"
"2010-05-14 22:00","2010","05","14","22:00"," ","12.40","","8.40","","77.00","","9.00","","11.00","","48.30","","101.59","","","","","","Mainly Clear"
"2010-05-14 23:00","2010","05","14","23:00"," ","12.00","","8.50","","79.00","","10.00","","15.00","","32.20","","101.59","","","","","","Mainly Clear"
"2010-05-15 00:00","2010","05","15","00:00"," ","12.70","","8.20","","74.00","","10.00","","13.00","","32.20","","101.59","","","","","","Mainly Clear"
"2010-05-15 01:00","2010","05","15","01:00"," ","11.70","","7.00","","73.00","","11.00","","13.00","","32.20","","101.62","","","","","","Mainly Clear"
"2010-05-15 02:00","2010","05","15","02:00"," ","10.80","","6.90","","77.00","","10.00","","13.00","","32.20","","101.64","","","","","","Mainly Clear"
"2010-05-15 03:00","2010","05","15","03:00"," ","10.20","","6.90","","80.00","","10.00","","15.00","","32.20","","101.66","","","","","","Mainly Clear"
"2010-05-15 04:00","2010","05","15","04:00"," ","9.80","","6.60","","80.00","","8.00","","7.00","","32.20","","101.66","","","","","","Mainly Clear"
"2010-05-15 05:00","2010","05","15","05:00"," ","10.00","","6.70","","80.00","","10.00","","11.00","","32.20","","101.68","","","","","","Mainly Clear"
"2010-05-15 06:00","2010","05","15","06:00"," ","11.70","","7.90","","77.00","","11.00","","13.00","","48.30","","101.72","","","","","","Mainly Clear"
"2010-05-15 07:00","2010","05","15","07:00"," ","13.00","","8.10","","72.00","","11.00","","11.00","","48.30","","101.74","","","","","","Mainly Clear"
"2010-05-15 08:00","2010","05","15","08:00"," ","15.20","","8.60","","65.00","","15.00","","9.00","","48.30","","101.73","","","","","","Mainly Clear"
"2010-05-15 09:00","2010","05","15","09:00"," ","16.00","","8.50","","61.00","","14.00","","15.00","","48.30","","101.73","","","","","","Mainly Clear"
"2010-05-15 10:00","2010","05","15","10:00"," ","17.90","","9.20","","57.00","","15.00","","13.00","","48.30","","101.72","","","","","","Mainly Clear"
"2010-05-15 11:00","2010","05","15","11:00"," ","18.30","","8.30","","52.00","","13.00","","13.00","","48.30","","101.68","","","","","","Mostly Cloudy"
"2010-05-15 12:00","2010","05","15","12:00"," ","19.30","","8.50","","50.00","","13.00","","7.00","","48.30","","101.64","","","","","","Cloudy"
"2010-05-15 13:00","2010","05","15","13:00"," ","19.70","","9.90","","53.00","","20.00","","19.00","","48.30","","101.62","","","","","","Cloudy"
"2010-05-15 14:00","2010","05","15","14:00"," ","19.80","","9.20","","50.00","","17.00","","11.00","","48.30","","101.58","","","","","","Cloudy"
"2010-05-15 15:00","2010","05","15","15:00"," ","20.60","","9.50","","49.00","","16.00","","11.00","","48.30","","101.54","","","","","","Cloudy"
"2010-05-15 16:00","2010","05","15","16:00"," ","18.60","","9.10","","54.00","","21.00","","17.00","","48.30","","101.50","","","","","","Cloudy"
"2010-05-15 17:00","2010","05","15","17:00"," ","18.60","","8.90","","53.00","","21.00","","13.00","","48.30","","101.46","","","","","","Cloudy"
"2010-05-15 18:00","2010","05","15","18:00"," ","17.90","","7.40","","50.00","","20.00","","9.00","","48.30","","101.44","","","","","","Cloudy"
"2010-05-15 19:00","2010","05","15","19:00"," ","17.50","","7.50","","52.00","","13.00","","6.00","","48.30","","101.39","","","","","","Cloudy"
"2010-05-15 20:00","2010","05","15","20:00"," ","15.90","","8.40","","61.00","","13.00","","11.00","","32.20","","101.41","","","","","","Cloudy"
"2010-05-15 21:00","2010","05","15","21:00"," ","15.10","","7.90","","62.00","","13.00","","7.00","","32.20","","101.44","","","","","","Cloudy"
"2010-05-15 22:00","2010","05","15","22:00"," ","12.60","","8.00","","74.00","","10.00","","11.00","","32.20","","101.44","","","","","","Mostly Cloudy"
"2010-05-15 23:00","2010","05","15","23:00"," ","12.20","","7.50","","73.00","","11.00","","11.00","","32.20","","101.44","","","","","","Mostly Cloudy"
"2010-05-16 00:00","2010","05","16","00:00"," ","12.00","","8.10","","77.00","","9.00","","9.00","","32.20","","101.43","","","","","","Mostly Cloudy"
"2010-05-16 01:00","2010","05","16","01:00"," ","12.00","","8.50","","79.00","","13.00","","6.00","","32.20","","101.43","","","","","","Mostly Cloudy"
"2010-05-16 02:00","2010","05","16","02:00"," ","11.70","","8.10","","79.00","","10.00","","4.00","","24.10","","101.41","","","","","","Mostly Cloudy"
"2010-05-16 03:00","2010","05","16","03:00"," ","12.40","","8.50","","77.00","","16.00","","4.00","","24.10","","101.41","","","","","","Mostly Cloudy"
"2010-05-16 04:00","2010","05","16","04:00"," ","11.70","","8.30","","80.00","","16.00","","4.00","","24.10","","101.40","","","","","","Cloudy"
"2010-05-16 05:00","2010","05","16","05:00"," ","11.30","","8.10","","81.00","","19.00","","4.00","","24.10","","101.39","","","","","","Mostly Cloudy"
"2010-05-16 06:00","2010","05","16","06:00"," ","11.80","","8.40","","80.00","","22.00","","4.00","","32.20","","101.37","","","","","","Cloudy"
"2010-05-16 07:00","2010","05","16","07:00"," ","13.00","","8.70","","75.00","","0.00","","0.00","","32.20","","101.36","","","","","","Cloudy"
"2010-05-16 08:00","2010","05","16","08:00"," ","14.30","","9.70","","74.00","","22.00","","7.00","","32.20","","101.30","","","","","","Cloudy"
"2010-05-16 09:00","2010","05","16","09:00"," ","15.20","","9.80","","70.00","","24.00","","7.00","","32.20","","101.24","","","","","","Cloudy"
"2010-05-16 10:00","2010","05","16","10:00"," ","15.30","","11.20","","77.00","","25.00","","13.00","","32.20","","101.20","","","","","","Cloudy"
"2010-05-16 11:00","2010","05","16","11:00"," ","16.20","","11.90","","76.00","","29.00","","20.00","","32.20","","101.19","","","","","","Cloudy"
"2010-05-16 12:00","2010","05","16","12:00"," ","15.90","","10.50","","70.00","","29.00","","19.00","","32.20","","101.13","","","","","","Cloudy"
"2010-05-16 13:00","2010","05","16","13:00"," ","16.40","","9.40","","63.00","","31.00","","15.00","","32.20","","101.13","","","","","","Cloudy"
"2010-05-16 14:00","2010","05","16","14:00"," ","17.20","","8.70","","57.00","","35.00","","13.00","","32.20","","101.00","","","","","","Cloudy"
"2010-05-16 15:00","2010","05","16","15:00"," ","17.30","","9.00","","58.00","","27.00","","13.00","","32.20","","100.98","","","","","","Mostly Cloudy"
"2010-05-16 16:00","2010","05","16","16:00"," ","18.70","","9.40","","55.00","","23.00","","15.00","","48.30","","100.94","","","","","","Mainly Clear"
"2010-05-16 17:00","2010","05","16","17:00"," ","16.20","","11.70","","75.00","","26.00","","11.00","","48.30","","100.91","","","","","","Mostly Cloudy"
"2010-05-16 18:00","2010","05","16","18:00"," ","16.80","","11.50","","71.00","","28.00","","7.00","","48.30","","100.87","","","","","","Mostly Cloudy"
"2010-05-16 19:00","2010","05","16","19:00"," ","15.40","","11.00","","75.00","","25.00","","4.00","","48.30","","100.89","","","","","","Mostly Cloudy"
"2010-05-16 20:00","2010","05","16","20:00"," ","14.90","","11.00","","77.00","","0.00","","0.00","","48.30","","100.90","","","","","","Mainly Clear"
"2010-05-16 21:00","2010","05","16","21:00"," ","14.40","","11.80","","84.00","","23.00","","9.00","","48.30","","100.94","","","","","","Mainly Clear"
"2010-05-16 22:00","2010","05","16","22:00"," ","13.70","","10.70","","82.00","","1.00","","4.00","","48.30","","100.92","","","","","","Mainly Clear"
"2010-05-16 23:00","2010","05","16","23:00"," ","12.90","","10.10","","83.00","","0.00","","0.00","","32.20","","100.90","","","","","","Mainly Clear"
"2010-05-17 00:00","2010","05","17","00:00"," ","12.90","","10.30","","84.00","","0.00","","0.00","","24.10","","100.89","","","","","","Mainly Clear"
"2010-05-17 01:00","2010","05","17","01:00"," ","12.20","","9.90","","86.00","","0.00","","0.00","","24.10","","100.87","","","","","","Mainly Clear"
"2010-05-17 02:00","2010","05","17","02:00"," ","11.80","","9.50","","86.00","","0.00","","0.00","","24.10","","100.86","","","","","","Mainly Clear"
"2010-05-17 03:00","2010","05","17","03:00"," ","11.50","","9.00","","85.00","","0.00","","0.00","","24.10","","100.84","","","","","","Mainly Clear"
"2010-05-17 04:00","2010","05","17","04:00"," ","11.50","","8.50","","82.00","","12.00","","15.00","","24.10","","100.84","","","","","","Mostly Cloudy"
"2010-05-17 05:00","2010","05","17","05:00"," ","10.70","","7.20","","79.00","","32.00","","7.00","","32.20","","100.81","","","","","","Cloudy"
"2010-05-17 06:00","2010","05","17","06:00"," ","13.30","","9.00","","75.00","","7.00","","6.00","","48.30","","100.81","","","","","","Cloudy"
"2010-05-17 07:00","2010","05","17","07:00"," ","14.70","","9.50","","71.00","","35.00","","6.00","","48.30","","100.76","","","","","","Cloudy"
"2010-05-17 08:00","2010","05","17","08:00"," ","16.00","","10.60","","70.00","","28.00","","9.00","","48.30","","100.74","","","","","","Mostly Cloudy"
"2010-05-17 09:00","2010","05","17","09:00"," ","17.40","","10.60","","64.00","","32.00","","22.00","","48.30","","100.69","","","","","","Mostly Cloudy"
"2010-05-17 10:00","2010","05","17","10:00"," ","17.00","","11.80","","71.00","","27.00","","20.00","","48.30","","100.68","","","","","","Mostly Cloudy"
"2010-05-17 11:00","2010","05","17","11:00"," ","17.00","","11.80","","71.00","","30.00","","17.00","","48.30","","100.67","","","","","","Mostly Cloudy"
"2010-05-17 12:00","2010","05","17","12:00"," ","17.10","","11.70","","71.00","","28.00","","15.00","","48.30","","100.65","","","","","","Cloudy"
"2010-05-17 13:00","2010","05","17","13:00"," ","17.50","","12.10","","71.00","","28.00","","9.00","","48.30","","100.64","","","","","","Cloudy"
"2010-05-17 14:00","2010","05","17","14:00"," ","18.00","","11.60","","66.00","","26.00","","4.00","","48.30","","100.62","","","","","","Cloudy"
"2010-05-17 15:00","2010","05","17","15:00"," ","19.70","","9.60","","52.00","","13.00","","4.00","","48.30","","100.58","","","","","","Cloudy"
"2010-05-17 16:00","2010","05","17","16:00"," ","18.90","","8.80","","52.00","","20.00","","19.00","","48.30","","100.58","","","","","","Cloudy"
"2010-05-17 17:00","2010","05","17","17:00"," ","18.80","","9.80","","56.00","","15.00","","7.00","","48.30","","100.57","","","","","","Cloudy"
"2010-05-17 18:00","2010","05","17","18:00"," ","18.30","","9.40","","56.00","","16.00","","15.00","","48.30","","100.56","","","","","","Cloudy"
"2010-05-17 19:00","2010","05","17","19:00"," ","17.90","","9.00","","56.00","","0.00","","0.00","","48.30","","100.55","","","","","","Cloudy"
"2010-05-17 20:00","2010","05","17","20:00"," ","17.20","","10.20","","63.00","","0.00","","0.00","","48.30","","100.58","","","","","","Cloudy"
"2010-05-17 21:00","2010","05","17","21:00"," ","16.60","","10.30","","66.00","","11.00","","9.00","","48.30","","100.63","","","","","","Cloudy"
"2010-05-17 22:00","2010","05","17","22:00"," ","15.80","","10.30","","70.00","","16.00","","13.00","","32.20","","100.65","","","","","","Mostly Cloudy"
"2010-05-17 23:00","2010","05","17","23:00"," ","14.60","","10.00","","74.00","","10.00","","7.00","","32.20","","100.64","","","","","","Mostly Cloudy"
"2010-05-18 00:00","2010","05","18","00:00"," ","13.90","","10.00","","77.00","","10.00","","15.00","","24.10","","100.63","","","","","","Mostly Cloudy"
"2010-05-18 01:00","2010","05","18","01:00"," ","13.40","","9.30","","76.00","","12.00","","17.00","","24.10","","100.65","","","","","","Mostly Cloudy"
"2010-05-18 02:00","2010","05","18","02:00"," ","13.20","","9.50","","78.00","","13.00","","19.00","","24.10","","100.70","","","","","","Cloudy"
"2010-05-18 03:00","2010","05","18","03:00"," ","12.70","","9.50","","81.00","","12.00","","20.00","","24.10","","100.73","","","","","","Mostly Cloudy"
"2010-05-18 04:00","2010","05","18","04:00"," ","12.60","","9.30","","80.00","","12.00","","19.00","","19.30","","100.75","","","","","","Rain Showers"
"2010-05-18 05:00","2010","05","18","05:00"," ","12.50","","9.00","","79.00","","11.00","","15.00","","24.10","","100.78","","","","","","Cloudy"
"2010-05-18 06:00","2010","05","18","06:00"," ","12.00","","8.90","","81.00","","14.00","","17.00","","16.10","","100.83","","","","","","Rain Showers"
"2010-05-18 07:00","2010","05","18","07:00"," ","11.70","","9.70","","88.00","","12.00","","17.00","","16.10","","100.88","","","","","","Rain"
"2010-05-18 08:00","2010","05","18","08:00"," ","11.60","","9.80","","89.00","","13.00","","17.00","","12.90","","100.94","","","","","","Rain"
"2010-05-18 09:00","2010","05","18","09:00"," ","11.60","","9.80","","89.00","","13.00","","15.00","","12.90","","100.99","","","","","","Rain"
"2010-05-18 10:00","2010","05","18","10:00"," ","11.90","","9.90","","88.00","","15.00","","15.00","","12.90","","101.03","","","","","","Rain"
"2010-05-18 11:00","2010","05","18","11:00"," ","11.80","","10.00","","89.00","","14.00","","11.00","","12.90","","101.11","","","","","","Rain"
"2010-05-18 12:00","2010","05","18","12:00"," ","12.20","","10.30","","88.00","","9.00","","20.00","","16.10","","101.11","","","","","","Rain"
"2010-05-18 13:00","2010","05","18","13:00"," ","13.40","","11.40","","88.00","","11.00","","24.00","","24.10","","101.14","","","","","","Cloudy"
"2010-05-18 14:00","2010","05","18","14:00"," ","13.50","","11.00","","85.00","","11.00","","24.00","","24.10","","101.16","","","","","","Cloudy"
"2010-05-18 15:00","2010","05","18","15:00"," ","13.70","","11.00","","84.00","","15.00","","11.00","","24.10","","101.19","","","","","","Rain"
"2010-05-18 16:00","2010","05","18","16:00"," ","15.50","","11.20","","76.00","","14.00","","9.00","","32.20","","101.18","","","","","","Mostly Cloudy"
"2010-05-18 17:00","2010","05","18","17:00"," ","16.40","","9.20","","62.00","","21.00","","11.00","","32.20","","101.18","","","","","","Mainly Clear"
"2010-05-18 18:00","2010","05","18","18:00"," ","15.00","","9.10","","68.00","","22.00","","11.00","","32.20","","101.20","","","","","","Mainly Clear"
"2010-05-18 19:00","2010","05","18","19:00"," ","15.00","","8.50","","65.00","","22.00","","13.00","","32.20","","101.26","","","","","","Mainly Clear"
"2010-05-18 20:00","2010","05","18","20:00"," ","14.40","","7.20","","62.00","","22.00","","24.00","","32.20","","101.34","","","","","","Mostly Cloudy"
"2010-05-18 21:00","2010","05","18","21:00"," ","14.00","","6.30","","60.00","","20.00","","20.00","","32.20","","101.42","","","","","","Mostly Cloudy"
"2010-05-18 22:00","2010","05","18","22:00"," ","13.50","","6.40","","62.00","","19.00","","9.00","","24.10","","101.48","","","","","","Cloudy"
"2010-05-18 23:00","2010","05","18","23:00"," ","13.50","","6.30","","62.00","","25.00","","15.00","","24.10","","101.51","","","","","","Cloudy"
"2010-05-19 00:00","2010","05","19","00:00"," ","12.40","","8.50","","77.00","","11.00","","7.00","","24.10","","101.54","","","","","","Cloudy"
"2010-05-19 01:00","2010","05","19","01:00"," ","12.30","","7.00","","70.00","","13.00","","22.00","","24.10","","101.53","","","","","","Cloudy"
"2010-05-19 02:00","2010","05","19","02:00"," ","11.80","","7.30","","74.00","","10.00","","17.00","","24.10","","101.54","","","","","","Rain Showers"
"2010-05-19 03:00","2010","05","19","03:00"," ","11.60","","7.20","","74.00","","9.00","","20.00","","24.10","","101.52","","","","","","Cloudy"
"2010-05-19 04:00","2010","05","19","04:00"," ","11.60","","6.80","","72.00","","10.00","","15.00","","24.10","","101.52","","","","","","Rain Showers"
"2010-05-19 05:00","2010","05","19","05:00"," ","11.30","","7.40","","77.00","","9.00","","15.00","","24.10","","101.46","","","","","","Rain Showers"
"2010-05-19 06:00","2010","05","19","06:00"," ","12.70","","7.20","","69.00","","7.00","","15.00","","24.10","","101.36","","","","","","Cloudy"
"2010-05-19 07:00","2010","05","19","07:00"," ","14.00","","7.80","","66.00","","9.00","","17.00","","32.20","","101.26","","","","","","Cloudy"
"2010-05-19 08:00","2010","05","19","08:00"," ","15.20","","8.30","","63.00","","7.00","","15.00","","32.20","","101.15","","","","","","Cloudy"
"2010-05-19 09:00","2010","05","19","09:00"," ","16.60","","8.10","","57.00","","10.00","","17.00","","32.20","","100.96","","","","","","Cloudy"
"2010-05-19 10:00","2010","05","19","10:00"," ","17.60","","6.70","","49.00","","12.00","","22.00","","32.20","","100.80","","","","","","Mainly Clear"
"2010-05-19 11:00","2010","05","19","11:00"," ","17.90","","6.10","","46.00","","11.00","","26.00","","32.20","","100.64","","","","","","Mostly Cloudy"
"2010-05-19 12:00","2010","05","19","12:00"," ","18.70","","6.40","","45.00","","12.00","","22.00","","32.20","","100.43","","","","","","Mostly Cloudy"
"2010-05-19 13:00","2010","05","19","13:00"," ","19.90","","7.20","","44.00","","12.00","","20.00","","32.20","","100.26","","","","","","Mostly Cloudy"
"2010-05-19 14:00","2010","05","19","14:00"," ","20.30","","6.40","","40.00","","9.00","","17.00","","32.20","","100.14","","","","","","Cloudy"
"2010-05-19 15:00","2010","05","19","15:00"," ","14.90","","9.60","","71.00","","24.00","","41.00","","32.20","","100.22","","","","","","Rain"
"2010-05-19 16:00","2010","05","19","16:00"," ","12.80","","9.90","","83.00","","14.00","","24.00","","19.30","","100.35","","","","","","Rain"
"2010-05-19 17:00","2010","05","19","17:00"," ","11.90","","9.40","","85.00","","9.00","","35.00","","19.30","","100.24","","","","","","Rain"
"2010-05-19 18:00","2010","05","19","18:00"," ","12.70","","9.80","","82.00","","12.00","","33.00","","24.10","","100.41","","","","","","Cloudy"
"2010-05-19 19:00","2010","05","19","19:00"," ","12.20","","8.20","","77.00","","11.00","","41.00","","24.10","","100.47","","","","","","Cloudy"
"2010-05-19 20:00","2010","05","19","20:00"," ","12.60","","5.80","","63.00","","13.00","","33.00","","24.10","","100.54","","","","","","Cloudy"
"2010-05-19 21:00","2010","05","19","21:00"," ","12.10","","4.70","","61.00","","14.00","","33.00","","24.10","","100.60","","","","","","Cloudy"
"2010-05-19 22:00","2010","05","19","22:00"," ","11.70","","3.90","","59.00","","15.00","","46.00","","24.10","","100.66","","","","","","Cloudy"
"2010-05-19 23:00","2010","05","19","23:00"," ","11.10","","4.40","","63.00","","15.00","","32.00","","24.10","","100.75","","","","","","Cloudy"
"2010-05-20 00:00","2010","05","20","00:00"," ","10.40","","4.40","","66.00","","16.00","","52.00","","24.10","","100.82","","","","","","Cloudy"
"2010-05-20 01:00","2010","05","20","01:00"," ","10.10","","4.90","","70.00","","16.00","","37.00","","24.10","","100.96","","","","","","Rain Showers"
"2010-05-20 02:00","2010","05","20","02:00"," ","9.50","","5.30","","75.00","","16.00","","35.00","","24.10","","101.08","","","","","","Cloudy"
"2010-05-20 03:00","2010","05","20","03:00"," ","9.50","","5.20","","75.00","","16.00","","28.00","","24.10","","101.23","","","","","","Cloudy"
"2010-05-20 04:00","2010","05","20","04:00"," ","9.20","","3.30","","67.00","","17.00","","28.00","","24.10","","101.33","","","","","","Cloudy"
"2010-05-20 05:00","2010","05","20","05:00"," ","9.50","","3.30","","65.00","","18.00","","28.00","","24.10","","101.47","","","","","","Cloudy"
"2010-05-20 06:00","2010","05","20","06:00"," ","9.60","","3.80","","67.00","","14.00","","26.00","","24.10","","101.57","","","","","","Cloudy"
"2010-05-20 07:00","2010","05","20","07:00"," ","10.00","","3.20","","63.00","","17.00","","20.00","","24.10","","101.66","","","","","","Cloudy"
"2010-05-20 08:00","2010","05","20","08:00"," ","10.40","","3.50","","62.00","","15.00","","20.00","","24.10","","101.73","","","","","","Cloudy"
"2010-05-20 09:00","2010","05","20","09:00"," ","11.40","","4.60","","63.00","","16.00","","30.00","","24.10","","101.79","","","","","","Cloudy"
"2010-05-20 10:00","2010","05","20","10:00"," ","11.60","","3.30","","57.00","","17.00","","28.00","","24.10","","101.83","","","","","","Cloudy"
"2010-05-20 11:00","2010","05","20","11:00"," ","11.50","","2.60","","54.00","","19.00","","28.00","","32.20","","101.87","","","","","","Mostly Cloudy"
"2010-05-20 12:00","2010","05","20","12:00"," ","11.40","","3.60","","59.00","","18.00","","28.00","","24.10","","101.91","","","","","","Rain Showers"
"2010-05-20 13:00","2010","05","20","13:00"," ","12.60","","3.80","","55.00","","20.00","","26.00","","24.10","","101.90","","","","","","Mostly Cloudy"
"2010-05-20 14:00","2010","05","20","14:00"," ","12.50","","3.60","","55.00","","20.00","","17.00","","24.10","","101.90","","","","","","Mostly Cloudy"
"2010-05-20 15:00","2010","05","20","15:00"," ","12.20","","3.50","","55.00","","21.00","","33.00","","24.10","","101.91","","","","","","Mostly Cloudy"
"2010-05-20 16:00","2010","05","20","16:00"," ","11.30","","3.40","","58.00","","17.00","","15.00","","24.10","","101.90","","","","","","Mostly Cloudy"
"2010-05-20 17:00","2010","05","20","17:00"," ","11.90","","2.80","","54.00","","21.00","","11.00","","24.10","","101.84","","","","","","Mostly Cloudy"
"2010-05-20 18:00","2010","05","20","18:00"," ","11.90","","2.70","","53.00","","20.00","","7.00","","24.10","","101.79","","","","","","Mostly Cloudy"
"2010-05-20 19:00","2010","05","20","19:00"," ","11.70","","2.40","","53.00","","22.00","","6.00","","24.10","","101.77","","","","","","Mainly Clear"
"2010-05-20 20:00","2010","05","20","20:00"," ","10.50","","2.80","","59.00","","16.00","","7.00","","24.10","","101.73","","","","","","Mainly Clear"
"2010-05-20 21:00","2010","05","20","21:00"," ","9.90","","3.10","","63.00","","15.00","","9.00","","24.10","","101.75","","","","","","Mostly Cloudy"
"2010-05-20 22:00","2010","05","20","22:00"," ","9.90","","3.00","","62.00","","12.00","","9.00","","24.10","","101.73","","","","","","Mostly Cloudy"
"2010-05-20 23:00","2010","05","20","23:00"," ","9.00","","4.20","","72.00","","9.00","","15.00","","24.10","","101.70","","","","","","Cloudy"
"2010-05-21 00:00","2010","05","21","00:00"," ","8.00","","4.00","","76.00","","10.00","","13.00","","24.10","","101.64","","","","","","Mainly Clear"
"2010-05-21 01:00","2010","05","21","01:00"," ","8.30","","4.30","","76.00","","10.00","","13.00","","24.10","","101.60","","","","","","Cloudy"
"2010-05-21 02:00","2010","05","21","02:00"," ","7.20","","3.10","","75.00","","9.00","","17.00","","24.10","","101.53","","","","","","Mainly Clear"
"2010-05-21 03:00","2010","05","21","03:00"," ","8.10","","3.70","","74.00","","8.00","","17.00","","24.10","","101.46","","","","","","Cloudy"
"2010-05-21 04:00","2010","05","21","04:00"," ","8.40","","3.50","","71.00","","7.00","","13.00","","24.10","","101.40","","","","","","Cloudy"
"2010-05-21 05:00","2010","05","21","05:00"," ","8.40","","3.60","","72.00","","9.00","","11.00","","24.10","","101.36","","","","","","Cloudy"
"2010-05-21 06:00","2010","05","21","06:00"," ","8.40","","4.30","","75.00","","7.00","","11.00","","24.10","","101.33","","","","","","Rain"
"2010-05-21 07:00","2010","05","21","07:00"," ","8.40","","5.20","","80.00","","7.00","","13.00","","24.10","","101.31","","","","","","Rain"
"2010-05-21 08:00","2010","05","21","08:00"," ","9.50","","5.80","","78.00","","11.00","","13.00","","24.10","","101.29","","","","","","Rain Showers"
"2010-05-21 09:00","2010","05","21","09:00"," ","9.90","","4.60","","70.00","","9.00","","7.00","","24.10","","101.27","","","","","","Rain Showers"
"2010-05-21 10:00","2010","05","21","10:00"," ","11.00","","4.20","","63.00","","8.00","","4.00","","24.10","","101.22","","","","","","Cloudy"
"2010-05-21 11:00","2010","05","21","11:00"," ","11.50","","4.50","","62.00","","16.00","","11.00","","24.10","","101.19","","","","","","Cloudy"
"2010-05-21 12:00","2010","05","21","12:00"," ","12.00","","3.30","","55.00","","16.00","","9.00","","24.10","","101.13","","","","","","Mostly Cloudy"
"2010-05-21 13:00","2010","05","21","13:00"," ","12.50","","4.70","","59.00","","25.00","","19.00","","24.10","","101.07","","","","","","Mainly Clear"
"2010-05-21 14:00","2010","05","21","14:00"," ","12.00","","4.80","","61.00","","27.00","","19.00","","32.20","","101.04","","","","","","Mainly Clear"
"2010-05-21 15:00","2010","05","21","15:00"," ","12.40","","5.50","","63.00","","28.00","","19.00","","32.20","","101.02","","","","","","Mainly Clear"
"2010-05-21 16:00","2010","05","21","16:00"," ","12.60","","5.00","","60.00","","29.00","","20.00","","48.30","","100.98","","","","","","Mainly Clear"
"2010-05-21 17:00","2010","05","21","17:00"," ","12.50","","4.30","","57.00","","29.00","","17.00","","48.30","","100.94","","","","","","Mainly Clear"
"2010-05-21 18:00","2010","05","21","18:00"," ","12.60","","4.10","","56.00","","31.00","","19.00","","48.30","","100.90","","","","","","Mainly Clear"
"2010-05-21 19:00","2010","05","21","19:00"," ","11.30","","4.10","","61.00","","30.00","","19.00","","48.30","","100.90","","","","","","Mainly Clear"
"2010-05-21 20:00","2010","05","21","20:00"," ","10.50","","4.90","","68.00","","29.00","","19.00","","48.30","","100.89","","","","","","Clear"
"2010-05-21 21:00","2010","05","21","21:00"," ","10.10","","5.20","","72.00","","29.00","","20.00","","48.30","","100.90","","","","","","Clear"
"2010-05-21 22:00","2010","05","21","22:00"," ","9.90","","4.30","","68.00","","29.00","","20.00","","48.30","","100.90","","","","","","Clear"
"2010-05-21 23:00","2010","05","21","23:00"," ","10.20","","5.70","","74.00","","28.00","","17.00","","48.30","","100.90","","","","","","Clear"
"2010-05-22 00:00","2010","05","22","00:00"," ","10.50","","5.80","","73.00","","25.00","","17.00","","32.20","","100.92","","","","","","Mostly Cloudy"
"2010-05-22 01:00","2010","05","22","01:00"," ","10.20","","5.40","","72.00","","23.00","","17.00","","32.20","","100.95","","","","","","Mainly Clear"
"2010-05-22 02:00","2010","05","22","02:00"," ","9.90","","5.40","","74.00","","25.00","","19.00","","32.20","","100.98","","","","","","Mostly Cloudy"
"2010-05-22 03:00","2010","05","22","03:00"," ","9.80","","5.00","","72.00","","25.00","","19.00","","32.20","","101.00","","","","","","Mainly Clear"
"2010-05-22 04:00","2010","05","22","04:00"," ","8.80","","5.10","","78.00","","21.00","","15.00","","32.20","","101.03","","","","","","Mainly Clear"
"2010-05-22 05:00","2010","05","22","05:00"," ","7.30","","4.50","","82.00","","35.00","","13.00","","32.20","","101.09","","","","","","Cloudy"
"2010-05-22 06:00","2010","05","22","06:00"," ","9.70","","6.40","","80.00","","35.00","","9.00","","32.20","","101.11","","","","","","Mostly Cloudy"
"2010-05-22 07:00","2010","05","22","07:00"," ","10.60","","6.20","","74.00","","29.00","","13.00","","32.20","","101.15","","","","","","Mostly Cloudy"
"2010-05-22 08:00","2010","05","22","08:00"," ","11.20","","6.50","","73.00","","28.00","","15.00","","32.20","","101.16","","","","","","Mostly Cloudy"
"2010-05-22 09:00","2010","05","22","09:00"," ","11.50","","6.90","","73.00","","27.00","","20.00","","32.20","","101.18","","","","","","Cloudy"
"2010-05-22 10:00","2010","05","22","10:00"," ","11.80","","7.40","","74.00","","28.00","","20.00","","32.20","","101.19","","","","","","Cloudy"
"2010-05-22 11:00","2010","05","22","11:00"," ","11.90","","7.10","","72.00","","26.00","","24.00","","32.20","","101.19","","","","","","Cloudy"
"2010-05-22 12:00","2010","05","22","12:00"," ","12.20","","6.80","","70.00","","27.00","","20.00","","48.30","","101.18","","","","","","Cloudy"
"2010-05-22 13:00","2010","05","22","13:00"," ","12.00","","5.60","","65.00","","25.00","","17.00","","48.30","","101.19","","","","","","Cloudy"
"2010-05-22 14:00","2010","05","22","14:00"," ","12.40","","5.00","","61.00","","25.00","","15.00","","48.30","","101.21","","","","","","Cloudy"
"2010-05-22 15:00","2010","05","22","15:00"," ","12.40","","3.70","","55.00","","26.00","","11.00","","32.20","","101.21","","","","","","Cloudy"
"2010-05-22 16:00","2010","05","22","16:00"," ","12.20","","4.80","","61.00","","29.00","","6.00","","32.20","","101.26","","","","","","Rain"
"2010-05-22 17:00","2010","05","22","17:00"," ","12.60","","5.50","","62.00","","25.00","","7.00","","32.20","","101.27","","","","","","Mostly Cloudy"
"2010-05-22 18:00","2010","05","22","18:00"," ","12.70","","5.50","","62.00","","26.00","","9.00","","32.20","","101.29","","","","","","Mostly Cloudy"
"2010-05-22 19:00","2010","05","22","19:00"," ","11.90","","5.40","","64.00","","22.00","","13.00","","32.20","","101.28","","","","","","Mainly Clear"
"2010-05-22 20:00","2010","05","22","20:00"," ","11.00","","4.80","","66.00","","21.00","","9.00","","32.20","","101.35","","","","","","Mainly Clear"
"2010-05-22 21:00","2010","05","22","21:00"," ","10.90","","4.50","","65.00","","16.00","","4.00","","24.10","","101.33","","","","","","Mostly Cloudy"
"2010-05-22 22:00","2010","05","22","22:00"," ","10.90","","4.50","","65.00","","0.00","","0.00","","24.10","","101.33","","","","","","Mostly Cloudy"
"2010-05-22 23:00","2010","05","22","23:00"," ","10.10","","4.90","","70.00","","12.00","","7.00","","24.10","","101.33","","","","","","Mostly Cloudy"
"2010-05-23 00:00","2010","05","23","00:00"," ","8.00","","4.40","","78.00","","11.00","","11.00","","24.10","","101.33","","","","","","Mostly Cloudy"
"2010-05-23 01:00","2010","05","23","01:00"," ","8.80","","5.30","","79.00","","11.00","","11.00","","24.10","","101.36","","","","","","Cloudy"
"2010-05-23 02:00","2010","05","23","02:00"," ","8.90","","5.90","","81.00","","10.00","","11.00","","24.10","","101.37","","","","","","Cloudy"
"2010-05-23 03:00","2010","05","23","03:00"," ","9.50","","6.20","","80.00","","12.00","","19.00","","24.10","","101.38","","","","","","Rain Showers"
"2010-05-23 04:00","2010","05","23","04:00"," ","8.90","","6.10","","83.00","","10.00","","9.00","","24.10","","101.38","","","","","","Cloudy"
"2010-05-23 05:00","2010","05","23","05:00"," ","9.10","","6.40","","83.00","","9.00","","11.00","","24.10","","101.37","","","","","","Cloudy"
"2010-05-23 06:00","2010","05","23","06:00"," ","9.40","","6.40","","82.00","","10.00","","15.00","","24.10","","101.37","","","","","","Cloudy"
"2010-05-23 07:00","2010","05","23","07:00"," ","10.20","","6.90","","80.00","","11.00","","19.00","","24.10","","101.36","","","","","","Cloudy"
"2010-05-23 08:00","2010","05","23","08:00"," ","10.50","","6.80","","78.00","","16.00","","17.00","","24.10","","101.37","","","","","","Cloudy"
"2010-05-23 09:00","2010","05","23","09:00"," ","11.00","","6.70","","75.00","","18.00","","17.00","","24.10","","101.37","","","","","","Rain Showers"
"2010-05-23 10:00","2010","05","23","10:00"," ","10.80","","7.30","","79.00","","15.00","","20.00","","24.10","","101.38","","","","","","Rain Showers"
"2010-05-23 11:00","2010","05","23","11:00"," ","12.20","","7.10","","71.00","","14.00","","20.00","","24.10","","101.38","","","","","","Cloudy"
"2010-05-23 12:00","2010","05","23","12:00"," ","13.30","","7.60","","68.00","","12.00","","26.00","","24.10","","101.37","","","","","","Mostly Cloudy"
"2010-05-23 13:00","2010","05","23","13:00"," ","14.10","","6.80","","61.00","","13.00","","17.00","","24.10","","101.35","","","","","","Mostly Cloudy"
"2010-05-23 14:00","2010","05","23","14:00"," ","13.60","","5.90","","60.00","","14.00","","17.00","","24.10","","101.32","","","","","","Mostly Cloudy"
"2010-05-23 15:00","2010","05","23","15:00"," ","13.80","","4.70","","54.00","","20.00","","24.00","","24.10","","101.30","","","","","","Mostly Cloudy"
"2010-05-23 16:00","2010","05","23","16:00"," ","14.00","","5.20","","55.00","","18.00","","11.00","","24.10","","101.26","","","","","","Mainly Clear"
"2010-05-23 17:00","2010","05","23","17:00"," ","14.20","","5.20","","55.00","","19.00","","13.00","","24.10","","101.24","","","","","","Mainly Clear"
"2010-05-23 18:00","2010","05","23","18:00"," ","13.60","","4.90","","56.00","","16.00","","17.00","","32.20","","101.24","","","","","","Mainly Clear"
"2010-05-23 19:00","2010","05","23","19:00"," ","13.00","","5.40","","60.00","","17.00","","13.00","","32.20","","101.24","","","","","","Mostly Cloudy"
"2010-05-23 20:00","2010","05","23","20:00"," ","12.00","","5.30","","64.00","","17.00","","7.00","","32.20","","101.25","","","","","","Mostly Cloudy"
"2010-05-23 21:00","2010","05","23","21:00"," ","10.90","","5.20","","68.00","","10.00","","9.00","","24.10","","101.28","","","","","","Mostly Cloudy"
"2010-05-23 22:00","2010","05","23","22:00"," ","11.30","","6.70","","73.00","","8.00","","13.00","","24.10","","101.29","","","","","","Cloudy"
"2010-05-23 23:00","2010","05","23","23:00"," ","11.00","","6.90","","76.00","","8.00","","11.00","","24.10","","101.29","","","","","","Mostly Cloudy"
"2010-05-24 00:00","2010","05","24","00:00"," ","10.60","","6.60","","76.00","","7.00","","11.00","","24.10","","101.26","","","","","","Cloudy"
"2010-05-24 01:00","2010","05","24","01:00"," ","9.10","","6.00","","81.00","","8.00","","9.00","","24.10","","101.24","","","","","","Mainly Clear"
"2010-05-24 02:00","2010","05","24","02:00"," ","8.40","","5.50","","82.00","","9.00","","11.00","","24.10","","101.22","","","","","","Mainly Clear"
"2010-05-24 03:00","2010","05","24","03:00"," ","8.60","","5.50","","81.00","","10.00","","15.00","","24.10","","101.21","","","","","","Mostly Cloudy"
"2010-05-24 04:00","2010","05","24","04:00"," ","9.50","","5.80","","78.00","","11.00","","17.00","","24.10","","101.25","","","","","","Cloudy"
"2010-05-24 05:00","2010","05","24","05:00"," ","9.40","","6.30","","81.00","","10.00","","15.00","","24.10","","101.26","","","","","","Cloudy"
"2010-05-24 06:00","2010","05","24","06:00"," ","10.30","","6.90","","79.00","","11.00","","19.00","","24.10","","101.28","","","","","","Mostly Cloudy"
"2010-05-24 07:00","2010","05","24","07:00"," ","10.60","","6.40","","75.00","","12.00","","26.00","","24.10","","101.32","","","","","","Cloudy"
"2010-05-24 08:00","2010","05","24","08:00"," ","11.70","","5.90","","68.00","","13.00","","20.00","","24.10","","101.33","","","","","","Mostly Cloudy"
"2010-05-24 09:00","2010","05","24","09:00"," ","12.70","","4.50","","57.00","","14.00","","20.00","","24.10","","101.34","","","","","","Mostly Cloudy"
"2010-05-24 10:00","2010","05","24","10:00"," ","13.00","","4.50","","56.00","","13.00","","20.00","","24.10","","101.35","","","","","","Mostly Cloudy"
"2010-05-24 11:00","2010","05","24","11:00"," ","14.00","","4.40","","52.00","","14.00","","22.00","","32.20","","101.33","","","","","","Cloudy"
"2010-05-24 12:00","2010","05","24","12:00"," ","14.90","","4.30","","49.00","","16.00","","19.00","","48.30","","101.34","","","","","","Cloudy"
"2010-05-24 13:00","2010","05","24","13:00"," ","15.10","","4.00","","47.00","","16.00","","19.00","","48.30","","101.34","","","","","","Cloudy"
"2010-05-24 14:00","2010","05","24","14:00"," ","16.10","","4.50","","46.00","","16.00","","26.00","","48.30","","101.32","","","","","","Mostly Cloudy"
"2010-05-24 15:00","2010","05","24","15:00"," ","16.60","","2.90","","40.00","","17.00","","17.00","","48.30","","101.25","","","","","","Mostly Cloudy"
"2010-05-24 16:00","2010","05","24","16:00"," ","16.50","","2.70","","40.00","","14.00","","11.00","","48.30","","101.22","","","","","","Mostly Cloudy"
"2010-05-24 17:00","2010","05","24","17:00"," ","15.90","","2.60","","41.00","","16.00","","15.00","","48.30","","101.20","","","","","","Cloudy"
"2010-05-24 18:00","2010","05","24","18:00"," ","15.90","","2.30","","40.00","","14.00","","17.00","","48.30","","101.17","","","","","","Cloudy"
"2010-05-24 19:00","2010","05","24","19:00"," ","15.10","","2.40","","42.00","","13.00","","15.00","","48.30","","101.18","","","","","","Cloudy"
"2010-05-24 20:00","2010","05","24","20:00"," ","13.70","","3.40","","50.00","","10.00","","15.00","","32.20","","101.20","","","","","","Cloudy"
"2010-05-24 21:00","2010","05","24","21:00"," ","13.50","","3.50","","51.00","","10.00","","17.00","","24.10","","101.21","","","","","","Cloudy"
"2010-05-24 22:00","2010","05","24","22:00"," ","14.10","","3.50","","49.00","","10.00","","19.00","","24.10","","101.20","","","","","","Cloudy"
"2010-05-24 23:00","2010","05","24","23:00"," ","13.50","","4.80","","56.00","","10.00","","19.00","","24.10","","101.20","","","","","","Cloudy"
"2010-05-25 00:00","2010","05","25","00:00"," ","13.90","","4.40","","53.00","","10.00","","20.00","","24.10","","101.21","","","","","","Rain Showers"
"2010-05-25 01:00","2010","05","25","01:00"," ","13.30","","4.80","","56.00","","9.00","","20.00","","24.10","","101.19","","","","","","Rain Showers"
"2010-05-25 02:00","2010","05","25","02:00"," ","12.90","","5.10","","59.00","","10.00","","17.00","","24.10","","101.19","","","","","","Cloudy"
"2010-05-25 03:00","2010","05","25","03:00"," ","12.80","","5.30","","60.00","","9.00","","22.00","","24.10","","101.16","","","","","","Cloudy"
"2010-05-25 04:00","2010","05","25","04:00"," ","12.40","","5.40","","62.00","","10.00","","19.00","","24.10","","101.17","","","","","","Cloudy"
"2010-05-25 05:00","2010","05","25","05:00"," ","11.50","","7.50","","76.00","","10.00","","13.00","","24.10","","101.16","","","","","","Rain Showers"
"2010-05-25 06:00","2010","05","25","06:00"," ","12.00","","7.40","","73.00","","9.00","","13.00","","24.10","","101.16","","","","","","Cloudy"
"2010-05-25 07:00","2010","05","25","07:00"," ","12.40","","7.70","","73.00","","8.00","","13.00","","24.10","","101.15","","","","","","Rain Showers"
"2010-05-25 08:00","2010","05","25","08:00"," ","13.10","","7.90","","71.00","","9.00","","13.00","","24.10","","101.17","","","","","","Rain Showers"
"2010-05-25 09:00","2010","05","25","09:00"," ","14.30","","7.90","","65.00","","9.00","","4.00","","24.10","","101.16","","","","","","Cloudy"
"2010-05-25 10:00","2010","05","25","10:00"," ","16.00","","8.60","","61.00","","25.00","","11.00","","24.10","","101.18","","","","","","Cloudy"
"2010-05-25 11:00","2010","05","25","11:00"," ","13.70","","9.00","","73.00","","28.00","","9.00","","24.10","","101.22","","","","","","Rain Showers"
"2010-05-25 12:00","2010","05","25","12:00"," ","15.40","","9.60","","68.00","","23.00","","4.00","","24.10","","101.21","","","","","","Rain Showers"
"2010-05-25 13:00","2010","05","25","13:00"," ","15.30","","8.20","","63.00","","27.00","","9.00","","24.10","","101.23","","","","","","Rain Showers"
"2010-05-25 14:00","2010","05","25","14:00"," ","15.40","","9.40","","67.00","","32.00","","7.00","","24.10","","101.24","","","","","","Rain Showers"
"2010-05-25 15:00","2010","05","25","15:00"," ","16.20","","8.30","","59.00","","0.00","","0.00","","24.10","","101.23","","","","","","Cloudy"
"2010-05-25 16:00","2010","05","25","16:00"," ","16.00","","9.50","","65.00","","2.00","","15.00","","24.10","","101.19","","","","","","Rain Showers"
"2010-05-25 17:00","2010","05","25","17:00"," ","16.00","","9.30","","64.00","","4.00","","15.00","","24.10","","101.11","","","","","","Cloudy"
"2010-05-25 18:00","2010","05","25","18:00"," ","16.00","","8.60","","61.00","","4.00","","13.00","","24.10","","101.07","","","","","","Cloudy"
"2010-05-25 19:00","2010","05","25","19:00"," ","15.70","","8.10","","61.00","","10.00","","9.00","","24.10","","101.07","","","","","","Cloudy"
"2010-05-25 20:00","2010","05","25","20:00"," ","14.40","","9.20","","71.00","","33.00","","9.00","","24.10","","101.03","","","","","","Rain Showers"
"2010-05-25 21:00","2010","05","25","21:00"," ","13.90","","9.30","","74.00","","27.00","","4.00","","24.10","","101.02","","","","","","Cloudy"
"2010-05-25 22:00","2010","05","25","22:00"," ","13.10","","9.20","","77.00","","0.00","","0.00","","24.10","","101.00","","","","","","Cloudy"
"2010-05-25 23:00","2010","05","25","23:00"," ","12.90","","9.20","","78.00","","0.00","","0.00","","24.10","","101.00","","","","","","Cloudy"
"2010-05-26 00:00","2010","05","26","00:00"," ","12.50","","9.00","","79.00","","3.00","","7.00","","24.10","","100.97","","","","","","Cloudy"
"2010-05-26 01:00","2010","05","26","01:00"," ","12.40","","8.50","","77.00","","34.00","","4.00","","24.10","","100.91","","","","","","Cloudy"
"2010-05-26 02:00","2010","05","26","02:00"," ","12.00","","8.60","","80.00","","33.00","","6.00","","24.10","","100.87","","","","","","Cloudy"
"2010-05-26 03:00","2010","05","26","03:00"," ","11.60","","8.80","","83.00","","35.00","","6.00","","24.10","","100.82","","","","","","Cloudy"
"2010-05-26 04:00","2010","05","26","04:00"," ","12.00","","9.70","","86.00","","29.00","","17.00","","24.10","","100.80","","","","","","Cloudy"
"2010-05-26 05:00","2010","05","26","05:00"," ","11.80","","9.40","","85.00","","31.00","","15.00","","24.10","","100.79","","","","","","Rain Showers"
"2010-05-26 06:00","2010","05","26","06:00"," ","12.30","","9.30","","82.00","","31.00","","24.00","","24.10","","100.77","","","","","","Rain Showers"
"2010-05-26 07:00","2010","05","26","07:00"," ","12.40","","10.30","","87.00","","30.00","","22.00","","24.10","","100.79","","","","","","Cloudy"
"2010-05-26 08:00","2010","05","26","08:00"," ","12.80","","10.30","","85.00","","30.00","","24.00","","24.10","","100.82","","","","","","Cloudy"
"2010-05-26 09:00","2010","05","26","09:00"," ","12.50","","10.30","","86.00","","31.00","","20.00","","24.10","","100.82","","","","","","Cloudy"
"2010-05-26 10:00","2010","05","26","10:00"," ","12.40","","10.00","","85.00","","30.00","","19.00","","24.10","","100.87","","","","","","Rain Showers"
"2010-05-26 11:00","2010","05","26","11:00"," ","12.90","","10.70","","86.00","","31.00","","17.00","","19.30","","100.91","","","","","","Rain Showers"
"2010-05-26 12:00","2010","05","26","12:00"," ","12.70","","10.60","","87.00","","31.00","","15.00","","16.10","","100.92","","","","","","Rain Showers"
"2010-05-26 13:00","2010","05","26","13:00"," ","13.30","","10.70","","84.00","","34.00","","9.00","","16.10","","100.95","","","","","","Rain"
"2010-05-26 14:00","2010","05","26","14:00"," ","13.20","","10.60","","84.00","","36.00","","7.00","","16.10","","100.99","","","","","","Rain"
"2010-05-26 15:00","2010","05","26","15:00"," ","13.10","","10.40","","84.00","","1.00","","9.00","","19.30","","101.05","","","","","","Rain"
"2010-05-26 16:00","2010","05","26","16:00"," ","13.70","","10.90","","83.00","","2.00","","9.00","","19.30","","101.07","","","","","","Rain"
"2010-05-26 17:00","2010","05","26","17:00"," ","13.50","","10.10","","80.00","","4.00","","9.00","","19.30","","101.13","","","","","","Rain"
"2010-05-26 18:00","2010","05","26","18:00"," ","13.10","","10.00","","81.00","","4.00","","7.00","","19.30","","101.20","","","","","","Rain"
"2010-05-26 19:00","2010","05","26","19:00"," ","12.80","","10.50","","86.00","","2.00","","4.00","","24.10","","101.22","","","","","","Cloudy"
"2010-05-26 20:00","2010","05","26","20:00"," ","12.90","","10.50","","85.00","","2.00","","4.00","","24.10","","101.29","","","","","","Rain"
"2010-05-26 21:00","2010","05","26","21:00"," ","12.70","","10.20","","85.00","","6.00","","6.00","","24.10","","101.32","","","","","","Mostly Cloudy"
"2010-05-26 22:00","2010","05","26","22:00"," ","12.20","","10.20","","88.00","","8.00","","6.00","","24.10","","101.32","","","","","","Cloudy"
"2010-05-26 23:00","2010","05","26","23:00"," ","12.00","","10.20","","89.00","","9.00","","7.00","","24.10","","101.32","","","","","","Cloudy"
"2010-05-27 00:00","2010","05","27","00:00"," ","12.20","","10.00","","86.00","","7.00","","7.00","","24.10","","101.30","","","","","","Cloudy"
"2010-05-27 01:00","2010","05","27","01:00"," ","12.30","","10.40","","88.00","","8.00","","9.00","","24.10","","101.30","","","","","","Cloudy"
"2010-05-27 02:00","2010","05","27","02:00"," ","11.90","","10.10","","89.00","","15.00","","9.00","","24.10","","101.32","","","","","","Cloudy"
"2010-05-27 03:00","2010","05","27","03:00"," ","11.70","","9.80","","88.00","","14.00","","4.00","","24.10","","101.32","","","","","","Cloudy"
"2010-05-27 04:00","2010","05","27","04:00"," ","11.30","","9.80","","90.00","","9.00","","9.00","","19.30","","101.29","","","","","","Rain"
"2010-05-27 05:00","2010","05","27","05:00"," ","11.50","","9.70","","89.00","","11.00","","4.00","","16.10","","101.29","","","","","","Cloudy"
"2010-05-27 06:00","2010","05","27","06:00"," ","11.90","","9.80","","87.00","","12.00","","4.00","","19.30","","101.28","","","","","","Cloudy"
"2010-05-27 07:00","2010","05","27","07:00"," ","12.20","","9.80","","85.00","","30.00","","9.00","","19.30","","101.24","","","","","","Cloudy"
"2010-05-27 08:00","2010","05","27","08:00"," ","12.40","","10.50","","88.00","","24.00","","9.00","","19.30","","101.24","","","","","","Mostly Cloudy"
"2010-05-27 09:00","2010","05","27","09:00"," ","13.10","","10.40","","84.00","","24.00","","11.00","","24.10","","101.23","","","","","","Mostly Cloudy"
"2010-05-27 10:00","2010","05","27","10:00"," ","14.00","","11.00","","82.00","","25.00","","13.00","","24.10","","101.22","","","","","","Mostly Cloudy"
"2010-05-27 11:00","2010","05","27","11:00"," ","14.20","","11.20","","82.00","","30.00","","20.00","","24.10","","101.20","","","","","","Mostly Cloudy"
"2010-05-27 12:00","2010","05","27","12:00"," ","15.00","","11.90","","82.00","","29.00","","28.00","","24.10","","101.14","","","","","","Mostly Cloudy"
"2010-05-27 13:00","2010","05","27","13:00"," ","15.60","","11.70","","78.00","","29.00","","30.00","","24.10","","101.12","","","","","","Mostly Cloudy"
"2010-05-27 14:00","2010","05","27","14:00"," ","15.50","","10.60","","73.00","","28.00","","26.00","","32.20","","101.06","","","","","","Cloudy"
"2010-05-27 15:00","2010","05","27","15:00"," ","15.90","","9.90","","68.00","","29.00","","26.00","","32.20","","101.05","","","","","","Cloudy"
"2010-05-27 16:00","2010","05","27","16:00"," ","15.10","","10.00","","72.00","","27.00","","22.00","","32.20","","101.05","","","","","","Cloudy"
"2010-05-27 17:00","2010","05","27","17:00"," ","15.30","","10.00","","71.00","","22.00","","11.00","","32.20","","101.02","","","","","","Cloudy"
"2010-05-27 18:00","2010","05","27","18:00"," ","15.70","","10.20","","70.00","","19.00","","15.00","","32.20","","100.99","","","","","","Cloudy"
"2010-05-27 19:00","2010","05","27","19:00"," ","14.50","","10.00","","74.00","","12.00","","15.00","","32.20","","101.01","","","","","","Cloudy"
"2010-05-27 20:00","2010","05","27","20:00"," ","12.90","","9.60","","80.00","","10.00","","19.00","","32.20","","101.00","","","","","","Cloudy"
"2010-05-27 21:00","2010","05","27","21:00"," ","12.70","","9.60","","81.00","","10.00","","19.00","","24.10","","101.01","","","","","","Rain Showers"
"2010-05-27 22:00","2010","05","27","22:00"," ","12.30","","9.60","","84.00","","12.00","","20.00","","24.10","","101.02","","","","","","Rain Showers"
"2010-05-27 23:00","2010","05","27","23:00"," ","11.40","","9.50","","88.00","","11.00","","22.00","","24.10","","101.01","","","","","","Rain Showers"
"2010-05-28 00:00","2010","05","28","00:00"," ","11.00","","9.50","","90.00","","9.00","","24.00","","19.30","","101.03","","","","","","Rain Showers"
"2010-05-28 01:00","2010","05","28","01:00"," ","11.10","","9.60","","90.00","","11.00","","17.00","","16.10","","101.04","","","","","","Rain Showers"
"2010-05-28 02:00","2010","05","28","02:00"," ","11.10","","9.80","","92.00","","9.00","","17.00","","16.10","","101.05","","","","","","Rain Showers"
"2010-05-28 03:00","2010","05","28","03:00"," ","11.00","","9.70","","92.00","","9.00","","17.00","","16.10","","101.08","","","","","","Rain Showers"
"2010-05-28 04:00","2010","05","28","04:00"," ","10.90","","9.40","","90.00","","9.00","","15.00","","16.10","","101.11","","","","","","Rain"
"2010-05-28 05:00","2010","05","28","05:00"," ","11.00","","9.40","","90.00","","9.00","","17.00","","16.10","","101.15","","","","","","Cloudy"
"2010-05-28 06:00","2010","05","28","06:00"," ","11.40","","9.60","","89.00","","9.00","","15.00","","24.10","","101.18","","","","","","Cloudy"
"2010-05-28 07:00","2010","05","28","07:00"," ","11.60","","9.70","","88.00","","9.00","","22.00","","24.10","","101.26","","","","","","Cloudy"
"2010-05-28 08:00","2010","05","28","08:00"," ","11.90","","9.70","","86.00","","8.00","","30.00","","32.20","","101.32","","","","","","Cloudy"
"2010-05-28 09:00","2010","05","28","09:00"," ","12.30","","9.70","","84.00","","11.00","","30.00","","32.20","","101.39","","","","","","Cloudy"
"2010-05-28 10:00","2010","05","28","10:00"," ","12.60","","9.70","","82.00","","9.00","","26.00","","32.20","","101.46","","","","","","Cloudy"
"2010-05-28 11:00","2010","05","28","11:00"," ","12.60","","9.40","","81.00","","9.00","","24.00","","32.20","","101.51","","","","","","Cloudy"
"2010-05-28 12:00","2010","05","28","12:00"," ","13.60","","9.60","","77.00","","10.00","","22.00","","32.20","","101.57","","","","","","Cloudy"
"2010-05-28 13:00","2010","05","28","13:00"," ","13.70","","9.90","","78.00","","11.00","","19.00","","32.20","","101.64","","","","","","Cloudy"
"2010-05-28 14:00","2010","05","28","14:00"," ","13.30","","9.90","","80.00","","13.00","","22.00","","32.20","","101.69","","","","","","Cloudy"
"2010-05-28 15:00","2010","05","28","15:00"," ","13.30","","10.10","","81.00","","11.00","","19.00","","32.20","","101.75","","","","","","Cloudy"
"2010-05-28 16:00","2010","05","28","16:00"," ","13.10","","10.00","","81.00","","11.00","","24.00","","32.20","","101.80","","","","","","Cloudy"
"2010-05-28 17:00","2010","05","28","17:00"," ","12.40","","10.00","","85.00","","11.00","","22.00","","19.30","","101.85","","","","","","Cloudy"
"2010-05-28 18:00","2010","05","28","18:00"," ","12.00","","9.50","","85.00","","11.00","","26.00","","19.30","","101.90","","","","","","Cloudy"
"2010-05-28 19:00","2010","05","28","19:00"," ","11.70","","9.30","","85.00","","11.00","","20.00","","19.30","","101.95","","","","","","Cloudy"
"2010-05-28 20:00","2010","05","28","20:00"," ","11.70","","8.90","","83.00","","11.00","","22.00","","19.30","","101.99","","","","","","Cloudy"
"2010-05-28 21:00","2010","05","28","21:00"," ","11.60","","9.00","","84.00","","11.00","","19.00","","24.10","","102.05","","","","","","Cloudy"
"2010-05-28 22:00","2010","05","28","22:00"," ","11.50","","9.10","","85.00","","10.00","","17.00","","24.10","","102.05","","","","","","Cloudy"
"2010-05-28 23:00","2010","05","28","23:00"," ","11.40","","8.40","","82.00","","9.00","","20.00","","24.10","","102.05","","","","","","Cloudy"
"2010-05-29 00:00","2010","05","29","00:00"," ","11.40","","8.50","","82.00","","10.00","","19.00","","24.10","","102.06","","","","","","Cloudy"
"2010-05-29 01:00","2010","05","29","01:00"," ","10.90","","8.70","","86.00","","10.00","","19.00","","24.10","","102.09","","","","","","Rain Showers"
"2010-05-29 02:00","2010","05","29","02:00"," ","10.70","","8.90","","89.00","","10.00","","15.00","","24.10","","102.11","","","","","","Rain Showers"
"2010-05-29 03:00","2010","05","29","03:00"," ","10.70","","8.90","","89.00","","10.00","","17.00","","24.10","","102.12","","","","","","Rain Showers"
"2010-05-29 04:00","2010","05","29","04:00"," ","10.60","","9.00","","90.00","","11.00","","11.00","","24.10","","102.12","","","","","","Rain Showers"
"2010-05-29 05:00","2010","05","29","05:00"," ","10.50","","8.90","","90.00","","11.00","","11.00","","19.30","","102.14","","","","","","Rain Showers"
"2010-05-29 06:00","2010","05","29","06:00"," ","10.60","","9.00","","90.00","","12.00","","11.00","","16.10","","102.16","","","","","","Rain Showers"
"2010-05-29 07:00","2010","05","29","07:00"," ","10.80","","9.30","","90.00","","11.00","","15.00","","12.90","","102.19","","","","","","Rain"
"2010-05-29 08:00","2010","05","29","08:00"," ","11.10","","9.40","","89.00","","11.00","","13.00","","12.90","","102.21","","","","","","Rain"
"2010-05-29 09:00","2010","05","29","09:00"," ","11.30","","9.60","","89.00","","12.00","","13.00","","12.90","","102.24","","","","","","Rain"
"2010-05-29 10:00","2010","05","29","10:00"," ","11.00","","9.20","","89.00","","16.00","","9.00","","9.70","","102.26","","","","","","Rain,Fog"
"2010-05-29 11:00","2010","05","29","11:00"," ","11.10","","9.60","","90.00","","14.00","","7.00","","4.80","","102.28","","","","","","Rain,Fog"
"2010-05-29 12:00","2010","05","29","12:00"," ","11.30","","9.80","","90.00","","11.00","","11.00","","8.00","","102.30","","","","","","Rain,Fog"
"2010-05-29 13:00","2010","05","29","13:00"," ","11.40","","9.90","","90.00","","15.00","","11.00","","6.40","","102.30","","","","","","Rain,Fog"
"2010-05-29 14:00","2010","05","29","14:00"," ","11.50","","9.90","","90.00","","13.00","","13.00","","9.70","","102.30","","","","","","Rain Showers,Fog"
"2010-05-29 15:00","2010","05","29","15:00"," ","11.40","","9.90","","90.00","","12.00","","13.00","","9.70","","102.31","","","","","","Rain Showers,Fog"
"2010-05-29 16:00","2010","05","29","16:00"," ","11.10","","9.40","","89.00","","11.00","","17.00","","24.10","","102.30","","","","","","Cloudy"
"2010-05-29 17:00","2010","05","29","17:00"," ","11.20","","9.40","","89.00","","10.00","","19.00","","24.10","","102.26","","","","","","Cloudy"
"2010-05-29 18:00","2010","05","29","18:00"," ","11.00","","9.10","","88.00","","10.00","","13.00","","24.10","","102.25","","","","","","Cloudy"
"2010-05-29 19:00","2010","05","29","19:00"," ","10.90","","9.10","","89.00","","9.00","","17.00","","24.10","","102.26","","","","","","Cloudy"
"2010-05-29 20:00","2010","05","29","20:00"," ","10.50","","8.80","","89.00","","10.00","","20.00","","24.10","","102.26","","","","","","Cloudy"
"2010-05-29 21:00","2010","05","29","21:00"," ","10.20","","8.50","","89.00","","9.00","","19.00","","19.30","","102.24","","","","","","Rain Showers"
"2010-05-29 22:00","2010","05","29","22:00"," ","10.10","","8.70","","91.00","","9.00","","15.00","","24.10","","102.20","","","","","","Cloudy"
"2010-05-29 23:00","2010","05","29","23:00"," ","9.90","","8.40","","90.00","","9.00","","19.00","","12.90","","102.18","","","","","","Rain Showers"
"2010-05-30 00:00","2010","05","30","00:00"," ","9.90","","8.60","","92.00","","10.00","","13.00","","12.90","","102.16","","","","","","Rain Showers"
"2010-05-30 01:00","2010","05","30","01:00"," ","9.70","","8.20","","90.00","","8.00","","17.00","","16.10","","102.11","","","","","","Rain Showers"
"2010-05-30 02:00","2010","05","30","02:00"," ","9.70","","8.10","","90.00","","9.00","","19.00","","16.10","","102.09","","","","","","Cloudy"
"2010-05-30 03:00","2010","05","30","03:00"," ","9.60","","8.10","","90.00","","10.00","","17.00","","16.10","","102.05","","","","","","Cloudy"
"2010-05-30 04:00","2010","05","30","04:00"," ","9.60","","7.90","","89.00","","9.00","","17.00","","24.10","","102.02","","","","","","Cloudy"
"2010-05-30 05:00","2010","05","30","05:00"," ","9.70","","7.90","","89.00","","11.00","","15.00","","24.10","","102.00","","","","","","Cloudy"
"2010-05-30 06:00","2010","05","30","06:00"," ","10.10","","8.20","","88.00","","10.00","","15.00","","24.10","","101.99","","","","","","Cloudy"
"2010-05-30 07:00","2010","05","30","07:00"," ","11.60","","8.50","","81.00","","10.00","","15.00","","24.10","","101.97","","","","","","Mostly Cloudy"
"2010-05-30 08:00","2010","05","30","08:00"," ","12.00","","7.80","","75.00","","11.00","","11.00","","24.10","","101.94","","","","","","Cloudy"
"2010-05-30 09:00","2010","05","30","09:00"," ","12.40","","7.70","","73.00","","12.00","","15.00","","24.10","","101.90","","","","","","Cloudy"
"2010-05-30 10:00","2010","05","30","10:00"," ","13.80","","7.30","","65.00","","13.00","","19.00","","24.10","","101.87","","","","","","Cloudy"
"2010-05-30 11:00","2010","05","30","11:00"," ","14.20","","7.40","","64.00","","14.00","","22.00","","24.10","","101.83","","","","","","Cloudy"
"2010-05-30 12:00","2010","05","30","12:00"," ","13.80","","6.00","","59.00","","15.00","","19.00","","24.10","","101.82","","","","","","Cloudy"
"2010-05-30 13:00","2010","05","30","13:00"," ","14.40","","5.20","","54.00","","15.00","","15.00","","24.10","","101.77","","","","","","Cloudy"
"2010-05-30 14:00","2010","05","30","14:00"," ","14.10","","6.70","","61.00","","14.00","","15.00","","24.10","","101.73","","","","","","Rain"
"2010-05-30 15:00","2010","05","30","15:00"," ","13.30","","8.60","","73.00","","14.00","","17.00","","24.10","","101.71","","","","","","Rain"
"2010-05-30 16:00","2010","05","30","16:00"," ","13.20","","9.00","","76.00","","14.00","","11.00","","24.10","","101.66","","","","","","Rain"
"2010-05-30 17:00","2010","05","30","17:00"," ","12.90","","9.20","","78.00","","18.00","","9.00","","24.10","","101.60","","","","","","Rain"
"2010-05-30 18:00","2010","05","30","18:00"," ","12.50","","9.40","","81.00","","16.00","","7.00","","24.10","","101.55","","","","","","Rain"
"2010-05-30 19:00","2010","05","30","19:00"," ","12.30","","9.60","","84.00","","15.00","","6.00","","24.10","","101.50","","","","","","Rain"
"2010-05-30 20:00","2010","05","30","20:00"," ","11.80","","9.30","","85.00","","26.00","","4.00","","24.10","","101.46","","","","","","Rain"
"2010-05-30 21:00","2010","05","30","21:00"," ","11.50","","9.80","","89.00","","36.00","","7.00","","24.10","","101.42","","","","","","Rain"
"2010-05-30 22:00","2010","05","30","22:00"," ","11.80","","10.10","","89.00","","2.00","","7.00","","19.30","","101.36","","","","","","Rain"
"2010-05-30 23:00","2010","05","30","23:00"," ","11.70","","10.00","","89.00","","36.00","","6.00","","19.30","","101.31","","","","","","Rain"
"2010-05-31 00:00","2010","05","31","00:00"," ","11.70","","9.90","","89.00","","4.00","","4.00","","19.30","","101.25","","","","","","Rain"
"2010-05-31 01:00","2010","05","31","01:00"," ","12.00","","10.00","","88.00","","5.00","","7.00","","12.90","","101.20","","","","","","Rain"
"2010-05-31 02:00","2010","05","31","02:00"," ","11.50","","9.20","","86.00","","8.00","","15.00","","12.90","","101.15","","","","","","Rain"
"2010-05-31 03:00","2010","05","31","03:00"," ","11.00","","9.10","","88.00","","8.00","","15.00","","12.90","","101.10","","","","","","Rain"
"2010-05-31 04:00","2010","05","31","04:00"," ","10.80","","9.20","","90.00","","9.00","","9.00","","19.30","","101.05","","","","","","Rain"
"2010-05-31 05:00","2010","05","31","05:00"," ","10.80","","9.30","","90.00","","10.00","","13.00","","19.30","","101.02","","","","","","Rain"
"2010-05-31 06:00","2010","05","31","06:00"," ","10.90","","9.50","","91.00","","10.00","","17.00","","19.30","","101.02","","","","","","Rain"
"2010-05-31 07:00","2010","05","31","07:00"," ","11.20","","9.60","","90.00","","9.00","","15.00","","19.30","","101.02","","","","","","Rain"
"2010-05-31 08:00","2010","05","31","08:00"," ","11.60","","10.00","","90.00","","9.00","","13.00","","12.90","","101.01","","","","","","Rain"
"2010-05-31 09:00","2010","05","31","09:00"," ","12.00","","10.80","","92.00","","9.00","","13.00","","16.10","","101.02","","","","","","Rain"
"2010-05-31 10:00","2010","05","31","10:00"," ","13.10","","11.30","","89.00","","9.00","","13.00","","24.10","","101.02","","","","","","Rain"
"2010-05-31 11:00","2010","05","31","11:00"," ","13.20","","11.50","","89.00","","9.00","","15.00","","16.10","","101.04","","","","","","Rain"
"2010-05-31 12:00","2010","05","31","12:00"," ","14.00","","11.90","","87.00","","11.00","","13.00","","24.10","","101.06","","","","","","Cloudy"
"2010-05-31 13:00","2010","05","31","13:00"," ","15.70","","12.50","","81.00","","11.00","","11.00","","24.10","","101.05","","","","","","Cloudy"
"2010-05-31 14:00","2010","05","31","14:00"," ","16.60","","12.20","","75.00","","12.00","","11.00","","24.10","","101.04","","","","","","Mostly Cloudy"
"2010-05-31 15:00","2010","05","31","15:00"," ","17.40","","11.90","","70.00","","13.00","","9.00","","24.10","","101.05","","","","","","Mostly Cloudy"
"2010-05-31 16:00","2010","05","31","16:00"," ","16.60","","11.70","","73.00","","20.00","","19.00","","24.10","","101.08","","","","","","Mostly Cloudy"
"2010-05-31 17:00","2010","05","31","17:00"," ","17.10","","12.40","","74.00","","22.00","","15.00","","24.10","","101.06","","","","","","Mostly Cloudy"
"2010-05-31 18:00","2010","05","31","18:00"," ","17.00","","11.40","","70.00","","22.00","","9.00","","24.10","","101.08","","","","","","Mostly Cloudy"
"2010-05-31 19:00","2010","05","31","19:00"," ","16.50","","10.50","","68.00","","20.00","","11.00","","24.10","","101.10","","","","","","Mainly Clear"
"2010-05-31 20:00","2010","05","31","20:00"," ","15.40","","9.70","","69.00","","19.00","","11.00","","24.10","","101.04","","","","","","Mainly Clear"
"2010-05-31 21:00","2010","05","31","21:00"," ","14.40","","9.50","","72.00","","19.00","","11.00","","24.10","","101.19","","","","","","Mostly Cloudy"
"2010-05-31 22:00","2010","05","31","22:00"," ","14.20","","9.50","","73.00","","13.00","","7.00","","24.10","","101.24","","","","","","Cloudy"
"2010-05-31 23:00","2010","05","31","23:00"," ","12.80","","9.70","","81.00","","11.00","","13.00","","24.10","","101.25","","","","","","Cloudy"