"Station Name","VANCOUVER INT'L A"
"Province","BRITISH COLUMBIA"
"Latitude","49.20"
"Longitude","-123.18"
"Elevation","4.30"
"Climate Identifier","1108447"
"WMO Identifier","71892"
"TC Identifier","YVR"
"All times are specified in Local Standard Time (LST). Add 1 hour to adjust for Daylight Saving Time where and when it is observed."

"Legend"
"M","Missing"
"E","Estimated"
"NA","Not Available"
"**","Partner data that is not subject to review by the National Climate Archives"

"Date/Time","Year","Month","Day","Time","Data Quality","Temp (°C)","Temp Flag","Dew Point Temp (°C)","Dew Point Temp Flag","Rel Hum (%)","Rel Hum Flag","Wind Dir (10's deg)","Wind Dir Flag","Wind Spd (km/h)","Wind Spd Flag","Visibility (km)","Visibility Flag","Stn Press (kPa)","Stn Press Flag","Hmdx","Hmdx Flag","Wind Chill","Wind Chill Flag","Weather"
"2010-04-01 00:00","2010","04","01","00:00"," ","2.80","","1.30","","90.00","","8.00","","9.00","","48.30","","101.28","","","","","","Mainly Clear"
"2010-04-01 01:00","2010","04","01","01:00"," ","3.50","","2.20","","91.00","","8.00","","7.00","","32.20","","101.34","","","","","","Mainly Clear"
"2010-04-01 02:00","2010","04","01","02:00"," ","2.20","","1.20","","93.00","","9.00","","13.00","","32.20","","101.29","","","","","","Mainly Clear"
"2010-04-01 03:00","2010","04","01","03:00"," ","4.00","","2.50","","90.00","","9.00","","11.00","","32.20","","101.27","","","","","","Mostly Cloudy"
"2010-04-01 04:00","2010","04","01","04:00"," ","4.10","","2.60","","90.00","","9.00","","17.00","","32.20","","101.24","","","","","","Mostly Cloudy"
"2010-04-01 05:00","2010","04","01","05:00"," ","4.40","","3.10","","91.00","","9.00","","17.00","","32.20","","101.24","","","","","","Mostly Cloudy"
"2010-04-01 06:00","2010","04","01","06:00"," ","5.10","","3.80","","91.00","","9.00","","20.00","","32.20","","101.26","","","","","","Cloudy"
"2010-04-01 07:00","2010","04","01","07:00"," ","5.70","","4.10","","89.00","","10.00","","20.00","","32.20","","101.28","","","","","","Cloudy"
"2010-04-01 08:00","2010","04","01","08:00"," ","7.00","","4.30","","83.00","","14.00","","20.00","","24.10","","101.26","","","","","","Cloudy"
"2010-04-01 09:00","2010","04","01","09:00"," ","7.30","","3.90","","79.00","","15.00","","22.00","","24.10","","101.29","","","","","","Cloudy"
"2010-04-01 10:00","2010","04","01","10:00"," ","7.40","","4.00","","79.00","","14.00","","28.00","","24.10","","101.30","","","","","","Cloudy"
"2010-04-01 11:00","2010","04","01","11:00"," ","7.70","","4.00","","77.00","","15.00","","24.00","","24.10","","101.30","","","","","","Cloudy"
"2010-04-01 12:00","2010","04","01","12:00"," ","9.30","","3.50","","67.00","","16.00","","26.00","","32.20","","101.28","","","","","","Cloudy"
"2010-04-01 13:00","2010","04","01","13:00"," ","9.50","","2.90","","63.00","","15.00","","22.00","","32.20","","101.30","","","","","","Cloudy"
"2010-04-01 14:00","2010","04","01","14:00"," ","9.10","","1.90","","61.00","","18.00","","15.00","","32.20","","101.32","","","","","","Cloudy"
"2010-04-01 15:00","2010","04","01","15:00"," ","9.00","","2.40","","63.00","","18.00","","15.00","","32.20","","101.29","","","","","","Cloudy"
"2010-04-01 16:00","2010","04","01","16:00"," ","9.30","","3.20","","66.00","","14.00","","13.00","","32.20","","101.27","","","","","","Cloudy"
"2010-04-01 17:00","2010","04","01","17:00"," ","6.60","","2.90","","77.00","","20.00","","7.00","","24.10","","101.26","","","","","","Rain"
"2010-04-01 18:00","2010","04","01","18:00"," ","7.40","","2.80","","73.00","","12.00","","15.00","","32.20","","101.19","","","","","","Cloudy"
"2010-04-01 19:00","2010","04","01","19:00"," ","6.90","","3.30","","78.00","","8.00","","20.00","","32.20","","101.08","","","","","","Cloudy"
"2010-04-01 20:00","2010","04","01","20:00"," ","6.80","","4.10","","83.00","","8.00","","19.00","","32.20","","101.07","","","","","","Cloudy"
"2010-04-01 21:00","2010","04","01","21:00"," ","8.10","","2.70","","69.00","","13.00","","35.00","","32.20","","100.99","","","","","","Cloudy"
"2010-04-01 22:00","2010","04","01","22:00"," ","7.70","","3.30","","74.00","","14.00","","30.00","","24.10","","100.96","","","","","","Rain"
"2010-04-01 23:00","2010","04","01","23:00"," ","7.50","","3.10","","74.00","","13.00","","41.00","","32.20","","100.83","","","","","","Cloudy"
"2010-04-02 00:00","2010","04","02","00:00"," ","7.40","","3.00","","74.00","","13.00","","44.00","","32.20","","100.69","","","","","","Cloudy"
"2010-04-02 01:00","2010","04","02","01:00"," ","7.70","","2.40","","69.00","","13.00","","43.00","","32.20","","100.54","","","","","","Cloudy"
"2010-04-02 02:00","2010","04","02","02:00"," ","8.00","","1.60","","64.00","","12.00","","39.00","","32.20","","100.42","","","","","","Cloudy"
"2010-04-02 03:00","2010","04","02","03:00"," ","6.30","","2.30","","76.00","","9.00","","22.00","","32.20","","100.32","","","","","","Cloudy"
"2010-04-02 04:00","2010","04","02","04:00"," ","7.00","","2.40","","72.00","","11.00","","39.00","","32.20","","100.15","","","","","","Rain"
"2010-04-02 05:00","2010","04","02","05:00"," ","6.50","","2.50","","76.00","","13.00","","48.00","","32.20","","99.97","","","","","","Rain"
"2010-04-02 06:00","2010","04","02","06:00"," ","4.80","","2.70","","86.00","","10.00","","37.00","","16.10","","99.71","","","","","","Rain"
"2010-04-02 07:00","2010","04","02","07:00"," ","5.00","","2.70","","85.00","","9.00","","35.00","","16.10","","99.41","","","","","","Rain"
"2010-04-02 08:00","2010","04","02","08:00"," ","5.50","","2.50","","81.00","","9.00","","46.00","","19.30","","99.04","","","","","","Rain"
"2010-04-02 09:00","2010","04","02","09:00"," ","5.60","","2.90","","83.00","","11.00","","52.00","","12.90","","98.90","","","","","","Rain"
"2010-04-02 10:00","2010","04","02","10:00"," ","5.20","","3.50","","89.00","","9.00","","50.00","","16.10","","98.77","","","","","","Rain"
"2010-04-02 11:00","2010","04","02","11:00"," ","5.40","","3.80","","89.00","","11.00","","39.00","","16.10","","98.77","","","","","","Rain"
"2010-04-02 12:00","2010","04","02","12:00"," ","6.80","","4.10","","83.00","","11.00","","56.00","","19.30","","98.81","","","","","","Rain"
"2010-04-02 13:00","2010","04","02","13:00"," ","8.60","","3.70","","71.00","","13.00","","65.00","","24.10","","98.80","","","","","","Cloudy"
"2010-04-02 14:00","2010","04","02","14:00"," ","9.30","","3.90","","69.00","","14.00","","69.00","","24.10","","98.78","","","","","","Rain Showers"
"2010-04-02 15:00","2010","04","02","15:00"," ","8.60","","4.80","","77.00","","15.00","","41.00","","19.30","","98.80","","","","","","Rain Showers"
"2010-04-02 16:00","2010","04","02","16:00"," ","8.50","","4.30","","75.00","","14.00","","46.00","","19.30","","98.86","","","","","","Rain Showers"
"2010-04-02 17:00","2010","04","02","17:00"," ","7.50","","4.10","","79.00","","15.00","","48.00","","19.30","","98.95","","","","","","Rain Showers"
"2010-04-02 18:00","2010","04","02","18:00"," ","7.40","","4.20","","80.00","","16.00","","52.00","","19.30","","98.95","","","","","","Rain Showers"
"2010-04-02 19:00","2010","04","02","19:00"," ","6.90","","3.60","","79.00","","17.00","","50.00","","24.10","","99.00","","","","","","Rain Showers"
"2010-04-02 20:00","2010","04","02","20:00"," ","6.80","","3.30","","78.00","","18.00","","46.00","","24.10","","99.10","","","","","","Cloudy"
"2010-04-02 21:00","2010","04","02","21:00"," ","6.90","","3.00","","76.00","","18.00","","44.00","","24.10","","99.26","","","","","","Cloudy"
"2010-04-02 22:00","2010","04","02","22:00"," ","7.00","","3.00","","76.00","","18.00","","46.00","","24.10","","99.40","","","","","","Cloudy"
"2010-04-02 23:00","2010","04","02","23:00"," ","7.00","","2.80","","75.00","","18.00","","43.00","","24.10","","99.54","","","","","","Cloudy"
"2010-04-03 00:00","2010","04","03","00:00"," ","7.20","","2.70","","73.00","","19.00","","37.00","","24.10","","99.69","","","","","","Cloudy"
"2010-04-03 01:00","2010","04","03","01:00"," ","7.50","","2.20","","69.00","","21.00","","43.00","","24.10","","99.83","","","","","","Cloudy"
"2010-04-03 02:00","2010","04","03","02:00"," ","7.30","","2.00","","69.00","","21.00","","33.00","","24.10","","99.96","","","","","","Cloudy"
"2010-04-03 03:00","2010","04","03","03:00"," ","7.30","","1.80","","68.00","","20.00","","20.00","","24.10","","100.10","","","","","","Cloudy"
"2010-04-03 04:00","2010","04","03","04:00"," ","7.00","","1.90","","70.00","","21.00","","28.00","","24.10","","100.21","","","","","","Cloudy"
"2010-04-03 05:00","2010","04","03","05:00"," ","6.60","","2.10","","73.00","","22.00","","39.00","","24.10","","100.29","","","","","","Mostly Cloudy"
"2010-04-03 06:00","2010","04","03","06:00"," ","6.20","","1.70","","73.00","","21.00","","43.00","","24.10","","100.21","","","","","","Mostly Cloudy"
"2010-04-03 07:00","2010","04","03","07:00"," ","6.00","","1.30","","72.00","","20.00","","32.00","","32.20","","100.50","","","","","","Mostly Cloudy"
"2010-04-03 08:00","2010","04","03","08:00"," ","6.10","","1.00","","70.00","","20.00","","30.00","","32.20","","100.62","","","","","","Cloudy"
"2010-04-03 09:00","2010","04","03","09:00"," ","6.20","","0.30","","66.00","","20.00","","35.00","","32.20","","100.70","","","","","","Cloudy"
"2010-04-03 10:00","2010","04","03","10:00"," ","6.80","","0.30","","63.00","","19.00","","30.00","","32.20","","100.80","","","","","","Mostly Cloudy"
"2010-04-03 11:00","2010","04","03","11:00"," ","7.50","","0.30","","60.00","","20.00","","32.00","","32.20","","100.84","","","","","","Mostly Cloudy"
"2010-04-03 12:00","2010","04","03","12:00"," ","7.90","","0.20","","58.00","","18.00","","24.00","","32.20","","100.87","","","","","","Mostly Cloudy"
"2010-04-03 13:00","2010","04","03","13:00"," ","8.70","","0.40","","56.00","","20.00","","26.00","","32.20","","100.88","","","","","","Cloudy"
"2010-04-03 14:00","2010","04","03","14:00"," ","8.30","","-0.20","","55.00","","19.00","","28.00","","32.20","","100.88","","","","","","Cloudy"
"2010-04-03 15:00","2010","04","03","15:00"," ","7.80","","1.30","","63.00","","16.00","","17.00","","32.20","","100.87","","","","","","Cloudy"
"2010-04-03 16:00","2010","04","03","16:00"," ","7.30","","1.30","","66.00","","17.00","","22.00","","32.20","","100.86","","","","","","Cloudy"
"2010-04-03 17:00","2010","04","03","17:00"," ","7.10","","-1.10","","56.00","","15.00","","22.00","","32.20","","100.83","","","","","","Cloudy"
"2010-04-03 18:00","2010","04","03","18:00"," ","7.20","","-1.80","","53.00","","17.00","","19.00","","32.20","","100.81","","","","","","Cloudy"
"2010-04-03 19:00","2010","04","03","19:00"," ","6.50","","-1.20","","58.00","","7.00","","6.00","","32.20","","100.78","","","","","","Cloudy"
"2010-04-03 20:00","2010","04","03","20:00"," ","5.50","","-2.40","","57.00","","14.00","","19.00","","32.20","","100.83","","","","","","Cloudy"
"2010-04-03 21:00","2010","04","03","21:00"," ","4.30","","3.20","","93.00","","9.00","","22.00","","24.10","","100.83","","","","","","Rain Showers"
"2010-04-03 22:00","2010","04","03","22:00"," ","3.10","","2.30","","94.00","","6.00","","19.00","","24.10","","100.79","","","","","","Rain Showers"
"2010-04-03 23:00","2010","04","03","23:00"," ","3.60","","2.90","","95.00","","8.00","","13.00","","24.10","","100.75","","","","","","Rain Showers"
"2010-04-04 00:00","2010","04","04","00:00"," ","4.10","","3.30","","95.00","","7.00","","17.00","","24.10","","100.73","","","","","","Rain Showers"
"2010-04-04 01:00","2010","04","04","01:00"," ","4.10","","3.20","","94.00","","8.00","","20.00","","24.10","","100.70","","","","","","Rain Showers"
"2010-04-04 02:00","2010","04","04","02:00"," ","4.40","","3.30","","93.00","","7.00","","17.00","","32.20","","100.66","","","","","","Cloudy"
"2010-04-04 03:00","2010","04","04","03:00"," ","4.00","","3.30","","95.00","","9.00","","15.00","","32.20","","100.60","","","","","","Cloudy"
"2010-04-04 04:00","2010","04","04","04:00"," ","4.40","","2.60","","88.00","","7.00","","22.00","","32.20","","100.50","","","","","","Cloudy"
"2010-04-04 05:00","2010","04","04","05:00"," ","3.90","","2.50","","91.00","","9.00","","22.00","","32.20","","100.45","","","","","","Cloudy"
"2010-04-04 06:00","2010","04","04","06:00"," ","4.20","","2.30","","87.00","","8.00","","24.00","","24.10","","100.40","","","","","","Cloudy"
"2010-04-04 07:00","2010","04","04","07:00"," ","4.60","","2.80","","88.00","","11.00","","22.00","","24.10","","100.37","","","","","","Cloudy"
"2010-04-04 08:00","2010","04","04","08:00"," ","5.50","","3.30","","86.00","","9.00","","19.00","","24.10","","100.27","","","","","","Cloudy"
"2010-04-04 09:00","2010","04","04","09:00"," ","8.50","","4.20","","74.00","","6.00","","20.00","","24.10","","100.19","","","","","","Mostly Cloudy"
"2010-04-04 10:00","2010","04","04","10:00"," ","10.60","","3.80","","63.00","","9.00","","28.00","","48.30","","100.11","","","","","","Mostly Cloudy"
"2010-04-04 11:00","2010","04","04","11:00"," ","11.70","","2.20","","52.00","","9.00","","33.00","","48.30","","100.05","","","","","","Mostly Cloudy"
"2010-04-04 12:00","2010","04","04","12:00"," ","12.90","","0.90","","44.00","","9.00","","37.00","","48.30","","99.95","","","","","","Mostly Cloudy"
"2010-04-04 13:00","2010","04","04","13:00"," ","12.50","","0.60","","44.00","","9.00","","41.00","","48.30","","99.92","","","","","","Cloudy"
"2010-04-04 14:00","2010","04","04","14:00"," ","13.40","","0.10","","40.00","","8.00","","33.00","","48.30","","99.82","","","","","","Mostly Cloudy"
"2010-04-04 15:00","2010","04","04","15:00"," ","13.00","","-0.20","","40.00","","9.00","","35.00","","48.30","","99.77","","","","","","Cloudy"
"2010-04-04 16:00","2010","04","04","16:00"," ","12.80","","-0.60","","40.00","","9.00","","37.00","","48.30","","99.72","","","","","","Cloudy"
"2010-04-04 17:00","2010","04","04","17:00"," ","12.40","","-1.20","","39.00","","8.00","","32.00","","48.30","","99.72","","","","","","Rain"
"2010-04-04 18:00","2010","04","04","18:00"," ","11.10","","0.40","","48.00","","8.00","","32.00","","32.20","","99.75","","","","","","Rain"
"2010-04-04 19:00","2010","04","04","19:00"," ","12.00","","-1.50","","39.00","","16.00","","37.00","","24.10","","99.82","","","","","","Rain Showers"
"2010-04-04 20:00","2010","04","04","20:00"," ","9.20","","2.70","","64.00","","9.00","","33.00","","24.10","","99.90","","","","","","Rain Showers"
"2010-04-04 21:00","2010","04","04","21:00"," ","9.60","","2.50","","61.00","","11.00","","19.00","","24.10","","99.95","","","","","","Rain Showers"
"2010-04-04 22:00","2010","04","04","22:00"," ","8.50","","4.20","","74.00","","7.00","","20.00","","19.30","","100.00","","","","","","Rain Showers"
"2010-04-04 23:00","2010","04","04","23:00"," ","7.20","","4.80","","85.00","","5.00","","24.00","","19.30","","100.02","","","","","","Rain Showers"
"2010-04-05 00:00","2010","04","05","00:00"," ","7.10","","5.40","","89.00","","6.00","","9.00","","19.30","","100.01","","","","","","Rain Showers"
"2010-04-05 01:00","2010","04","05","01:00"," ","6.90","","5.40","","90.00","","15.00","","7.00","","19.30","","100.06","","","","","","Rain Showers"
"2010-04-05 02:00","2010","04","05","02:00"," ","6.90","","5.40","","90.00","","13.00","","9.00","","19.30","","100.10","","","","","","Rain"
"2010-04-05 03:00","2010","04","05","03:00"," ","6.10","","4.70","","91.00","","12.00","","22.00","","19.30","","100.12","","","","","","Rain"
"2010-04-05 04:00","2010","04","05","04:00"," ","5.50","","4.70","","95.00","","10.00","","17.00","","19.30","","100.12","","","","","","Rain"
"2010-04-05 05:00","2010","04","05","05:00"," ","5.30","","4.50","","95.00","","9.00","","19.00","","19.30","","100.16","","","","","","Rain"
"2010-04-05 06:00","2010","04","05","06:00"," ","5.20","","4.40","","95.00","","7.00","","17.00","","19.30","","100.20","","","","","","Rain"
"2010-04-05 07:00","2010","04","05","07:00"," ","5.40","","4.20","","92.00","","6.00","","19.00","","24.10","","100.23","","","","","","Rain"
"2010-04-05 08:00","2010","04","05","08:00"," ","6.00","","4.60","","91.00","","6.00","","19.00","","24.10","","100.26","","","","","","Cloudy"
"2010-04-05 09:00","2010","04","05","09:00"," ","6.40","","4.40","","87.00","","8.00","","17.00","","24.10","","100.30","","","","","","Cloudy"
"2010-04-05 10:00","2010","04","05","10:00"," ","6.90","","4.30","","83.00","","7.00","","15.00","","24.10","","100.35","","","","","","Cloudy"
"2010-04-05 11:00","2010","04","05","11:00"," ","8.20","","4.20","","76.00","","10.00","","20.00","","24.10","","100.40","","","","","","Cloudy"
"2010-04-05 12:00","2010","04","05","12:00"," ","8.90","","4.20","","72.00","","11.00","","20.00","","24.10","","100.43","","","","","","Cloudy"
"2010-04-05 13:00","2010","04","05","13:00"," ","9.80","","4.00","","67.00","","10.00","","19.00","","24.10","","100.45","","","","","","Cloudy"
"2010-04-05 14:00","2010","04","05","14:00"," ","10.60","","2.40","","57.00","","13.00","","17.00","","24.10","","100.48","","","","","","Cloudy"
"2010-04-05 15:00","2010","04","05","15:00"," ","11.60","","1.30","","49.00","","12.00","","19.00","","32.20","","100.49","","","","","","Mostly Cloudy"
"2010-04-05 16:00","2010","04","05","16:00"," ","11.30","","0.80","","48.00","","15.00","","20.00","","32.20","","100.48","","","","","","Mostly Cloudy"
"2010-04-05 17:00","2010","04","05","17:00"," ","9.50","","3.00","","64.00","","15.00","","30.00","","32.20","","100.54","","","","","","Mostly Cloudy"
"2010-04-05 18:00","2010","04","05","18:00"," ","9.00","","3.30","","67.00","","13.00","","24.00","","32.20","","100.54","","","","","","Mostly Cloudy"
"2010-04-05 19:00","2010","04","05","19:00"," ","8.90","","2.50","","64.00","","12.00","","19.00","","32.20","","100.60","","","","","","Cloudy"
"2010-04-05 20:00","2010","04","05","20:00"," ","8.10","","3.60","","73.00","","8.00","","19.00","","32.20","","100.67","","","","","","Cloudy"
"2010-04-05 21:00","2010","04","05","21:00"," ","7.30","","4.90","","85.00","","8.00","","17.00","","19.30","","100.76","","","","","","Rain"
"2010-04-05 22:00","2010","04","05","22:00"," ","6.90","","5.10","","88.00","","10.00","","9.00","","19.30","","100.82","","","","","","Rain"
"2010-04-05 23:00","2010","04","05","23:00"," ","6.60","","5.10","","90.00","","9.00","","19.00","","19.30","","100.89","","","","","","Rain"
"2010-04-06 00:00","2010","04","06","00:00"," ","6.40","","5.20","","92.00","","8.00","","15.00","","19.30","","100.96","","","","","","Rain"
"2010-04-06 01:00","2010","04","06","01:00"," ","6.20","","5.10","","93.00","","8.00","","15.00","","19.30","","101.03","","","","","","Rain"
"2010-04-06 02:00","2010","04","06","02:00"," ","6.00","","5.40","","96.00","","9.00","","19.00","","19.30","","101.06","","","","","","Rain"
"2010-04-06 03:00","2010","04","06","03:00"," ","6.10","","5.60","","97.00","","9.00","","9.00","","19.30","","101.19","","","","","","Cloudy"
"2010-04-06 04:00","2010","04","06","04:00"," ","5.70","","5.30","","97.00","","9.00","","9.00","","19.30","","101.28","","","","","","Cloudy"
"2010-04-06 05:00","2010","04","06","05:00"," ","6.20","","5.60","","96.00","","8.00","","4.00","","19.30","","101.38","","","","","","Rain Showers"
"2010-04-06 06:00","2010","04","06","06:00"," ","4.80","","4.40","","97.00","","6.00","","6.00","","24.10","","101.54","","","","","","Mainly Clear"
"2010-04-06 07:00","2010","04","06","07:00"," ","5.50","","5.30","","99.00","","9.00","","9.00","","24.10","","101.67","","","","","","Mainly Clear"
"2010-04-06 08:00","2010","04","06","08:00"," ","7.00","","6.00","","93.00","","16.00","","7.00","","24.10","","101.80","","","","","","Mostly Cloudy"
"2010-04-06 09:00","2010","04","06","09:00"," ","8.10","","4.40","","77.00","","18.00","","11.00","","24.10","","101.92","","","","","","Mostly Cloudy"
"2010-04-06 10:00","2010","04","06","10:00"," ","8.80","","3.40","","69.00","","17.00","","13.00","","24.10","","102.00","","","","","","Cloudy"
"2010-04-06 11:00","2010","04","06","11:00"," ","9.80","","5.20","","73.00","","20.00","","22.00","","24.10","","102.06","","","","","","Cloudy"
"2010-04-06 12:00","2010","04","06","12:00"," ","10.10","","5.10","","71.00","","19.00","","17.00","","24.10","","102.12","","","","","","Cloudy"
"2010-04-06 13:00","2010","04","06","13:00"," ","10.40","","4.70","","68.00","","18.00","","19.00","","24.10","","102.19","","","","","","Mostly Cloudy"
"2010-04-06 14:00","2010","04","06","14:00"," ","11.70","","6.10","","68.00","","18.00","","24.00","","32.20","","102.23","","","","","","Mostly Cloudy"
"2010-04-06 15:00","2010","04","06","15:00"," ","10.40","","4.30","","66.00","","18.00","","15.00","","32.20","","102.27","","","","","","Mostly Cloudy"
"2010-04-06 16:00","2010","04","06","16:00"," ","10.90","","3.30","","59.00","","18.00","","17.00","","32.20","","102.31","","","","","","Cloudy"
"2010-04-06 17:00","2010","04","06","17:00"," ","10.20","","2.10","","57.00","","22.00","","26.00","","32.20","","102.35","","","","","","Cloudy"
"2010-04-06 18:00","2010","04","06","18:00"," ","9.60","","4.10","","69.00","","25.00","","15.00","","32.20","","102.38","","","","","","Cloudy"
"2010-04-06 19:00","2010","04","06","19:00"," ","9.10","","3.70","","69.00","","22.00","","13.00","","24.10","","102.45","","","","","","Cloudy"
"2010-04-06 20:00","2010","04","06","20:00"," ","8.70","","2.20","","64.00","","23.00","","15.00","","24.10","","102.52","","","","","","Cloudy"
"2010-04-06 21:00","2010","04","06","21:00"," ","8.30","","1.90","","64.00","","21.00","","20.00","","24.10","","102.61","","","","","","Cloudy"
"2010-04-06 22:00","2010","04","06","22:00"," ","8.00","","2.40","","68.00","","22.00","","30.00","","24.10","","102.66","","","","","","Cloudy"
"2010-04-06 23:00","2010","04","06","23:00"," ","7.20","","2.90","","74.00","","17.00","","9.00","","19.30","","102.72","","","","","","Rain"
"2010-04-07 00:00","2010","04","07","00:00"," ","6.10","","4.40","","89.00","","11.00","","15.00","","19.30","","102.72","","","","","","Rain"
"2010-04-07 01:00","2010","04","07","01:00"," ","5.80","","4.40","","91.00","","10.00","","13.00","","19.30","","102.72","","","","","","Rain"
"2010-04-07 02:00","2010","04","07","02:00"," ","5.90","","4.40","","90.00","","9.00","","13.00","","19.30","","102.70","","","","","","Cloudy"
"2010-04-07 03:00","2010","04","07","03:00"," ","5.70","","4.40","","91.00","","10.00","","17.00","","19.30","","102.68","","","","","","Cloudy"
"2010-04-07 04:00","2010","04","07","04:00"," ","5.50","","4.20","","91.00","","8.00","","19.00","","19.30","","102.63","","","","","","Cloudy"
"2010-04-07 05:00","2010","04","07","05:00"," ","5.50","","4.60","","94.00","","9.00","","15.00","","19.30","","102.59","","","","","","Rain Showers"
"2010-04-07 06:00","2010","04","07","06:00"," ","5.70","","4.60","","93.00","","8.00","","20.00","","19.30","","102.51","","","","","","Cloudy"
"2010-04-07 07:00","2010","04","07","07:00"," ","6.90","","4.90","","87.00","","11.00","","19.00","","24.10","","102.48","","","","","","Cloudy"
"2010-04-07 08:00","2010","04","07","08:00"," ","7.60","","4.80","","82.00","","13.00","","20.00","","24.10","","102.45","","","","","","Cloudy"
"2010-04-07 09:00","2010","04","07","09:00"," ","8.00","","5.20","","82.00","","13.00","","20.00","","24.10","","102.39","","","","","","Cloudy"
"2010-04-07 10:00","2010","04","07","10:00"," ","8.30","","4.60","","77.00","","14.00","","22.00","","24.10","","102.31","","","","","","Cloudy"
"2010-04-07 11:00","2010","04","07","11:00"," ","8.70","","4.70","","76.00","","14.00","","26.00","","24.10","","102.28","","","","","","Cloudy"
"2010-04-07 12:00","2010","04","07","12:00"," ","8.70","","4.60","","75.00","","13.00","","32.00","","24.10","","102.16","","","","","","Cloudy"
"2010-04-07 13:00","2010","04","07","13:00"," ","8.50","","5.40","","81.00","","14.00","","30.00","","19.30","","102.06","","","","","","Rain"
"2010-04-07 14:00","2010","04","07","14:00"," ","8.30","","5.60","","83.00","","13.00","","28.00","","16.10","","101.96","","","","","","Rain"
"2010-04-07 15:00","2010","04","07","15:00"," ","8.20","","6.30","","88.00","","14.00","","22.00","","16.10","","101.86","","","","","","Rain"
"2010-04-07 16:00","2010","04","07","16:00"," ","7.90","","6.20","","89.00","","13.00","","28.00","","19.30","","101.71","","","","","","Rain"
"2010-04-07 17:00","2010","04","07","17:00"," ","7.40","","5.90","","90.00","","14.00","","37.00","","19.30","","101.54","","","","","","Rain"
"2010-04-07 18:00","2010","04","07","18:00"," ","7.00","","5.70","","91.00","","13.00","","30.00","","19.30","","101.42","","","","","","Rain"
"2010-04-07 19:00","2010","04","07","19:00"," ","6.60","","5.50","","93.00","","13.00","","28.00","","9.70","","101.29","","","","","","Rain"
"2010-04-07 20:00","2010","04","07","20:00"," ","6.90","","5.80","","93.00","","13.00","","28.00","","12.90","","101.17","","","","","","Rain"
"2010-04-07 21:00","2010","04","07","21:00"," ","6.90","","5.70","","92.00","","12.00","","20.00","","12.90","","101.06","","","","","","Rain"
"2010-04-07 22:00","2010","04","07","22:00"," ","6.10","","5.60","","97.00","","9.00","","17.00","","12.90","","100.90","","","","","","Rain"
"2010-04-07 23:00","2010","04","07","23:00"," ","5.80","","5.40","","97.00","","9.00","","19.00","","12.90","","100.75","","","","","","Rain"
"2010-04-08 00:00","2010","04","08","00:00"," ","6.00","","5.60","","97.00","","11.00","","17.00","","12.90","","100.62","","","","","","Rain"
"2010-04-08 01:00","2010","04","08","01:00"," ","3.30","","2.60","","95.00","","29.00","","57.00","","12.90","","100.62","","","","","","Rain"
"2010-04-08 02:00","2010","04","08","02:00"," ","3.40","","2.30","","92.00","","29.00","","78.00","","12.90","","100.63","","","","","","Cloudy"
"2010-04-08 03:00","2010","04","08","03:00"," ","4.00","","2.40","","89.00","","30.00","","48.00","","24.10","","100.71","","","","","","Cloudy"
"2010-04-08 04:00","2010","04","08","04:00"," ","3.70","","1.00","","82.00","","29.00","","54.00","","24.10","","100.88","","","","","","Mainly Clear"
"2010-04-08 05:00","2010","04","08","05:00"," ","4.30","","0.10","","74.00","","30.00","","50.00","","24.10","","101.10","","","","","","Mainly Clear"
"2010-04-08 06:00","2010","04","08","06:00"," ","4.60","","1.40","","80.00","","31.00","","39.00","","24.10","","101.21","","","","","","Rain Showers"
"2010-04-08 07:00","2010","04","08","07:00"," ","4.90","","0.00","","71.00","","30.00","","44.00","","32.20","","101.33","","","","","","Mainly Clear"
"2010-04-08 08:00","2010","04","08","08:00"," ","5.80","","0.50","","69.00","","29.00","","48.00","","32.20","","101.42","","","","","","Mainly Clear"
"2010-04-08 09:00","2010","04","08","09:00"," ","6.50","","1.50","","70.00","","29.00","","44.00","","32.20","","101.53","","","","","","Mainly Clear"
"2010-04-08 10:00","2010","04","08","10:00"," ","7.50","","1.60","","66.00","","29.00","","46.00","","32.20","","101.67","","","","","","Mainly Clear"
"2010-04-08 11:00","2010","04","08","11:00"," ","7.60","","1.30","","64.00","","30.00","","39.00","","32.20","","101.82","","","","","","Mainly Clear"
"2010-04-08 12:00","2010","04","08","12:00"," ","8.20","","0.60","","59.00","","29.00","","33.00","","48.30","","101.93","","","","","","Mainly Clear"
"2010-04-08 13:00","2010","04","08","13:00"," ","8.40","","-0.60","","53.00","","30.00","","39.00","","48.30","","102.00","","","","","","Mainly Clear"
"2010-04-08 14:00","2010","04","08","14:00"," ","8.90","","-1.60","","48.00","","30.00","","26.00","","48.30","","102.05","","","","","","Mainly Clear"
"2010-04-08 15:00","2010","04","08","15:00"," ","8.00","","-2.40","","48.00","","30.00","","13.00","","32.20","","102.11","","","","","","Mostly Cloudy"
"2010-04-08 16:00","2010","04","08","16:00"," ","8.00","","-3.10","","45.00","","21.00","","7.00","","32.20","","102.11","","","","","","Mostly Cloudy"
"2010-04-08 17:00","2010","04","08","17:00"," ","8.40","","-2.30","","47.00","","23.00","","15.00","","32.20","","102.10","","","","","","Mostly Cloudy"
"2010-04-08 18:00","2010","04","08","18:00"," ","7.00","","0.70","","64.00","","22.00","","37.00","","32.20","","102.06","","","","","","Mostly Cloudy"
"2010-04-08 19:00","2010","04","08","19:00"," ","5.50","","0.70","","71.00","","21.00","","39.00","","32.20","","102.07","","","","","","Mostly Cloudy"
"2010-04-08 20:00","2010","04","08","20:00"," ","5.50","","2.00","","78.00","","20.00","","26.00","","32.20","","102.08","","","","","","Mostly Cloudy"
"2010-04-08 21:00","2010","04","08","21:00"," ","5.60","","1.10","","73.00","","18.00","","20.00","","32.20","","102.07","","","","","","Mostly Cloudy"
"2010-04-08 22:00","2010","04","08","22:00"," ","5.90","","1.00","","71.00","","19.00","","22.00","","32.20","","102.07","","","","","","Cloudy"
"2010-04-08 23:00","2010","04","08","23:00"," ","5.80","","1.10","","72.00","","22.00","","28.00","","32.20","","102.06","","","","","","Mostly Cloudy"
"2010-04-09 00:00","2010","04","09","00:00"," ","5.50","","1.40","","75.00","","23.00","","33.00","","32.20","","102.06","","","","","","Mainly Clear"
"2010-04-09 01:00","2010","04","09","01:00"," ","5.70","","0.10","","67.00","","24.00","","30.00","","32.20","","102.08","","","","","","Mainly Clear"
"2010-04-09 02:00","2010","04","09","02:00"," ","5.40","","0.10","","69.00","","27.00","","30.00","","32.20","","102.11","","","","","","Mainly Clear"
"2010-04-09 03:00","2010","04","09","03:00"," ","3.00","","-0.50","","78.00","","29.00","","20.00","","32.20","","102.18","","","","","","Mainly Clear"
"2010-04-09 04:00","2010","04","09","04:00"," ","3.80","","-0.70","","72.00","","28.00","","26.00","","32.20","","102.23","","","","","","Mainly Clear"
"2010-04-09 05:00","2010","04","09","05:00"," ","4.40","","-0.60","","70.00","","28.00","","26.00","","32.20","","102.26","","","","","","Mainly Clear"
"2010-04-09 06:00","2010","04","09","06:00"," ","4.40","","-0.30","","71.00","","27.00","","26.00","","32.20","","102.31","","","","","","Mainly Clear"
"2010-04-09 07:00","2010","04","09","07:00"," ","5.10","","-0.20","","69.00","","27.00","","17.00","","32.20","","102.34","","","","","","Mainly Clear"
"2010-04-09 08:00","2010","04","09","08:00"," ","5.90","","-1.30","","60.00","","25.00","","20.00","","32.20","","102.38","","","","","","Mainly Clear"
"2010-04-09 09:00","2010","04","09","09:00"," ","6.60","","-0.20","","62.00","","26.00","","13.00","","32.20","","102.42","","","","","","Mainly Clear"
"2010-04-09 10:00","2010","04","09","10:00"," ","6.60","","-0.60","","60.00","","24.00","","11.00","","32.20","","102.46","","","","","","Mainly Clear"
"2010-04-09 11:00","2010","04","09","11:00"," ","7.10","","-0.80","","57.00","","25.00","","15.00","","32.20","","102.48","","","","","","Mainly Clear"
"2010-04-09 12:00","2010","04","09","12:00"," ","7.20","","-1.00","","56.00","","25.00","","15.00","","32.20","","102.48","","","","","","Mainly Clear"
"2010-04-09 13:00","2010","04","09","13:00"," ","7.90","","-3.50","","44.00","","27.00","","11.00","","32.20","","102.47","","","","","","Mainly Clear"
"2010-04-09 14:00","2010","04","09","14:00"," ","8.20","","-3.60","","43.00","","27.00","","11.00","","32.20","","102.46","","","","","","Mainly Clear"
"2010-04-09 15:00","2010","04","09","15:00"," ","7.70","","-2.60","","48.00","","28.00","","13.00","","32.20","","102.46","","","","","","Mainly Clear"
"2010-04-09 16:00","2010","04","09","16:00"," ","8.00","","-1.30","","52.00","","29.00","","11.00","","32.20","","102.41","","","","","","Mostly Cloudy"
"2010-04-09 17:00","2010","04","09","17:00"," ","7.60","","-2.30","","49.00","","26.00","","9.00","","32.20","","102.36","","","","","","Mostly Cloudy"
"2010-04-09 18:00","2010","04","09","18:00"," ","6.80","","-1.70","","55.00","","28.00","","7.00","","32.20","","102.33","","","","","","Mainly Clear"
"2010-04-09 19:00","2010","04","09","19:00"," ","4.80","","-2.40","","60.00","","30.00","","11.00","","32.20","","102.32","","","","","","Mainly Clear"
"2010-04-09 20:00","2010","04","09","20:00"," ","5.70","","-0.40","","65.00","","25.00","","9.00","","32.20","","102.35","","","","","","Mainly Clear"
"2010-04-09 21:00","2010","04","09","21:00"," ","4.60","","-1.70","","64.00","","4.00","","7.00","","32.20","","102.36","","","","","","Mainly Clear"
"2010-04-09 22:00","2010","04","09","22:00"," ","3.10","","-0.50","","77.00","","7.00","","11.00","","32.20","","102.35","","","","","","Mainly Clear"
"2010-04-09 23:00","2010","04","09","23:00"," ","3.60","","-0.50","","75.00","","7.00","","13.00","","32.20","","102.35","","","","","","Clear"
"2010-04-10 00:00","2010","04","10","00:00"," ","1.40","","-1.20","","83.00","","8.00","","11.00","","32.20","","102.35","","","","","","Mainly Clear"
"2010-04-10 01:00","2010","04","10","01:00"," ","2.00","","-1.00","","80.00","","9.00","","11.00","","32.20","","102.31","","","","","","Mainly Clear"
"2010-04-10 02:00","2010","04","10","02:00"," ","2.70","","-1.80","","72.00","","2.00","","9.00","","32.20","","102.25","","","","","","Mainly Clear"
"2010-04-10 03:00","2010","04","10","03:00"," ","2.20","","-2.10","","73.00","","0.00","","0.00","","32.20","","102.21","","","","","","Mainly Clear"
"2010-04-10 04:00","2010","04","10","04:00"," ","1.40","","-2.30","","76.00","","1.00","","6.00","","32.20","","102.15","","","","","","Mainly Clear"
"2010-04-10 05:00","2010","04","10","05:00"," ","2.00","","-2.90","","70.00","","3.00","","6.00","","32.20","","102.07","","","","","","Mainly Clear"
"2010-04-10 06:00","2010","04","10","06:00"," ","2.00","","-3.00","","69.00","","35.00","","4.00","","48.30","","102.04","","","","","","Mainly Clear"
"2010-04-10 07:00","2010","04","10","07:00"," ","3.10","","-2.20","","68.00","","11.00","","4.00","","48.30","","102.01","","","","","","Mainly Clear"
"2010-04-10 08:00","2010","04","10","08:00"," ","5.60","","-2.40","","56.00","","15.00","","6.00","","48.30","","101.99","","","","","","Mainly Clear"
"2010-04-10 09:00","2010","04","10","09:00"," ","7.10","","-3.90","","45.00","","24.00","","7.00","","48.30","","101.96","","","","","","Mostly Cloudy"
"2010-04-10 10:00","2010","04","10","10:00"," ","6.70","","0.20","","63.00","","27.00","","11.00","","48.30","","101.92","","","","","","Mostly Cloudy"
"2010-04-10 11:00","2010","04","10","11:00"," ","9.10","","0.20","","54.00","","30.00","","22.00","","48.30","","101.86","","","","","","Mostly Cloudy"
"2010-04-10 12:00","2010","04","10","12:00"," ","9.60","","2.60","","62.00","","30.00","","30.00","","48.30","","101.75","","","","","","Mostly Cloudy"
"2010-04-10 13:00","2010","04","10","13:00"," ","9.50","","2.90","","63.00","","29.00","","33.00","","48.30","","101.70","","","","","","Mostly Cloudy"
"2010-04-10 14:00","2010","04","10","14:00"," ","10.60","","3.80","","63.00","","29.00","","32.00","","48.30","","101.60","","","","","","Mostly Cloudy"
"2010-04-10 15:00","2010","04","10","15:00"," ","12.00","","1.40","","48.00","","28.00","","30.00","","48.30","","101.51","","","","","","Mostly Cloudy"
"2010-04-10 16:00","2010","04","10","16:00"," ","9.80","","4.80","","71.00","","27.00","","35.00","","48.30","","101.44","","","","","","Mostly Cloudy"
"2010-04-10 17:00","2010","04","10","17:00"," ","13.00","","5.70","","61.00","","33.00","","15.00","","48.30","","101.37","","","","","","Mostly Cloudy"
"2010-04-10 18:00","2010","04","10","18:00"," ","9.30","","4.40","","71.00","","31.00","","22.00","","48.30","","101.32","","","","","","Mostly Cloudy"
"2010-04-10 19:00","2010","04","10","19:00"," ","7.90","","4.10","","77.00","","31.00","","20.00","","48.30","","101.31","","","","","","Mainly Clear"
"2010-04-10 20:00","2010","04","10","20:00"," ","7.20","","3.90","","80.00","","31.00","","13.00","","48.30","","101.32","","","","","","Mainly Clear"
"2010-04-10 21:00","2010","04","10","21:00"," ","6.30","","3.40","","82.00","","32.00","","15.00","","48.30","","101.33","","","","","","Mainly Clear"
"2010-04-10 22:00","2010","04","10","22:00"," ","5.30","","1.70","","78.00","","32.00","","9.00","","48.30","","101.31","","","","","","Mainly Clear"
"2010-04-10 23:00","2010","04","10","23:00"," ","6.80","","-0.50","","60.00","","34.00","","9.00","","48.30","","101.28","","","","","","Mainly Clear"
"2010-04-11 00:00","2010","04","11","00:00"," ","6.10","","-0.50","","63.00","","34.00","","9.00","","48.30","","101.28","","","","","","Mainly Clear"
"2010-04-11 01:00","2010","04","11","01:00"," ","5.80","","-4.10","","49.00","","29.00","","4.00","","48.30","","101.27","","","","","","Mainly Clear"
"2010-04-11 02:00","2010","04","11","02:00"," ","7.00","","1.40","","67.00","","25.00","","4.00","","48.30","","101.25","","","","","","Mostly Cloudy"
"2010-04-11 03:00","2010","04","11","03:00"," ","6.20","","0.70","","68.00","","28.00","","4.00","","48.30","","101.23","","","","","","Mostly Cloudy"
"2010-04-11 04:00","2010","04","11","04:00"," ","5.50","","0.80","","72.00","","30.00","","13.00","","48.30","","101.25","","","","","","Mostly Cloudy"
"2010-04-11 05:00","2010","04","11","05:00"," ","5.20","","2.40","","82.00","","31.00","","15.00","","48.30","","101.26","","","","","","Mainly Clear"
"2010-04-11 06:00","2010","04","11","06:00"," ","5.70","","0.20","","68.00","","0.00","","0.00","","48.30","","101.28","","","","","","Mostly Cloudy"
"2010-04-11 07:00","2010","04","11","07:00"," ","5.90","","1.10","","71.00","","0.00","","0.00","","48.30","","101.28","","","","","","Cloudy"
"2010-04-11 08:00","2010","04","11","08:00"," ","8.40","","2.10","","64.00","","0.00","","0.00","","48.30","","101.28","","","","","","Cloudy"
"2010-04-11 09:00","2010","04","11","09:00"," ","9.30","","1.20","","57.00","","29.00","","9.00","","48.30","","101.28","","","","","","Cloudy"
"2010-04-11 10:00","2010","04","11","10:00"," ","10.10","","3.60","","64.00","","31.00","","15.00","","48.30","","101.27","","","","","","Cloudy"
"2010-04-11 11:00","2010","04","11","11:00"," ","10.40","","4.70","","68.00","","30.00","","19.00","","48.30","","101.21","","","","","","Cloudy"
"2010-04-11 12:00","2010","04","11","12:00"," ","10.60","","4.50","","66.00","","30.00","","20.00","","48.30","","101.13","","","","","","Cloudy"
"2010-04-11 13:00","2010","04","11","13:00"," ","10.90","","3.20","","59.00","","29.00","","26.00","","48.30","","101.10","","","","","","Cloudy"
"2010-04-11 14:00","2010","04","11","14:00"," ","11.50","","1.40","","50.00","","31.00","","28.00","","48.30","","101.10","","","","","","Mostly Cloudy"
"2010-04-11 15:00","2010","04","11","15:00"," ","11.70","","1.10","","48.00","","30.00","","20.00","","48.30","","100.96","","","","","","Mainly Clear"
"2010-04-11 16:00","2010","04","11","16:00"," ","11.70","","0.40","","46.00","","32.00","","20.00","","48.30","","100.89","","","","","","Mostly Cloudy"
"2010-04-11 17:00","2010","04","11","17:00"," ","11.30","","0.30","","47.00","","31.00","","20.00","","48.30","","100.81","","","","","","Mostly Cloudy"
"2010-04-11 18:00","2010","04","11","18:00"," ","10.20","","1.80","","56.00","","32.00","","20.00","","48.30","","100.79","","","","","","Mostly Cloudy"
"2010-04-11 19:00","2010","04","11","19:00"," ","9.80","","2.20","","59.00","","32.00","","19.00","","48.30","","100.77","","","","","","Cloudy"
"2010-04-11 20:00","2010","04","11","20:00"," ","9.80","","2.90","","62.00","","32.00","","17.00","","48.30","","100.76","","","","","","Cloudy"
"2010-04-11 21:00","2010","04","11","21:00"," ","8.20","","4.90","","80.00","","31.00","","11.00","","48.30","","100.75","","","","","","Cloudy"
"2010-04-11 22:00","2010","04","11","22:00"," ","7.00","","5.30","","89.00","","29.00","","13.00","","48.30","","100.74","","","","","","Mostly Cloudy"
"2010-04-11 23:00","2010","04","11","23:00"," ","8.00","","5.20","","82.00","","31.00","","15.00","","48.30","","100.69","","","","","","Mostly Cloudy"
"2010-04-12 00:00","2010","04","12","00:00"," ","6.70","","4.90","","88.00","","30.00","","11.00","","48.30","","100.64","","","","","","Mostly Cloudy"
"2010-04-12 01:00","2010","04","12","01:00"," ","7.40","","4.50","","82.00","","31.00","","15.00","","48.30","","100.63","","","","","","Mainly Clear"
"2010-04-12 02:00","2010","04","12","02:00"," ","6.50","","4.10","","85.00","","31.00","","19.00","","48.30","","100.60","","","","","","Mainly Clear"
"2010-04-12 03:00","2010","04","12","03:00"," ","7.50","","5.30","","86.00","","30.00","","22.00","","48.30","","100.57","","","","","","Mostly Cloudy"
"2010-04-12 04:00","2010","04","12","04:00"," ","7.40","","6.00","","91.00","","30.00","","22.00","","48.30","","100.56","","","","","","Mostly Cloudy"
"2010-04-12 05:00","2010","04","12","05:00"," ","7.70","","5.50","","86.00","","30.00","","24.00","","48.30","","100.54","","","","","","Cloudy"
"2010-04-12 06:00","2010","04","12","06:00"," ","8.00","","5.80","","86.00","","31.00","","20.00","","48.30","","100.56","","","","","","Cloudy"
"2010-04-12 07:00","2010","04","12","07:00"," ","8.80","","5.70","","81.00","","30.00","","22.00","","48.30","","100.56","","","","","","Cloudy"
"2010-04-12 08:00","2010","04","12","08:00"," ","9.30","","6.00","","80.00","","30.00","","22.00","","48.30","","100.56","","","","","","Cloudy"
"2010-04-12 09:00","2010","04","12","09:00"," ","10.10","","6.50","","78.00","","29.00","","30.00","","48.30","","100.54","","","","","","Cloudy"
"2010-04-12 10:00","2010","04","12","10:00"," ","10.70","","5.20","","69.00","","29.00","","32.00","","48.30","","100.55","","","","","","Cloudy"
"2010-04-12 11:00","2010","04","12","11:00"," ","11.80","","6.20","","69.00","","30.00","","35.00","","48.30","","100.53","","","","","","Cloudy"
"2010-04-12 12:00","2010","04","12","12:00"," ","11.90","","6.70","","70.00","","29.00","","33.00","","48.30","","100.50","","","","","","Mostly Cloudy"
"2010-04-12 13:00","2010","04","12","13:00"," ","11.00","","5.90","","71.00","","29.00","","28.00","","48.30","","100.53","","","","","","Mostly Cloudy"
"2010-04-12 14:00","2010","04","12","14:00"," ","11.40","","5.50","","67.00","","30.00","","22.00","","48.30","","100.55","","","","","","Cloudy"
"2010-04-12 15:00","2010","04","12","15:00"," ","11.40","","4.80","","64.00","","31.00","","13.00","","48.30","","100.57","","","","","","Cloudy"
"2010-04-12 16:00","2010","04","12","16:00"," ","11.60","","5.00","","64.00","","22.00","","7.00","","48.30","","100.62","","","","","","Cloudy"
"2010-04-12 17:00","2010","04","12","17:00"," ","12.40","","3.00","","53.00","","20.00","","13.00","","48.30","","100.66","","","","","","Cloudy"
"2010-04-12 18:00","2010","04","12","18:00"," ","12.40","","2.10","","49.00","","13.00","","13.00","","48.30","","100.71","","","","","","Cloudy"
"2010-04-12 19:00","2010","04","12","19:00"," ","11.80","","3.60","","57.00","","12.00","","19.00","","32.20","","100.75","","","","","","Cloudy"
"2010-04-12 20:00","2010","04","12","20:00"," ","10.90","","5.30","","68.00","","11.00","","15.00","","32.20","","100.81","","","","","","Cloudy"
"2010-04-12 21:00","2010","04","12","21:00"," ","11.40","","4.70","","63.00","","12.00","","17.00","","32.20","","100.84","","","","","","Cloudy"
"2010-04-12 22:00","2010","04","12","22:00"," ","11.30","","5.00","","65.00","","16.00","","11.00","","24.10","","100.87","","","","","","Cloudy"
"2010-04-12 23:00","2010","04","12","23:00"," ","10.90","","6.20","","73.00","","0.00","","0.00","","24.10","","100.91","","","","","","Cloudy"
"2010-04-13 00:00","2010","04","13","00:00"," ","10.60","","6.90","","78.00","","12.00","","11.00","","24.10","","100.91","","","","","","Rain Showers"
"2010-04-13 01:00","2010","04","13","01:00"," ","10.00","","7.50","","84.00","","11.00","","19.00","","24.10","","100.89","","","","","","Rain Showers"
"2010-04-13 02:00","2010","04","13","02:00"," ","9.60","","5.70","","77.00","","8.00","","7.00","","24.10","","100.94","","","","","","Rain Showers"
"2010-04-13 03:00","2010","04","13","03:00"," ","8.00","","6.40","","90.00","","8.00","","11.00","","19.30","","100.96","","","","","","Rain Showers"
"2010-04-13 04:00","2010","04","13","04:00"," ","8.30","","6.70","","90.00","","9.00","","11.00","","19.30","","100.99","","","","","","Rain Showers"
"2010-04-13 05:00","2010","04","13","05:00"," ","8.20","","7.00","","92.00","","8.00","","9.00","","19.30","","101.01","","","","","","Rain Showers"
"2010-04-13 06:00","2010","04","13","06:00"," ","8.40","","6.90","","90.00","","7.00","","6.00","","24.10","","101.04","","","","","","Rain Showers"
"2010-04-13 07:00","2010","04","13","07:00"," ","9.30","","6.90","","85.00","","0.00","","0.00","","24.10","","101.09","","","","","","Rain Showers"
"2010-04-13 08:00","2010","04","13","08:00"," ","9.80","","7.90","","88.00","","10.00","","9.00","","24.10","","101.10","","","","","","Cloudy"
"2010-04-13 09:00","2010","04","13","09:00"," ","10.30","","7.50","","83.00","","24.00","","6.00","","24.10","","101.12","","","","","","Cloudy"
"2010-04-13 10:00","2010","04","13","10:00"," ","9.70","","7.30","","85.00","","29.00","","15.00","","24.10","","101.16","","","","","","Cloudy"
"2010-04-13 11:00","2010","04","13","11:00"," ","10.50","","5.40","","71.00","","26.00","","9.00","","24.10","","101.20","","","","","","Cloudy"
"2010-04-13 12:00","2010","04","13","12:00"," ","10.60","","5.40","","70.00","","30.00","","9.00","","24.10","","101.24","","","","","","Cloudy"
"2010-04-13 13:00","2010","04","13","13:00"," ","11.90","","4.50","","60.00","","26.00","","6.00","","24.10","","101.27","","","","","","Cloudy"
"2010-04-13 14:00","2010","04","13","14:00"," ","12.00","","5.40","","64.00","","23.00","","6.00","","24.10","","101.28","","","","","","Cloudy"
"2010-04-13 15:00","2010","04","13","15:00"," ","12.80","","5.40","","61.00","","24.00","","9.00","","24.10","","101.30","","","","","","Cloudy"
"2010-04-13 16:00","2010","04","13","16:00"," ","12.00","","4.00","","58.00","","24.00","","11.00","","24.10","","101.32","","","","","","Cloudy"
"2010-04-13 17:00","2010","04","13","17:00"," ","12.40","","4.60","","59.00","","22.00","","6.00","","24.10","","101.36","","","","","","Cloudy"
"2010-04-13 18:00","2010","04","13","18:00"," ","12.70","","5.70","","62.00","","0.00","","0.00","","24.10","","101.40","","","","","","Cloudy"
"2010-04-13 19:00","2010","04","13","19:00"," ","11.80","","6.60","","70.00","","14.00","","9.00","","24.10","","101.48","","","","","","Cloudy"
"2010-04-13 20:00","2010","04","13","20:00"," ","11.00","","7.90","","81.00","","14.00","","11.00","","24.10","","101.51","","","","","","Cloudy"
"2010-04-13 21:00","2010","04","13","21:00"," ","10.90","","7.70","","81.00","","13.00","","7.00","","24.10","","101.57","","","","","","Cloudy"
"2010-04-13 22:00","2010","04","13","22:00"," ","10.40","","8.00","","85.00","","11.00","","9.00","","19.30","","101.63","","","","","","Rain Showers"
"2010-04-13 23:00","2010","04","13","23:00"," ","9.80","","8.90","","94.00","","9.00","","13.00","","19.30","","101.68","","","","","","Rain Showers"
"2010-04-14 00:00","2010","04","14","00:00"," ","9.30","","8.50","","95.00","","10.00","","13.00","","19.30","","101.71","","","","","","Cloudy"
"2010-04-14 01:00","2010","04","14","01:00"," ","9.40","","8.50","","94.00","","8.00","","13.00","","24.10","","101.74","","","","","","Cloudy"
"2010-04-14 02:00","2010","04","14","02:00"," ","9.10","","8.40","","95.00","","9.00","","9.00","","12.90","","101.76","","","","","","Cloudy"
"2010-04-14 03:00","2010","04","14","03:00"," ","8.90","","7.90","","93.00","","10.00","","13.00","","12.90","","101.75","","","","","","Cloudy"
"2010-04-14 04:00","2010","04","14","04:00"," ","9.10","","8.00","","93.00","","8.00","","13.00","","19.30","","101.79","","","","","","Cloudy"
"2010-04-14 05:00","2010","04","14","05:00"," ","9.10","","6.90","","86.00","","13.00","","7.00","","19.30","","101.81","","","","","","Cloudy"
"2010-04-14 06:00","2010","04","14","06:00"," ","8.80","","6.20","","84.00","","13.00","","11.00","","24.10","","101.84","","","","","","Cloudy"
"2010-04-14 07:00","2010","04","14","07:00"," ","8.90","","6.00","","82.00","","11.00","","13.00","","24.10","","101.86","","","","","","Mostly Cloudy"
"2010-04-14 08:00","2010","04","14","08:00"," ","9.80","","6.20","","78.00","","12.00","","7.00","","24.10","","101.91","","","","","","Mostly Cloudy"
"2010-04-14 09:00","2010","04","14","09:00"," ","11.80","","6.30","","69.00","","14.00","","9.00","","32.20","","101.92","","","","","","Mainly Clear"
"2010-04-14 10:00","2010","04","14","10:00"," ","11.70","","5.10","","64.00","","24.00","","11.00","","32.20","","101.93","","","","","","Mainly Clear"
"2010-04-14 11:00","2010","04","14","11:00"," ","12.10","","7.80","","75.00","","23.00","","15.00","","32.20","","101.90","","","","","","Mostly Cloudy"
"2010-04-14 12:00","2010","04","14","12:00"," ","11.80","","8.10","","78.00","","26.00","","17.00","","32.20","","101.88","","","","","","Mostly Cloudy"
"2010-04-14 13:00","2010","04","14","13:00"," ","11.70","","6.90","","72.00","","28.00","","17.00","","32.20","","101.82","","","","","","Mainly Clear"
"2010-04-14 14:00","2010","04","14","14:00"," ","12.00","","7.00","","71.00","","27.00","","17.00","","32.20","","101.78","","","","","","Mainly Clear"
"2010-04-14 15:00","2010","04","14","15:00"," ","11.50","","5.80","","68.00","","27.00","","13.00","","32.20","","101.75","","","","","","Mainly Clear"
"2010-04-14 16:00","2010","04","14","16:00"," ","13.20","","6.00","","62.00","","29.00","","11.00","","32.20","","101.71","","","","","","Mainly Clear"
"2010-04-14 17:00","2010","04","14","17:00"," ","13.10","","7.00","","66.00","","26.00","","7.00","","32.20","","101.70","","","","","","Mostly Cloudy"
"2010-04-14 18:00","2010","04","14","18:00"," ","11.70","","6.90","","72.00","","29.00","","6.00","","32.20","","101.66","","","","","","Mostly Cloudy"
"2010-04-14 19:00","2010","04","14","19:00"," ","10.60","","6.20","","74.00","","29.00","","4.00","","32.20","","101.68","","","","","","Mostly Cloudy"
"2010-04-14 20:00","2010","04","14","20:00"," ","10.10","","7.10","","82.00","","33.00","","4.00","","24.10","","101.71","","","","","","Mostly Cloudy"
"2010-04-14 21:00","2010","04","14","21:00"," ","10.50","","6.50","","76.00","","34.00","","7.00","","24.10","","101.71","","","","","","Mostly Cloudy"
"2010-04-14 22:00","2010","04","14","22:00"," ","9.70","","6.50","","80.00","","30.00","","7.00","","24.10","","101.71","","","","","","Mostly Cloudy"
"2010-04-14 23:00","2010","04","14","23:00"," ","9.90","","8.10","","89.00","","31.00","","4.00","","24.10","","101.72","","","","","","Mostly Cloudy"
"2010-04-15 00:00","2010","04","15","00:00"," ","10.20","","7.50","","83.00","","0.00","","0.00","","24.10","","101.73","","","","","","Mostly Cloudy"
"2010-04-15 01:00","2010","04","15","01:00"," ","10.10","","7.20","","82.00","","0.00","","0.00","","24.10","","101.75","","","","","","Mostly Cloudy"
"2010-04-15 02:00","2010","04","15","02:00"," ","9.80","","7.10","","83.00","","0.00","","0.00","","24.10","","101.76","","","","","","Mostly Cloudy"
"2010-04-15 03:00","2010","04","15","03:00"," ","9.50","","6.30","","80.00","","0.00","","0.00","","24.10","","101.78","","","","","","Mainly Clear"
"2010-04-15 04:00","2010","04","15","04:00"," ","8.10","","5.30","","82.00","","35.00","","7.00","","24.10","","101.80","","","","","","Mainly Clear"
"2010-04-15 05:00","2010","04","15","05:00"," ","9.10","","5.40","","78.00","","0.00","","0.00","","24.10","","101.81","","","","","","Mostly Cloudy"
"2010-04-15 06:00","2010","04","15","06:00"," ","7.50","","5.00","","84.00","","36.00","","6.00","","32.20","","101.83","","","","","","Mainly Clear"
"2010-04-15 07:00","2010","04","15","07:00"," ","9.60","","6.00","","78.00","","29.00","","4.00","","32.20","","101.91","","","","","","Mainly Clear"
"2010-04-15 08:00","2010","04","15","08:00"," ","11.20","","8.80","","85.00","","27.00","","7.00","","32.20","","101.93","","","","","","Mainly Clear"
"2010-04-15 09:00","2010","04","15","09:00"," ","12.50","","8.80","","78.00","","22.00","","13.00","","48.30","","101.97","","","","","","Mainly Clear"
"2010-04-15 10:00","2010","04","15","10:00"," ","13.40","","8.80","","74.00","","25.00","","9.00","","48.30","","102.03","","","","","","Mainly Clear"
"2010-04-15 11:00","2010","04","15","11:00"," ","13.90","","9.30","","74.00","","25.00","","11.00","","48.30","","102.01","","","","","","Mainly Clear"
"2010-04-15 12:00","2010","04","15","12:00"," ","15.00","","8.40","","65.00","","16.00","","17.00","","48.30","","102.01","","","","","","Mainly Clear"
"2010-04-15 13:00","2010","04","15","13:00"," ","14.30","","7.70","","64.00","","17.00","","13.00","","48.30","","102.03","","","","","","Mostly Cloudy"
"2010-04-15 14:00","2010","04","15","14:00"," ","13.40","","7.30","","67.00","","17.00","","15.00","","32.20","","102.07","","","","","","Cloudy"
"2010-04-15 15:00","2010","04","15","15:00"," ","12.80","","7.80","","72.00","","14.00","","6.00","","24.10","","102.11","","","","","","Rain"
"2010-04-15 16:00","2010","04","15","16:00"," ","12.00","","8.90","","81.00","","3.00","","11.00","","24.10","","102.08","","","","","","Rain"
"2010-04-15 17:00","2010","04","15","17:00"," ","14.00","","8.90","","71.00","","12.00","","9.00","","32.20","","102.08","","","","","","Mainly Clear"
"2010-04-15 18:00","2010","04","15","18:00"," ","14.10","","8.40","","69.00","","14.00","","9.00","","32.20","","102.03","","","","","","Mainly Clear"
"2010-04-15 19:00","2010","04","15","19:00"," ","12.10","","7.80","","75.00","","29.00","","11.00","","32.20","","102.01","","","","","","Mainly Clear"
"2010-04-15 20:00","2010","04","15","20:00"," ","8.70","","7.40","","92.00","","30.00","","9.00","","32.20","","102.03","","","","","","Mainly Clear"
"2010-04-15 21:00","2010","04","15","21:00"," ","8.90","","6.90","","87.00","","0.00","","0.00","","32.20","","102.06","","","","","","Mainly Clear"
"2010-04-15 22:00","2010","04","15","22:00"," ","9.20","","7.70","","90.00","","35.00","","6.00","","24.10","","102.05","","","","","","Mainly Clear"
"2010-04-15 23:00","2010","04","15","23:00"," ","9.30","","7.90","","91.00","","30.00","","11.00","","24.10","","102.04","","","","","","Mainly Clear"
"2010-04-16 00:00","2010","04","16","00:00"," ","7.80","","6.90","","94.00","","1.00","","7.00","","24.10","","102.03","","","","","","Mainly Clear"
"2010-04-16 01:00","2010","04","16","01:00"," ","7.70","","6.40","","91.00","","0.00","","0.00","","24.10","","101.98","","","","","","Mainly Clear"
"2010-04-16 02:00","2010","04","16","02:00"," ","7.10","","5.50","","90.00","","0.00","","0.00","","24.10","","101.96","","","","","","Mainly Clear"
"2010-04-16 03:00","2010","04","16","03:00"," ","6.50","","4.80","","89.00","","2.00","","6.00","","24.10","","101.93","","","","","","Mainly Clear"
"2010-04-16 04:00","2010","04","16","04:00"," ","7.60","","5.40","","86.00","","0.00","","0.00","","24.10","","101.82","","","","","","Mainly Clear"
"2010-04-16 05:00","2010","04","16","05:00"," ","7.00","","5.00","","87.00","","13.00","","6.00","","24.10","","101.79","","","","","","Mainly Clear"
"2010-04-16 06:00","2010","04","16","06:00"," ","6.20","","4.60","","89.00","","1.00","","9.00","","32.20","","101.78","","","","","","Mainly Clear"
"2010-04-16 07:00","2010","04","16","07:00"," ","9.10","","7.70","","91.00","","31.00","","17.00","","48.30","","101.77","","","","","","Cloudy"
"2010-04-16 08:00","2010","04","16","08:00"," ","10.20","","9.00","","92.00","","30.00","","15.00","","48.30","","101.73","","","","","","Cloudy"
"2010-04-16 09:00","2010","04","16","09:00"," ","11.00","","8.60","","85.00","","30.00","","28.00","","48.30","","101.70","","","","","","Mostly Cloudy"
"2010-04-16 10:00","2010","04","16","10:00"," ","11.30","","9.10","","86.00","","30.00","","28.00","","48.30","","101.68","","","","","","Mostly Cloudy"
"2010-04-16 11:00","2010","04","16","11:00"," ","11.50","","9.90","","90.00","","30.00","","32.00","","48.30","","101.66","","","","","","Cloudy"
"2010-04-16 12:00","2010","04","16","12:00"," ","11.60","","10.20","","91.00","","30.00","","28.00","","48.30","","101.62","","","","","","Cloudy"
"2010-04-16 13:00","2010","04","16","13:00"," ","12.60","","10.40","","86.00","","32.00","","20.00","","48.30","","101.55","","","","","","Cloudy"
"2010-04-16 14:00","2010","04","16","14:00"," ","13.10","","10.10","","82.00","","29.00","","24.00","","48.30","","101.52","","","","","","Cloudy"
"2010-04-16 15:00","2010","04","16","15:00"," ","12.60","","9.70","","82.00","","30.00","","20.00","","48.30","","101.49","","","","","","Cloudy"
"2010-04-16 16:00","2010","04","16","16:00"," ","13.30","","9.70","","79.00","","30.00","","20.00","","48.30","","101.47","","","","","","Cloudy"
"2010-04-16 17:00","2010","04","16","17:00"," ","12.40","","9.40","","82.00","","32.00","","17.00","","48.30","","101.44","","","","","","Cloudy"
"2010-04-16 18:00","2010","04","16","18:00"," ","12.30","","8.90","","80.00","","25.00","","7.00","","48.30","","101.44","","","","","","Cloudy"
"2010-04-16 19:00","2010","04","16","19:00"," ","12.70","","8.10","","74.00","","6.00","","7.00","","48.30","","101.47","","","","","","Cloudy"
"2010-04-16 20:00","2010","04","16","20:00"," ","12.30","","9.10","","81.00","","17.00","","13.00","","32.20","","101.59","","","","","","Rain"
"2010-04-16 21:00","2010","04","16","21:00"," ","11.90","","9.90","","88.00","","9.00","","15.00","","32.20","","101.57","","","","","","Rain Showers"
"2010-04-16 22:00","2010","04","16","22:00"," ","12.30","","9.50","","83.00","","15.00","","13.00","","32.20","","101.58","","","","","","Cloudy"
"2010-04-16 23:00","2010","04","16","23:00"," ","11.50","","9.50","","88.00","","11.00","","11.00","","32.20","","101.54","","","","","","Cloudy"
"2010-04-17 00:00","2010","04","17","00:00"," ","10.80","","9.20","","90.00","","9.00","","9.00","","32.20","","101.52","","","","","","Mostly Cloudy"
"2010-04-17 01:00","2010","04","17","01:00"," ","10.90","","9.40","","90.00","","13.00","","6.00","","32.20","","101.46","","","","","","Cloudy"
"2010-04-17 02:00","2010","04","17","02:00"," ","11.10","","8.70","","85.00","","0.00","","0.00","","32.20","","101.43","","","","","","Cloudy"
"2010-04-17 03:00","2010","04","17","03:00"," ","9.80","","8.10","","89.00","","9.00","","9.00","","32.20","","101.43","","","","","","Mainly Clear"
"2010-04-17 04:00","2010","04","17","04:00"," ","8.80","","7.50","","92.00","","7.00","","11.00","","32.20","","101.39","","","","","","Mostly Cloudy"
"2010-04-17 05:00","2010","04","17","05:00"," ","10.00","","7.80","","86.00","","11.00","","13.00","","32.20","","101.40","","","","","","Cloudy"
"2010-04-17 06:00","2010","04","17","06:00"," ","10.30","","7.90","","85.00","","11.00","","11.00","","32.20","","101.42","","","","","","Cloudy"
"2010-04-17 07:00","2010","04","17","07:00"," ","11.40","","8.70","","83.00","","13.00","","9.00","","24.10","","101.49","","","","","","Rain"
"2010-04-17 08:00","2010","04","17","08:00"," ","11.20","","9.90","","92.00","","9.00","","9.00","","12.90","","101.50","","","","","","Rain"
"2010-04-17 09:00","2010","04","17","09:00"," ","11.40","","10.40","","94.00","","7.00","","15.00","","12.90","","101.46","","","","","","Rain"
"2010-04-17 10:00","2010","04","17","10:00"," ","11.50","","10.40","","93.00","","8.00","","22.00","","12.90","","101.46","","","","","","Rain"
"2010-04-17 11:00","2010","04","17","11:00"," ","11.80","","10.40","","91.00","","7.00","","19.00","","16.10","","101.45","","","","","","Rain"
"2010-04-17 12:00","2010","04","17","12:00"," ","13.40","","11.80","","90.00","","8.00","","24.00","","19.30","","101.44","","","","","","Cloudy"
"2010-04-17 13:00","2010","04","17","13:00"," ","14.90","","11.20","","79.00","","10.00","","24.00","","24.10","","101.45","","","","","","Cloudy"
"2010-04-17 14:00","2010","04","17","14:00"," ","14.30","","10.60","","78.00","","13.00","","26.00","","24.10","","101.48","","","","","","Rain Showers"
"2010-04-17 15:00","2010","04","17","15:00"," ","13.70","","11.50","","87.00","","12.00","","22.00","","16.10","","101.49","","","","","","Rain Showers"
"2010-04-17 16:00","2010","04","17","16:00"," ","13.40","","12.00","","91.00","","10.00","","19.00","","16.10","","101.52","","","","","","Rain Showers"
"2010-04-17 17:00","2010","04","17","17:00"," ","14.20","","11.70","","85.00","","9.00","","15.00","","19.30","","101.50","","","","","","Mostly Cloudy"
"2010-04-17 18:00","2010","04","17","18:00"," ","13.70","","12.10","","90.00","","11.00","","11.00","","19.30","","101.51","","","","","","Rain Showers"
"2010-04-17 19:00","2010","04","17","19:00"," ","13.30","","9.40","","77.00","","13.00","","13.00","","24.10","","101.52","","","","","","Mostly Cloudy"
"2010-04-17 20:00","2010","04","17","20:00"," ","12.80","","9.50","","80.00","","12.00","","13.00","","24.10","","101.57","","","","","","Mostly Cloudy"
"2010-04-17 21:00","2010","04","17","21:00"," ","11.60","","9.40","","86.00","","10.00","","11.00","","24.10","","101.62","","","","","","Mostly Cloudy"
"2010-04-17 22:00","2010","04","17","22:00"," ","11.80","","9.40","","85.00","","11.00","","13.00","","24.10","","101.63","","","","","","Mostly Cloudy"
"2010-04-17 23:00","2010","04","17","23:00"," ","11.00","","9.60","","91.00","","9.00","","13.00","","24.10","","101.63","","","","","","Mostly Cloudy"
"2010-04-18 00:00","2010","04","18","00:00"," ","11.20","","9.80","","91.00","","9.00","","13.00","","24.10","","101.66","","","","","","Mostly Cloudy"
"2010-04-18 01:00","2010","04","18","01:00"," ","12.00","","9.40","","84.00","","11.00","","19.00","","24.10","","101.65","","","","","","Mostly Cloudy"
"2010-04-18 02:00","2010","04","18","02:00"," ","10.50","","9.00","","90.00","","11.00","","13.00","","24.10","","101.69","","","","","","Mostly Cloudy"
"2010-04-18 03:00","2010","04","18","03:00"," ","9.80","","8.70","","93.00","","9.00","","9.00","","24.10","","101.69","","","","","","Mostly Cloudy"
"2010-04-18 04:00","2010","04","18","04:00"," ","11.50","","9.30","","86.00","","14.00","","7.00","","24.10","","101.71","","","","","","Mostly Cloudy"
"2010-04-18 05:00","2010","04","18","05:00"," ","10.90","","9.50","","91.00","","9.00","","9.00","","24.10","","101.69","","","","","","Mostly Cloudy"
"2010-04-18 06:00","2010","04","18","06:00"," ","11.00","","9.70","","92.00","","9.00","","11.00","","24.10","","101.66","","","","","","Cloudy"
"2010-04-18 07:00","2010","04","18","07:00"," ","11.70","","9.90","","89.00","","10.00","","11.00","","32.20","","101.67","","","","","","Cloudy"
"2010-04-18 08:00","2010","04","18","08:00"," ","12.80","","12.30","","97.00","","10.00","","7.00","","32.20","","101.68","","","","","","Cloudy"
"2010-04-18 09:00","2010","04","18","09:00"," ","14.60","","9.30","","70.00","","7.00","","11.00","","32.20","","101.62","","","","","","Cloudy"
"2010-04-18 10:00","2010","04","18","10:00"," ","15.90","","9.90","","68.00","","11.00","","17.00","","32.20","","101.55","","","","","","Cloudy"
"2010-04-18 11:00","2010","04","18","11:00"," ","16.00","","9.30","","64.00","","10.00","","22.00","","32.20","","101.45","","","","","","Cloudy"
"2010-04-18 12:00","2010","04","18","12:00"," ","17.60","","9.10","","57.00","","9.00","","15.00","","32.20","","101.36","","","","","","Cloudy"
"2010-04-18 13:00","2010","04","18","13:00"," ","14.30","","10.60","","78.00","","27.00","","26.00","","32.20","","101.39","","","","","","Cloudy"
"2010-04-18 14:00","2010","04","18","14:00"," ","15.00","","10.40","","74.00","","29.00","","13.00","","32.20","","101.36","","","","","","Cloudy"
"2010-04-18 15:00","2010","04","18","15:00"," ","15.80","","10.40","","70.00","","29.00","","11.00","","32.20","","101.30","","","","","","Cloudy"
"2010-04-18 16:00","2010","04","18","16:00"," ","15.30","","10.50","","73.00","","26.00","","17.00","","32.20","","101.28","","","","","","Cloudy"
"2010-04-18 17:00","2010","04","18","17:00"," ","15.30","","10.40","","73.00","","32.00","","7.00","","32.20","","101.23","","","","","","Cloudy"
"2010-04-18 18:00","2010","04","18","18:00"," ","14.60","","9.30","","70.00","","29.00","","9.00","","32.20","","101.19","","","","","","Cloudy"
"2010-04-18 19:00","2010","04","18","19:00"," ","13.00","","8.80","","76.00","","33.00","","6.00","","32.20","","101.16","","","","","","Cloudy"
"2010-04-18 20:00","2010","04","18","20:00"," ","12.70","","8.20","","74.00","","32.00","","13.00","","32.20","","101.13","","","","","","Cloudy"
"2010-04-18 21:00","2010","04","18","21:00"," ","11.60","","9.10","","85.00","","31.00","","9.00","","32.20","","101.13","","","","","","Cloudy"
"2010-04-18 22:00","2010","04","18","22:00"," ","11.70","","8.60","","81.00","","0.00","","0.00","","32.20","","101.09","","","","","","Mostly Cloudy"
"2010-04-18 23:00","2010","04","18","23:00"," ","11.30","","7.00","","75.00","","36.00","","6.00","","32.20","","101.07","","","","","","Mostly Cloudy"
"2010-04-19 00:00","2010","04","19","00:00"," ","12.00","","6.90","","71.00","","7.00","","4.00","","32.20","","101.05","","","","","","Mostly Cloudy"
"2010-04-19 01:00","2010","04","19","01:00"," ","11.30","","6.80","","74.00","","0.00","","0.00","","32.20","","101.01","","","","","","Mostly Cloudy"
"2010-04-19 02:00","2010","04","19","02:00"," ","10.90","","6.20","","73.00","","0.00","","0.00","","32.20","","100.95","","","","","","Cloudy"
"2010-04-19 03:00","2010","04","19","03:00"," ","10.30","","6.40","","77.00","","1.00","","7.00","","32.20","","100.86","","","","","","Cloudy"
"2010-04-19 04:00","2010","04","19","04:00"," ","10.00","","7.50","","84.00","","33.00","","6.00","","32.20","","100.82","","","","","","Cloudy"
"2010-04-19 05:00","2010","04","19","05:00"," ","9.20","","6.10","","81.00","","36.00","","7.00","","32.20","","100.76","","","","","","Mostly Cloudy"
"2010-04-19 06:00","2010","04","19","06:00"," ","10.40","","5.60","","72.00","","2.00","","4.00","","32.20","","100.72","","","","","","Mostly Cloudy"
"2010-04-19 07:00","2010","04","19","07:00"," ","12.10","","7.50","","73.00","","25.00","","7.00","","48.30","","100.73","","","","","","Mostly Cloudy"
"2010-04-19 08:00","2010","04","19","08:00"," ","12.60","","8.60","","77.00","","36.00","","9.00","","48.30","","100.70","","","","","","Cloudy"
"2010-04-19 09:00","2010","04","19","09:00"," ","14.90","","7.50","","61.00","","29.00","","6.00","","48.30","","100.65","","","","","","Cloudy"
"2010-04-19 10:00","2010","04","19","10:00"," ","14.70","","9.00","","69.00","","27.00","","9.00","","48.30","","100.68","","","","","","Mostly Cloudy"
"2010-04-19 11:00","2010","04","19","11:00"," ","16.30","","9.20","","63.00","","29.00","","19.00","","48.30","","100.65","","","","","","Mostly Cloudy"
"2010-04-19 12:00","2010","04","19","12:00"," ","16.10","","9.40","","64.00","","29.00","","17.00","","48.30","","100.63","","","","","","Mostly Cloudy"
"2010-04-19 13:00","2010","04","19","13:00"," ","17.50","","9.30","","59.00","","29.00","","17.00","","48.30","","100.62","","","","","","Mostly Cloudy"
"2010-04-19 14:00","2010","04","19","14:00"," ","16.50","","7.70","","56.00","","29.00","","13.00","","48.30","","100.63","","","","","","Cloudy"
"2010-04-19 15:00","2010","04","19","15:00"," ","18.20","","9.30","","56.00","","35.00","","6.00","","48.30","","100.60","","","","","","Mostly Cloudy"
"2010-04-19 16:00","2010","04","19","16:00"," ","20.30","","7.90","","45.00","","0.00","","0.00","","32.20","","100.60","","","","","","Cloudy"
"2010-04-19 17:00","2010","04","19","17:00"," ","18.90","","9.10","","53.00","","11.00","","15.00","","32.20","","100.58","","","","","","Cloudy"
"2010-04-19 18:00","2010","04","19","18:00"," ","19.00","","8.10","","49.00","","23.00","","6.00","","32.20","","100.59","","","","","","Cloudy"
"2010-04-19 19:00","2010","04","19","19:00"," ","15.90","","9.50","","66.00","","21.00","","7.00","","32.20","","100.63","","","","","","Cloudy"
"2010-04-19 20:00","2010","04","19","20:00"," ","13.70","","9.60","","76.00","","27.00","","11.00","","32.20","","100.69","","","","","","Cloudy"
"2010-04-19 21:00","2010","04","19","21:00"," ","13.00","","9.30","","78.00","","29.00","","22.00","","32.20","","100.76","","","","","","Cloudy"
"2010-04-19 22:00","2010","04","19","22:00"," ","13.00","","8.70","","75.00","","29.00","","22.00","","32.20","","100.81","","","","","","Cloudy"
"2010-04-19 23:00","2010","04","19","23:00"," ","12.80","","8.70","","76.00","","29.00","","28.00","","24.10","","100.79","","","","","","Cloudy"
"2010-04-20 00:00","2010","04","20","00:00"," ","12.00","","9.00","","82.00","","29.00","","28.00","","24.10","","100.79","","","","","","Cloudy"
"2010-04-20 01:00","2010","04","20","01:00"," ","11.70","","9.40","","86.00","","27.00","","17.00","","24.10","","100.87","","","","","","Cloudy"
"2010-04-20 02:00","2010","04","20","02:00"," ","10.90","","9.40","","90.00","","30.00","","20.00","","16.10","","100.84","","","","","","Rain"
"2010-04-20 03:00","2010","04","20","03:00"," ","10.70","","9.70","","94.00","","30.00","","9.00","","19.30","","100.89","","","","","","Rain"
"2010-04-20 04:00","2010","04","20","04:00"," ","10.80","","9.70","","93.00","","28.00","","7.00","","19.30","","100.89","","","","","","Rain"
"2010-04-20 05:00","2010","04","20","05:00"," ","10.70","","9.80","","94.00","","27.00","","7.00","","19.30","","100.85","","","","","","Rain"
"2010-04-20 06:00","2010","04","20","06:00"," ","10.60","","9.90","","95.00","","26.00","","13.00","","12.90","","100.89","","","","","","Rain"
"2010-04-20 07:00","2010","04","20","07:00"," ","10.40","","10.00","","97.00","","29.00","","15.00","","19.30","","100.84","","","","","","Rain"
"2010-04-20 08:00","2010","04","20","08:00"," ","10.60","","10.30","","98.00","","29.00","","24.00","","12.90","","100.84","","","","","","Rain"
"2010-04-20 09:00","2010","04","20","09:00"," ","11.10","","10.70","","97.00","","29.00","","24.00","","19.30","","100.83","","","","","","Cloudy"
"2010-04-20 10:00","2010","04","20","10:00"," ","11.10","","10.50","","96.00","","29.00","","24.00","","24.10","","100.84","","","","","","Cloudy"
"2010-04-20 11:00","2010","04","20","11:00"," ","11.40","","10.50","","94.00","","30.00","","24.00","","24.10","","100.83","","","","","","Cloudy"
"2010-04-20 12:00","2010","04","20","12:00"," ","10.60","","9.70","","94.00","","30.00","","24.00","","24.10","","100.86","","","","","","Cloudy"
"2010-04-20 13:00","2010","04","20","13:00"," ","10.80","","10.20","","96.00","","30.00","","20.00","","19.30","","100.90","","","","","","Rain"
"2010-04-20 14:00","2010","04","20","14:00"," ","11.30","","10.40","","94.00","","31.00","","19.00","","19.30","","100.94","","","","","","Rain"
"2010-04-20 15:00","2010","04","20","15:00"," ","11.50","","10.50","","94.00","","29.00","","15.00","","24.10","","100.95","","","","","","Cloudy"
"2010-04-20 16:00","2010","04","20","16:00"," ","11.30","","10.40","","94.00","","29.00","","20.00","","24.10","","100.99","","","","","","Rain Showers"
"2010-04-20 17:00","2010","04","20","17:00"," ","10.90","","9.80","","93.00","","29.00","","22.00","","24.10","","101.00","","","","","","Cloudy"
"2010-04-20 18:00","2010","04","20","18:00"," ","10.60","","9.80","","95.00","","28.00","","28.00","","24.10","","101.00","","","","","","Cloudy"
"2010-04-20 19:00","2010","04","20","19:00"," ","10.40","","8.90","","90.00","","29.00","","30.00","","24.10","","100.98","","","","","","Cloudy"
"2010-04-20 20:00","2010","04","20","20:00"," ","10.20","","8.40","","89.00","","29.00","","37.00","","24.10","","101.00","","","","","","Cloudy"
"2010-04-20 21:00","2010","04","20","21:00"," ","10.20","","8.50","","89.00","","30.00","","32.00","","24.10","","100.99","","","","","","Cloudy"
"2010-04-20 22:00","2010","04","20","22:00"," ","9.80","","7.10","","83.00","","30.00","","35.00","","24.10","","100.99","","","","","","Cloudy"
"2010-04-20 23:00","2010","04","20","23:00"," ","9.40","","6.20","","80.00","","29.00","","43.00","","24.10","","100.99","","","","","","Mostly Cloudy"
"2010-04-21 00:00","2010","04","21","00:00"," ","9.00","","6.60","","85.00","","29.00","","39.00","","24.10","","101.01","","","","","","Mostly Cloudy"
"2010-04-21 01:00","2010","04","21","01:00"," ","9.10","","6.20","","82.00","","29.00","","46.00","","24.10","","101.01","","","","","","Cloudy"
"2010-04-21 02:00","2010","04","21","02:00"," ","9.00","","4.90","","75.00","","29.00","","39.00","","24.10","","101.03","","","","","","Cloudy"
"2010-04-21 03:00","2010","04","21","03:00"," ","8.80","","5.20","","78.00","","30.00","","41.00","","24.10","","100.98","","","","","","Mostly Cloudy"
"2010-04-21 04:00","2010","04","21","04:00"," ","8.40","","5.50","","82.00","","30.00","","35.00","","24.10","","100.98","","","","","","Cloudy"
"2010-04-21 05:00","2010","04","21","05:00"," ","8.30","","5.10","","80.00","","30.00","","43.00","","24.10","","101.04","","","","","","Cloudy"
"2010-04-21 06:00","2010","04","21","06:00"," ","8.20","","5.60","","84.00","","28.00","","35.00","","24.10","","101.11","","","","","","Rain"
"2010-04-21 07:00","2010","04","21","07:00"," ","8.40","","5.00","","79.00","","29.00","","37.00","","24.10","","101.15","","","","","","Cloudy"
"2010-04-21 08:00","2010","04","21","08:00"," ","9.00","","5.10","","77.00","","29.00","","37.00","","24.10","","101.20","","","","","","Cloudy"
"2010-04-21 09:00","2010","04","21","09:00"," ","8.90","","5.00","","77.00","","28.00","","28.00","","24.10","","101.23","","","","","","Cloudy"
"2010-04-21 10:00","2010","04","21","10:00"," ","9.10","","4.90","","75.00","","27.00","","30.00","","24.10","","101.26","","","","","","Cloudy"
"2010-04-21 11:00","2010","04","21","11:00"," ","9.50","","4.40","","70.00","","27.00","","32.00","","24.10","","101.34","","","","","","Cloudy"
"2010-04-21 12:00","2010","04","21","12:00"," ","10.10","","4.30","","67.00","","27.00","","32.00","","24.10","","101.40","","","","","","Mostly Cloudy"
"2010-04-21 13:00","2010","04","21","13:00"," ","11.50","","5.70","","68.00","","29.00","","20.00","","24.10","","101.43","","","","","","Mainly Clear"
"2010-04-21 14:00","2010","04","21","14:00"," ","10.80","","4.10","","63.00","","25.00","","13.00","","24.10","","101.46","","","","","","Mostly Cloudy"
"2010-04-21 15:00","2010","04","21","15:00"," ","11.70","","4.40","","61.00","","26.00","","4.00","","24.10","","101.44","","","","","","Mostly Cloudy"
"2010-04-21 16:00","2010","04","21","16:00"," ","10.90","","5.10","","67.00","","18.00","","15.00","","24.10","","101.48","","","","","","Mainly Clear"
"2010-04-21 17:00","2010","04","21","17:00"," ","11.30","","3.90","","60.00","","16.00","","19.00","","24.10","","101.50","","","","","","Mainly Clear"
"2010-04-21 18:00","2010","04","21","18:00"," ","11.40","","4.00","","60.00","","16.00","","9.00","","32.20","","101.48","","","","","","Mainly Clear"
"2010-04-21 19:00","2010","04","21","19:00"," ","10.30","","3.50","","63.00","","14.00","","9.00","","32.20","","101.50","","","","","","Mainly Clear"
"2010-04-21 20:00","2010","04","21","20:00"," ","8.00","","4.40","","78.00","","10.00","","11.00","","32.20","","101.53","","","","","","Mainly Clear"
"2010-04-21 21:00","2010","04","21","21:00"," ","7.70","","5.10","","84.00","","11.00","","7.00","","32.20","","101.55","","","","","","Mainly Clear"
"2010-04-21 22:00","2010","04","21","22:00"," ","7.00","","5.40","","90.00","","11.00","","6.00","","24.10","","101.56","","","","","","Mainly Clear"
"2010-04-21 23:00","2010","04","21","23:00"," ","6.80","","5.20","","90.00","","8.00","","6.00","","24.10","","101.55","","","","","","Mainly Clear"
"2010-04-22 00:00","2010","04","22","00:00"," ","6.30","","5.10","","92.00","","8.00","","9.00","","24.10","","101.57","","","","","","Mainly Clear"
"2010-04-22 01:00","2010","04","22","01:00"," ","6.20","","5.20","","93.00","","10.00","","4.00","","24.10","","101.61","","","","","","Mainly Clear"
"2010-04-22 02:00","2010","04","22","02:00"," ","6.70","","6.00","","95.00","","9.00","","4.00","","24.10","","101.66","","","","","","Mainly Clear"
"2010-04-22 03:00","2010","04","22","03:00"," ","6.40","","5.90","","97.00","","10.00","","7.00","","24.10","","101.66","","","","","","Mostly Cloudy"
"2010-04-22 04:00","2010","04","22","04:00"," ","6.70","","6.00","","95.00","","9.00","","7.00","","24.10","","101.70","","","","","","Cloudy"
"2010-04-22 05:00","2010","04","22","05:00"," ","7.10","","6.20","","94.00","","7.00","","4.00","","24.10","","101.73","","","","","","Mostly Cloudy"
"2010-04-22 06:00","2010","04","22","06:00"," ","7.70","","6.50","","92.00","","0.00","","0.00","","24.10","","101.75","","","","","","Mostly Cloudy"
"2010-04-22 07:00","2010","04","22","07:00"," ","8.50","","6.90","","90.00","","28.00","","13.00","","24.10","","101.80","","","","","","Mainly Clear"
"2010-04-22 08:00","2010","04","22","08:00"," ","9.50","","6.20","","80.00","","29.00","","26.00","","24.10","","101.80","","","","","","Mainly Clear"
"2010-04-22 09:00","2010","04","22","09:00"," ","10.60","","6.10","","74.00","","29.00","","33.00","","24.10","","101.85","","","","","","Mainly Clear"
"2010-04-22 10:00","2010","04","22","10:00"," ","10.90","","6.00","","72.00","","29.00","","37.00","","32.20","","101.82","","","","","","Mainly Clear"
"2010-04-22 11:00","2010","04","22","11:00"," ","10.70","","4.90","","67.00","","27.00","","35.00","","32.20","","101.80","","","","","","Mainly Clear"
"2010-04-22 12:00","2010","04","22","12:00"," ","11.40","","5.60","","67.00","","28.00","","32.00","","48.30","","101.79","","","","","","Mainly Clear"
"2010-04-22 13:00","2010","04","22","13:00"," ","12.30","","5.80","","64.00","","29.00","","30.00","","48.30","","101.78","","","","","","Mainly Clear"
"2010-04-22 14:00","2010","04","22","14:00"," ","12.60","","5.90","","64.00","","25.00","","19.00","","48.30","","101.75","","","","","","Mainly Clear"
"2010-04-22 15:00","2010","04","22","15:00"," ","13.10","","5.20","","59.00","","25.00","","28.00","","48.30","","101.70","","","","","","Mainly Clear"
"2010-04-22 16:00","2010","04","22","16:00"," ","13.20","","4.90","","57.00","","25.00","","30.00","","48.30","","101.66","","","","","","Mainly Clear"
"2010-04-22 17:00","2010","04","22","17:00"," ","13.20","","3.30","","51.00","","25.00","","30.00","","48.30","","101.65","","","","","","Mainly Clear"
"2010-04-22 18:00","2010","04","22","18:00"," ","12.00","","4.20","","59.00","","26.00","","30.00","","48.30","","101.66","","","","","","Mainly Clear"
"2010-04-22 19:00","2010","04","22","19:00"," ","11.70","","5.20","","64.00","","26.00","","22.00","","48.30","","101.67","","","","","","Mainly Clear"
"2010-04-22 20:00","2010","04","22","20:00"," ","11.30","","4.00","","61.00","","25.00","","24.00","","48.30","","101.73","","","","","","Mainly Clear"
"2010-04-22 21:00","2010","04","22","21:00"," ","11.40","","4.30","","62.00","","25.00","","24.00","","32.20","","101.78","","","","","","Mostly Cloudy"
"2010-04-22 22:00","2010","04","22","22:00"," ","10.30","","4.70","","68.00","","26.00","","24.00","","32.20","","101.79","","","","","","Mainly Clear"
"2010-04-22 23:00","2010","04","22","23:00"," ","8.40","","4.70","","78.00","","32.00","","11.00","","32.20","","101.83","","","","","","Mainly Clear"
"2010-04-23 00:00","2010","04","23","00:00"," ","8.00","","4.10","","76.00","","9.00","","13.00","","32.20","","101.82","","","","","","Mainly Clear"
"2010-04-23 01:00","2010","04","23","01:00"," ","5.70","","3.30","","85.00","","9.00","","13.00","","32.20","","101.83","","","","","","Mainly Clear"
"2010-04-23 02:00","2010","04","23","02:00"," ","6.30","","3.90","","85.00","","9.00","","17.00","","32.20","","101.82","","","","","","Mainly Clear"
"2010-04-23 03:00","2010","04","23","03:00"," ","5.90","","3.70","","86.00","","8.00","","17.00","","32.20","","101.82","","","","","","Mainly Clear"
"2010-04-23 04:00","2010","04","23","04:00"," ","5.80","","3.90","","88.00","","9.00","","19.00","","32.20","","101.81","","","","","","Mainly Clear"
"2010-04-23 05:00","2010","04","23","05:00"," ","6.00","","4.40","","89.00","","9.00","","20.00","","24.10","","101.83","","","","","","Mainly Clear"
"2010-04-23 06:00","2010","04","23","06:00"," ","7.00","","4.90","","86.00","","9.00","","22.00","","24.10","","101.86","","","","","","Mostly Cloudy"
"2010-04-23 07:00","2010","04","23","07:00"," ","7.70","","4.80","","82.00","","10.00","","22.00","","32.20","","101.90","","","","","","Cloudy"
"2010-04-23 08:00","2010","04","23","08:00"," ","8.70","","5.50","","80.00","","11.00","","24.00","","32.20","","101.88","","","","","","Cloudy"
"2010-04-23 09:00","2010","04","23","09:00"," ","9.20","","5.40","","77.00","","12.00","","17.00","","32.20","","101.85","","","","","","Cloudy"
"2010-04-23 10:00","2010","04","23","10:00"," ","9.80","","5.50","","75.00","","12.00","","17.00","","32.20","","101.80","","","","","","Cloudy"
"2010-04-23 11:00","2010","04","23","11:00"," ","10.80","","4.60","","65.00","","13.00","","17.00","","32.20","","101.75","","","","","","Cloudy"
"2010-04-23 12:00","2010","04","23","12:00"," ","12.00","","3.80","","57.00","","11.00","","24.00","","32.20","","101.66","","","","","","Cloudy"
"2010-04-23 13:00","2010","04","23","13:00"," ","11.90","","4.10","","59.00","","17.00","","6.00","","32.20","","101.61","","","","","","Cloudy"
"2010-04-23 14:00","2010","04","23","14:00"," ","10.70","","5.20","","69.00","","0.00","","0.00","","24.10","","101.56","","","","","","Cloudy"
"2010-04-23 15:00","2010","04","23","15:00"," ","9.80","","4.10","","68.00","","20.00","","22.00","","16.10","","101.56","","","","","","Rain Showers"
"2010-04-23 16:00","2010","04","23","16:00"," ","9.10","","6.00","","81.00","","25.00","","4.00","","24.10","","101.55","","","","","","Rain Showers"
"2010-04-23 17:00","2010","04","23","17:00"," ","8.80","","6.80","","87.00","","36.00","","9.00","","19.30","","101.52","","","","","","Rain"
"2010-04-23 18:00","2010","04","23","18:00"," ","8.00","","6.80","","92.00","","9.00","","11.00","","19.30","","101.53","","","","","","Rain"
"2010-04-23 19:00","2010","04","23","19:00"," ","7.60","","6.80","","95.00","","8.00","","13.00","","19.30","","101.50","","","","","","Rain"
"2010-04-23 20:00","2010","04","23","20:00"," ","7.30","","6.30","","93.00","","9.00","","17.00","","19.30","","101.49","","","","","","Rain"
"2010-04-23 21:00","2010","04","23","21:00"," ","7.40","","6.80","","96.00","","9.00","","17.00","","19.30","","101.50","","","","","","Rain Showers"
"2010-04-23 22:00","2010","04","23","22:00"," ","7.80","","7.20","","96.00","","13.00","","9.00","","19.30","","101.50","","","","","","Mostly Cloudy"
"2010-04-23 23:00","2010","04","23","23:00"," ","7.50","","6.70","","95.00","","19.00","","11.00","","24.10","","101.49","","","","","","Mainly Clear"
"2010-04-24 00:00","2010","04","24","00:00"," ","7.70","","3.60","","75.00","","24.00","","13.00","","24.10","","101.52","","","","","","Mainly Clear"
"2010-04-24 01:00","2010","04","24","01:00"," ","5.00","","4.10","","94.00","","9.00","","13.00","","24.10","","101.56","","","","","","Mainly Clear"
"2010-04-24 02:00","2010","04","24","02:00"," ","6.10","","4.20","","88.00","","0.00","","0.00","","24.10","","101.59","","","","","","Mostly Cloudy"
"2010-04-24 03:00","2010","04","24","03:00"," ","5.90","","5.00","","94.00","","9.00","","11.00","","24.10","","101.66","","","","","","Cloudy"
"2010-04-24 04:00","2010","04","24","04:00"," ","6.40","","4.70","","89.00","","9.00","","9.00","","19.30","","101.67","","","","","","Rain Showers"
"2010-04-24 05:00","2010","04","24","05:00"," ","6.20","","5.30","","94.00","","8.00","","11.00","","19.30","","101.72","","","","","","Rain Showers"
"2010-04-24 06:00","2010","04","24","06:00"," ","7.00","","5.20","","88.00","","16.00","","7.00","","24.10","","101.76","","","","","","Rain Showers"
"2010-04-24 07:00","2010","04","24","07:00"," ","7.70","","4.80","","82.00","","18.00","","22.00","","24.10","","101.81","","","","","","Rain Showers"
"2010-04-24 08:00","2010","04","24","08:00"," ","8.00","","5.00","","81.00","","18.00","","26.00","","24.10","","101.88","","","","","","Cloudy"
"2010-04-24 09:00","2010","04","24","09:00"," ","8.00","","5.50","","84.00","","16.00","","17.00","","19.30","","101.92","","","","","","Rain Showers"
"2010-04-24 10:00","2010","04","24","10:00"," ","8.60","","4.90","","78.00","","17.00","","26.00","","32.20","","101.98","","","","","","Rain Showers"
"2010-04-24 11:00","2010","04","24","11:00"," ","10.30","","5.40","","72.00","","18.00","","26.00","","32.20","","102.01","","","","","","Cloudy"
"2010-04-24 12:00","2010","04","24","12:00"," ","10.40","","5.10","","70.00","","19.00","","26.00","","32.20","","102.08","","","","","","Cloudy"
"2010-04-24 13:00","2010","04","24","13:00"," ","10.80","","6.10","","73.00","","20.00","","26.00","","32.20","","102.10","","","","","","Mostly Cloudy"
"2010-04-24 14:00","2010","04","24","14:00"," ","11.30","","5.40","","67.00","","17.00","","20.00","","32.20","","102.13","","","","","","Cloudy"
"2010-04-24 15:00","2010","04","24","15:00"," ","11.10","","4.10","","62.00","","19.00","","19.00","","32.20","","102.17","","","","","","Cloudy"
"2010-04-24 16:00","2010","04","24","16:00"," ","11.00","","4.00","","62.00","","19.00","","22.00","","32.20","","102.19","","","","","","Cloudy"
"2010-04-24 17:00","2010","04","24","17:00"," ","11.10","","4.20","","62.00","","19.00","","15.00","","32.20","","102.22","","","","","","Mostly Cloudy"
"2010-04-24 18:00","2010","04","24","18:00"," ","10.90","","4.20","","63.00","","22.00","","19.00","","32.20","","102.24","","","","","","Mostly Cloudy"
"2010-04-24 19:00","2010","04","24","19:00"," ","10.20","","4.10","","66.00","","22.00","","19.00","","32.20","","102.29","","","","","","Mostly Cloudy"
"2010-04-24 20:00","2010","04","24","20:00"," ","9.20","","4.20","","71.00","","19.00","","13.00","","32.20","","102.36","","","","","","Mainly Clear"
"2010-04-24 21:00","2010","04","24","21:00"," ","8.60","","4.20","","74.00","","0.00","","0.00","","32.20","","102.43","","","","","","Mainly Clear"
"2010-04-24 22:00","2010","04","24","22:00"," ","8.00","","3.90","","75.00","","13.00","","4.00","","32.20","","102.50","","","","","","Mainly Clear"
"2010-04-24 23:00","2010","04","24","23:00"," ","6.60","","4.80","","88.00","","9.00","","9.00","","32.20","","102.53","","","","","","Mostly Cloudy"
"2010-04-25 00:00","2010","04","25","00:00"," ","5.40","","4.40","","93.00","","9.00","","13.00","","32.20","","102.56","","","","","","Mainly Clear"
"2010-04-25 01:00","2010","04","25","01:00"," ","5.60","","4.50","","93.00","","9.00","","15.00","","32.20","","102.60","","","","","","Mostly Cloudy"
"2010-04-25 02:00","2010","04","25","02:00"," ","5.90","","4.50","","91.00","","9.00","","11.00","","32.20","","102.65","","","","","","Mostly Cloudy"
"2010-04-25 03:00","2010","04","25","03:00"," ","6.60","","5.10","","90.00","","8.00","","11.00","","32.20","","102.66","","","","","","Mostly Cloudy"
"2010-04-25 04:00","2010","04","25","04:00"," ","6.60","","5.00","","90.00","","9.00","","15.00","","32.20","","102.69","","","","","","Mostly Cloudy"
"2010-04-25 05:00","2010","04","25","05:00"," ","6.50","","4.80","","89.00","","9.00","","17.00","","32.20","","102.72","","","","","","Mostly Cloudy"
"2010-04-25 06:00","2010","04","25","06:00"," ","6.60","","5.10","","90.00","","8.00","","19.00","","32.20","","102.76","","","","","","Mostly Cloudy"
"2010-04-25 07:00","2010","04","25","07:00"," ","7.80","","6.10","","89.00","","10.00","","19.00","","32.20","","102.79","","","","","","Mostly Cloudy"
"2010-04-25 08:00","2010","04","25","08:00"," ","8.60","","6.50","","87.00","","9.00","","15.00","","32.20","","102.81","","","","","","Mostly Cloudy"
"2010-04-25 09:00","2010","04","25","09:00"," ","7.50","","6.60","","94.00","","9.00","","13.00","","16.10","","102.80","","","","","","Rain Showers"
"2010-04-25 10:00","2010","04","25","10:00"," ","7.70","","6.80","","94.00","","35.00","","7.00","","19.30","","102.78","","","","","","Rain Showers"
"2010-04-25 11:00","2010","04","25","11:00"," ","9.10","","6.20","","82.00","","12.00","","7.00","","24.10","","102.74","","","","","","Mostly Cloudy"
"2010-04-25 12:00","2010","04","25","12:00"," ","10.90","","7.10","","77.00","","9.00","","6.00","","24.10","","102.66","","","","","","Mostly Cloudy"
"2010-04-25 13:00","2010","04","25","13:00"," ","11.00","","6.90","","76.00","","27.00","","13.00","","32.20","","102.56","","","","","","Mostly Cloudy"
"2010-04-25 14:00","2010","04","25","14:00"," ","11.10","","5.50","","68.00","","30.00","","7.00","","32.20","","102.44","","","","","","Cloudy"
"2010-04-25 15:00","2010","04","25","15:00"," ","11.60","","6.60","","71.00","","29.00","","13.00","","32.20","","102.33","","","","","","Cloudy"
"2010-04-25 16:00","2010","04","25","16:00"," ","11.70","","6.60","","71.00","","30.00","","15.00","","32.20","","102.26","","","","","","Mostly Cloudy"
"2010-04-25 17:00","2010","04","25","17:00"," ","11.70","","5.90","","68.00","","32.00","","11.00","","32.20","","102.14","","","","","","Mostly Cloudy"
"2010-04-25 18:00","2010","04","25","18:00"," ","11.00","","7.00","","76.00","","31.00","","11.00","","48.30","","102.06","","","","","","Mostly Cloudy"
"2010-04-25 19:00","2010","04","25","19:00"," ","10.20","","6.90","","80.00","","29.00","","11.00","","48.30","","101.99","","","","","","Mostly Cloudy"
"2010-04-25 20:00","2010","04","25","20:00"," ","10.10","","7.00","","81.00","","29.00","","7.00","","48.30","","101.95","","","","","","Mostly Cloudy"
"2010-04-25 21:00","2010","04","25","21:00"," ","10.60","","5.00","","68.00","","7.00","","11.00","","48.30","","101.89","","","","","","Mostly Cloudy"
"2010-04-25 22:00","2010","04","25","22:00"," ","10.50","","4.40","","66.00","","8.00","","13.00","","48.30","","101.80","","","","","","Mostly Cloudy"
"2010-04-25 23:00","2010","04","25","23:00"," ","10.30","","3.60","","63.00","","6.00","","17.00","","32.20","","101.67","","","","","","Mostly Cloudy"
"2010-04-26 00:00","2010","04","26","00:00"," ","9.60","","3.90","","68.00","","8.00","","7.00","","32.20","","101.58","","","","","","Mostly Cloudy"
"2010-04-26 01:00","2010","04","26","01:00"," ","8.70","","4.40","","74.00","","12.00","","7.00","","32.20","","101.49","","","","","","Mostly Cloudy"
"2010-04-26 02:00","2010","04","26","02:00"," ","8.50","","3.90","","73.00","","10.00","","4.00","","32.20","","101.39","","","","","","Mostly Cloudy"
"2010-04-26 03:00","2010","04","26","03:00"," ","8.50","","3.70","","72.00","","10.00","","17.00","","32.20","","101.29","","","","","","Mostly Cloudy"
"2010-04-26 04:00","2010","04","26","04:00"," ","9.00","","3.70","","69.00","","0.00","","0.00","","32.20","","101.19","","","","","","Mostly Cloudy"
"2010-04-26 05:00","2010","04","26","05:00"," ","8.60","","3.10","","68.00","","10.00","","9.00","","32.20","","101.05","","","","","","Mostly Cloudy"
"2010-04-26 06:00","2010","04","26","06:00"," ","9.10","","2.90","","65.00","","11.00","","9.00","","32.20","","101.00","","","","","","Cloudy"
"2010-04-26 07:00","2010","04","26","07:00"," ","10.40","","3.60","","63.00","","5.00","","7.00","","32.20","","100.87","","","","","","Cloudy"
"2010-04-26 08:00","2010","04","26","08:00"," ","12.00","","3.20","","55.00","","11.00","","15.00","","32.20","","100.81","","","","","","Cloudy"
"2010-04-26 09:00","2010","04","26","09:00"," ","13.00","","3.40","","52.00","","8.00","","19.00","","32.20","","100.74","","","","","","Cloudy"
"2010-04-26 10:00","2010","04","26","10:00"," ","14.50","","4.70","","52.00","","9.00","","19.00","","32.20","","100.53","","","","","","Cloudy"
"2010-04-26 11:00","2010","04","26","11:00"," ","16.20","","4.20","","45.00","","16.00","","9.00","","32.20","","100.40","","","","","","Cloudy"
"2010-04-26 12:00","2010","04","26","12:00"," ","13.80","","8.80","","72.00","","32.00","","19.00","","32.20","","100.33","","","","","","Cloudy"
"2010-04-26 13:00","2010","04","26","13:00"," ","17.70","","3.00","","37.00","","15.00","","32.00","","32.20","","100.26","","","","","","Cloudy"
"2010-04-26 14:00","2010","04","26","14:00"," ","16.90","","4.30","","43.00","","15.00","","39.00","","24.10","","100.21","","","","","","Rain Showers"
"2010-04-26 15:00","2010","04","26","15:00"," ","16.20","","4.90","","47.00","","12.00","","32.00","","19.30","","100.11","","","","","","Rain Showers"
"2010-04-26 16:00","2010","04","26","16:00"," ","15.60","","5.60","","51.00","","14.00","","57.00","","19.30","","100.03","","","","","","Rain Showers"
"2010-04-26 17:00","2010","04","26","17:00"," ","12.00","","8.40","","79.00","","12.00","","28.00","","16.10","","100.08","","","","","","Rain Showers"
"2010-04-26 18:00","2010","04","26","18:00"," ","10.60","","9.30","","92.00","","9.00","","30.00","","16.10","","99.99","","","","","","Rain Showers"
"2010-04-26 19:00","2010","04","26","19:00"," ","10.70","","9.50","","92.00","","11.00","","24.00","","19.30","","99.94","","","","","","Rain Showers"
"2010-04-26 20:00","2010","04","26","20:00"," ","10.60","","9.40","","92.00","","8.00","","26.00","","19.30","","99.86","","","","","","Rain"
"2010-04-26 21:00","2010","04","26","21:00"," ","10.60","","9.10","","90.00","","9.00","","28.00","","24.10","","99.71","","","","","","Rain"
"2010-04-26 22:00","2010","04","26","22:00"," ","10.30","","9.20","","93.00","","8.00","","20.00","","24.10","","99.62","","","","","","Rain"
"2010-04-26 23:00","2010","04","26","23:00"," ","10.00","","9.30","","95.00","","9.00","","20.00","","24.10","","99.49","","","","","","Rain"
"2010-04-27 00:00","2010","04","27","00:00"," ","9.60","","9.20","","97.00","","12.00","","26.00","","24.10","","99.39","","","","","","Rain"
"2010-04-27 01:00","2010","04","27","01:00"," ","9.40","","8.70","","95.00","","8.00","","28.00","","24.10","","99.22","","","","","","Rain"
"2010-04-27 02:00","2010","04","27","02:00"," ","9.40","","8.90","","97.00","","9.00","","26.00","","24.10","","99.13","","","","","","Rain"
"2010-04-27 03:00","2010","04","27","03:00"," ","9.50","","9.00","","97.00","","11.00","","33.00","","24.10","","99.15","","","","","","Rain"
"2010-04-27 04:00","2010","04","27","04:00"," ","9.70","","8.40","","92.00","","20.00","","11.00","","24.10","","99.26","","","","","","Rain"
"2010-04-27 05:00","2010","04","27","05:00"," ","9.40","","8.50","","94.00","","11.00","","7.00","","32.20","","99.36","","","","","","Cloudy"
"2010-04-27 06:00","2010","04","27","06:00"," ","9.20","","8.40","","95.00","","11.00","","15.00","","32.20","","99.43","","","","","","Mostly Cloudy"
"2010-04-27 07:00","2010","04","27","07:00"," ","9.80","","8.60","","92.00","","11.00","","17.00","","24.10","","99.52","","","","","","Mostly Cloudy"
"2010-04-27 08:00","2010","04","27","08:00"," ","9.90","","7.90","","87.00","","16.00","","17.00","","24.10","","99.55","","","","","","Rain Showers"
"2010-04-27 09:00","2010","04","27","09:00"," ","11.30","","8.20","","81.00","","12.00","","22.00","","32.20","","99.52","","","","","","Mostly Cloudy"
"2010-04-27 10:00","2010","04","27","10:00"," ","12.10","","7.50","","73.00","","15.00","","15.00","","32.20","","99.50","","","","","","Mostly Cloudy"
"2010-04-27 11:00","2010","04","27","11:00"," ","12.40","","7.30","","71.00","","16.00","","9.00","","32.20","","99.48","","","","","","Mostly Cloudy"
"2010-04-27 12:00","2010","04","27","12:00"," ","13.60","","7.00","","64.00","","14.00","","11.00","","32.20","","99.44","","","","","","Mostly Cloudy"
"2010-04-27 13:00","2010","04","27","13:00"," ","14.60","","7.40","","62.00","","18.00","","15.00","","32.20","","99.44","","","","","","Mostly Cloudy"
"2010-04-27 14:00","2010","04","27","14:00"," ","13.90","","7.80","","67.00","","24.00","","22.00","","32.20","","99.49","","","","","","Mainly Clear"
"2010-04-27 15:00","2010","04","27","15:00"," ","13.90","","7.80","","67.00","","24.00","","15.00","","32.20","","99.51","","","","","","Mostly Cloudy"
"2010-04-27 16:00","2010","04","27","16:00"," ","12.40","","7.70","","73.00","","28.00","","9.00","","32.20","","99.55","","","","","","Mostly Cloudy"
"2010-04-27 17:00","2010","04","27","17:00"," ","13.50","","5.80","","60.00","","24.00","","15.00","","32.20","","99.60","","","","","","Mostly Cloudy"
"2010-04-27 18:00","2010","04","27","18:00"," ","12.60","","5.10","","60.00","","22.00","","17.00","","32.20","","99.65","","","","","","Mostly Cloudy"
"2010-04-27 19:00","2010","04","27","19:00"," ","11.40","","4.80","","64.00","","20.00","","17.00","","32.20","","99.70","","","","","","Mainly Clear"
"2010-04-27 20:00","2010","04","27","20:00"," ","10.60","","4.10","","64.00","","22.00","","28.00","","32.20","","99.74","","","","","","Mainly Clear"
"2010-04-27 21:00","2010","04","27","21:00"," ","10.00","","4.70","","70.00","","21.00","","17.00","","32.20","","99.79","","","","","","Mainly Clear"
"2010-04-27 22:00","2010","04","27","22:00"," ","10.00","","4.70","","70.00","","23.00","","15.00","","32.20","","99.83","","","","","","Mainly Clear"
"2010-04-27 23:00","2010","04","27","23:00"," ","8.40","","6.40","","87.00","","14.00","","4.00","","24.10","","99.89","","","","","","Rain Showers"
"2010-04-28 00:00","2010","04","28","00:00"," ","7.10","","5.00","","86.00","","12.00","","6.00","","32.20","","99.96","","","","","","Mainly Clear"
"2010-04-28 01:00","2010","04","28","01:00"," ","8.50","","4.70","","77.00","","18.00","","7.00","","32.20","","100.02","","","","","","Mainly Clear"
"2010-04-28 02:00","2010","04","28","02:00"," ","7.40","","5.50","","88.00","","8.00","","7.00","","32.20","","100.06","","","","","","Mostly Cloudy"
"2010-04-28 03:00","2010","04","28","03:00"," ","7.30","","6.10","","92.00","","10.00","","13.00","","32.20","","100.11","","","","","","Mostly Cloudy"
"2010-04-28 04:00","2010","04","28","04:00"," ","7.70","","6.10","","90.00","","11.00","","7.00","","32.20","","100.16","","","","","","Mostly Cloudy"
"2010-04-28 05:00","2010","04","28","05:00"," ","7.40","","6.20","","92.00","","9.00","","7.00","","32.20","","100.22","","","","","","Mostly Cloudy"
"2010-04-28 06:00","2010","04","28","06:00"," ","7.50","","5.70","","88.00","","11.00","","4.00","","32.20","","100.25","","","","","","Mostly Cloudy"
"2010-04-28 07:00","2010","04","28","07:00"," ","8.40","","6.10","","85.00","","11.00","","11.00","","32.20","","100.31","","","","","","Mostly Cloudy"
"2010-04-28 08:00","2010","04","28","08:00"," ","10.20","","5.60","","73.00","","12.00","","6.00","","32.20","","100.38","","","","","","Mostly Cloudy"
"2010-04-28 09:00","2010","04","28","09:00"," ","10.70","","5.80","","72.00","","24.00","","4.00","","32.20","","100.42","","","","","","Mainly Clear"
"2010-04-28 10:00","2010","04","28","10:00"," ","10.90","","5.80","","71.00","","23.00","","11.00","","32.20","","100.47","","","","","","Mainly Clear"
"2010-04-28 11:00","2010","04","28","11:00"," ","11.30","","6.10","","70.00","","25.00","","11.00","","48.30","","100.54","","","","","","Mainly Clear"
"2010-04-28 12:00","2010","04","28","12:00"," ","11.70","","6.90","","72.00","","25.00","","13.00","","48.30","","100.57","","","","","","Mainly Clear"
"2010-04-28 13:00","2010","04","28","13:00"," ","12.80","","5.30","","60.00","","23.00","","15.00","","48.30","","100.62","","","","","","Mainly Clear"
"2010-04-28 14:00","2010","04","28","14:00"," ","13.10","","5.40","","60.00","","25.00","","13.00","","48.30","","100.66","","","","","","Mainly Clear"
"2010-04-28 15:00","2010","04","28","15:00"," ","12.50","","5.10","","61.00","","23.00","","15.00","","48.30","","100.66","","","","","","Mainly Clear"
"2010-04-28 16:00","2010","04","28","16:00"," ","12.30","","5.10","","61.00","","24.00","","11.00","","48.30","","100.69","","","","","","Mostly Cloudy"
"2010-04-28 17:00","2010","04","28","17:00"," ","12.30","","5.60","","64.00","","27.00","","15.00","","48.30","","100.70","","","","","","Mostly Cloudy"
"2010-04-28 18:00","2010","04","28","18:00"," ","12.00","","6.70","","70.00","","29.00","","15.00","","48.30","","100.72","","","","","","Mostly Cloudy"
"2010-04-28 19:00","2010","04","28","19:00"," ","10.40","","6.00","","74.00","","29.00","","11.00","","48.30","","100.75","","","","","","Mostly Cloudy"
"2010-04-28 20:00","2010","04","28","20:00"," ","10.40","","6.30","","76.00","","26.00","","13.00","","48.30","","100.77","","","","","","Mostly Cloudy"
"2010-04-28 21:00","2010","04","28","21:00"," ","10.80","","4.50","","65.00","","28.00","","15.00","","48.30","","100.82","","","","","","Mostly Cloudy"
"2010-04-28 22:00","2010","04","28","22:00"," ","9.90","","5.60","","75.00","","27.00","","15.00","","32.20","","100.85","","","","","","Mostly Cloudy"
"2010-04-28 23:00","2010","04","28","23:00"," ","9.80","","4.90","","72.00","","28.00","","30.00","","32.20","","100.88","","","","","","Mostly Cloudy"
"2010-04-29 00:00","2010","04","29","00:00"," ","9.50","","5.40","","76.00","","28.00","","30.00","","32.20","","100.92","","","","","","Mainly Clear"
"2010-04-29 01:00","2010","04","29","01:00"," ","9.20","","4.80","","74.00","","29.00","","35.00","","32.20","","100.97","","","","","","Mostly Cloudy"
"2010-04-29 02:00","2010","04","29","02:00"," ","9.10","","5.50","","78.00","","28.00","","32.00","","24.10","","101.02","","","","","","Mainly Clear"
"2010-04-29 03:00","2010","04","29","03:00"," ","9.10","","6.00","","81.00","","28.00","","32.00","","24.10","","101.04","","","","","","Mainly Clear"
"2010-04-29 04:00","2010","04","29","04:00"," ","9.00","","5.90","","81.00","","28.00","","33.00","","24.10","","101.07","","","","","","Mostly Cloudy"
"2010-04-29 05:00","2010","04","29","05:00"," ","8.80","","5.60","","80.00","","28.00","","33.00","","24.10","","101.13","","","","","","Mostly Cloudy"
"2010-04-29 06:00","2010","04","29","06:00"," ","9.30","","5.40","","77.00","","27.00","","37.00","","32.20","","101.19","","","","","","Mostly Cloudy"
"2010-04-29 07:00","2010","04","29","07:00"," ","9.00","","5.60","","79.00","","27.00","","37.00","","32.20","","101.24","","","","","","Mainly Clear"
"2010-04-29 08:00","2010","04","29","08:00"," ","9.20","","5.30","","77.00","","27.00","","35.00","","48.30","","101.32","","","","","","Mostly Cloudy"
"2010-04-29 09:00","2010","04","29","09:00"," ","10.00","","6.00","","76.00","","27.00","","35.00","","48.30","","101.38","","","","","","Mostly Cloudy"
"2010-04-29 10:00","2010","04","29","10:00"," ","10.60","","5.00","","68.00","","27.00","","39.00","","48.30","","101.43","","","","","","Mostly Cloudy"
"2010-04-29 11:00","2010","04","29","11:00"," ","12.00","","6.40","","69.00","","28.00","","33.00","","48.30","","101.49","","","","","","Mostly Cloudy"
"2010-04-29 12:00","2010","04","29","12:00"," ","11.80","","6.60","","70.00","","28.00","","26.00","","48.30","","101.53","","","","","","Mainly Clear"
"2010-04-29 13:00","2010","04","29","13:00"," ","12.80","","7.40","","70.00","","26.00","","24.00","","48.30","","101.57","","","","","","Mostly Cloudy"
"2010-04-29 14:00","2010","04","29","14:00"," ","13.20","","5.90","","61.00","","26.00","","28.00","","48.30","","101.60","","","","","","Mainly Clear"
"2010-04-29 15:00","2010","04","29","15:00"," ","13.20","","6.40","","63.00","","29.00","","26.00","","48.30","","101.63","","","","","","Mainly Clear"
"2010-04-29 16:00","2010","04","29","16:00"," ","13.70","","6.40","","61.00","","29.00","","30.00","","48.30","","101.65","","","","","","Mainly Clear"
"2010-04-29 17:00","2010","04","29","17:00"," ","13.20","","6.90","","66.00","","25.00","","20.00","","48.30","","101.68","","","","","","Mainly Clear"
"2010-04-29 18:00","2010","04","29","18:00"," ","13.00","","7.10","","67.00","","25.00","","24.00","","48.30","","101.70","","","","","","Mainly Clear"
"2010-04-29 19:00","2010","04","29","19:00"," ","12.40","","6.70","","68.00","","25.00","","20.00","","48.30","","101.72","","","","","","Mainly Clear"
"2010-04-29 20:00","2010","04","29","20:00"," ","12.00","","7.50","","74.00","","27.00","","22.00","","32.20","","101.79","","","","","","Mainly Clear"
"2010-04-29 21:00","2010","04","29","21:00"," ","12.60","","6.30","","65.00","","24.00","","20.00","","32.20","","101.83","","","","","","Mostly Cloudy"
"2010-04-29 22:00","2010","04","29","22:00"," ","11.60","","6.40","","70.00","","23.00","","17.00","","24.10","","101.86","","","","","","Mostly Cloudy"
"2010-04-29 23:00","2010","04","29","23:00"," ","11.00","","7.30","","78.00","","24.00","","19.00","","24.10","","101.90","","","","","","Mostly Cloudy"
"2010-04-30 00:00","2010","04","30","00:00"," ","11.00","","7.10","","77.00","","27.00","","28.00","","24.10","","101.97","","","","","","Mostly Cloudy"
"2010-04-30 01:00","2010","04","30","01:00"," ","10.40","","6.70","","78.00","","27.00","","26.00","","24.10","","102.02","","","","","","Mainly Clear"
"2010-04-30 02:00","2010","04","30","02:00"," ","10.20","","5.90","","75.00","","27.00","","32.00","","24.10","","102.01","","","","","","Mainly Clear"
"2010-04-30 03:00","2010","04","30","03:00"," ","9.10","","6.00","","81.00","","28.00","","26.00","","24.10","","102.02","","","","","","Mainly Clear"
"2010-04-30 04:00","2010","04","30","04:00"," ","9.20","","6.00","","80.00","","30.00","","20.00","","24.10","","102.07","","","","","","Mainly Clear"
"2010-04-30 05:00","2010","04","30","05:00"," ","8.80","","6.30","","84.00","","29.00","","20.00","","24.10","","102.09","","","","","","Mostly Cloudy"
"2010-04-30 06:00","2010","04","30","06:00"," ","9.60","","6.70","","82.00","","28.00","","20.00","","48.30","","102.11","","","","","","Mostly Cloudy"
"2010-04-30 07:00","2010","04","30","07:00"," ","10.40","","7.00","","79.00","","29.00","","17.00","","48.30","","102.15","","","","","","Mostly Cloudy"
"2010-04-30 08:00","2010","04","30","08:00"," ","10.60","","6.90","","78.00","","28.00","","17.00","","48.30","","102.18","","","","","","Mostly Cloudy"
"2010-04-30 09:00","2010","04","30","09:00"," ","10.80","","7.50","","80.00","","29.00","","15.00","","48.30","","102.17","","","","","","Mostly Cloudy"
"2010-04-30 10:00","2010","04","30","10:00"," ","11.70","","7.70","","76.00","","22.00","","9.00","","48.30","","102.12","","","","","","Mainly Clear"
"2010-04-30 11:00","2010","04","30","11:00"," ","12.10","","5.10","","62.00","","25.00","","9.00","","48.30","","102.12","","","","","","Mostly Cloudy"
"2010-04-30 12:00","2010","04","30","12:00"," ","13.10","","7.00","","66.00","","22.00","","11.00","","48.30","","102.06","","","","","","Mostly Cloudy"
"2010-04-30 13:00","2010","04","30","13:00"," ","14.20","","6.20","","59.00","","22.00","","11.00","","48.30","","101.97","","","","","","Mostly Cloudy"
"2010-04-30 14:00","2010","04","30","14:00"," ","13.90","","4.30","","52.00","","15.00","","13.00","","48.30","","101.96","","","","","","Cloudy"
"2010-04-30 15:00","2010","04","30","15:00"," ","14.10","","3.70","","49.00","","15.00","","20.00","","48.30","","101.90","","","","","","Cloudy"
"2010-04-30 16:00","2010","04","30","16:00"," ","12.90","","4.60","","57.00","","22.00","","28.00","","48.30","","101.85","","","","","","Cloudy"
"2010-04-30 17:00","2010","04","30","17:00"," ","12.40","","5.20","","61.00","","23.00","","33.00","","32.20","","101.79","","","","","","Cloudy"
"2010-04-30 18:00","2010","04","30","18:00"," ","10.90","","4.80","","66.00","","25.00","","28.00","","24.10","","101.83","","","","","","Rain Showers"
"2010-04-30 19:00","2010","04","30","19:00"," ","9.10","","7.20","","88.00","","32.00","","28.00","","12.90","","101.87","","","","","","Rain Showers"
"2010-04-30 20:00","2010","04","30","20:00"," ","9.10","","5.20","","77.00","","23.00","","26.00","","19.30","","101.86","","","","","","Rain Showers"
"2010-04-30 21:00","2010","04","30","21:00"," ","8.90","","5.10","","77.00","","22.00","","15.00","","19.30","","101.78","","","","","","Cloudy"
"2010-04-30 22:00","2010","04","30","22:00"," ","8.80","","4.80","","76.00","","20.00","","19.00","","24.10","","101.70","","","","","","Cloudy"
"2010-04-30 23:00","2010","04","30","23:00"," ","8.90","","4.30","","73.00","","18.00","","7.00","","19.30","","101.66","","","","","","Cloudy"