"Station Name","VANCOUVER INT'L A"
"Province","BRITISH COLUMBIA"
"Latitude","49.20"
"Longitude","-123.18"
"Elevation","4.30"
"Climate Identifier","1108447"
"WMO Identifier","71892"
"TC Identifier","YVR"
"All times are specified in Local Standard Time (LST). Add 1 hour to adjust for Daylight Saving Time where and when it is observed."

"Legend"
"M","Missing"
"E","Estimated"
"NA","Not Available"
"**","Partner data that is not subject to review by the National Climate Archives"

"Date/Time","Year","Month","Day","Time","Data Quality","Temp (°C)","Temp Flag","Dew Point Temp (°C)","Dew Point Temp Flag","Rel Hum (%)","Rel Hum Flag","Wind Dir (10's deg)","Wind Dir Flag","Wind Spd (km/h)","Wind Spd Flag","Visibility (km)","Visibility Flag","Stn Press (kPa)","Stn Press Flag","Hmdx","Hmdx Flag","Wind Chill","Wind Chill Flag","Weather"
"2011-01-01 00:00","2011","01","01","00:00"," ","-3.60","","-7.00","","77.00","","11.00","","9.00","","48.30","","101.82","","","","-7.00","","Clear"
"2011-01-01 01:00","2011","01","01","01:00"," ","-4.30","","-6.30","","86.00","","0.00","","0.00","","48.30","","101.83","","","","","","Clear"
"2011-01-01 02:00","2011","01","01","02:00"," ","-4.60","","-6.40","","87.00","","0.00","","0.00","","48.30","","101.85","","","","","","Clear"
"2011-01-01 03:00","2011","01","01","03:00"," ","-3.90","","-6.40","","83.00","","0.00","","0.00","","48.30","","101.85","","","","","","Clear"
"2011-01-01 04:00","2011","01","01","04:00"," ","-4.70","","-6.30","","89.00","","0.00","","0.00","","48.30","","101.88","","","","","","Clear"
"2011-01-01 05:00","2011","01","01","05:00"," ","-4.90","","-6.20","","91.00","","0.00","","0.00","","48.30","","101.90","","","","","","Clear"
"2011-01-01 06:00","2011","01","01","06:00"," ","-5.70","","-7.00","","91.00","","0.00","","0.00","","48.30","","101.93","","","","","","Clear"
"2011-01-01 07:00","2011","01","01","07:00"," ","-5.40","","-6.90","","89.00","","10.00","","11.00","","48.30","","101.96","","","","-10.00","","Clear"
"2011-01-01 08:00","2011","01","01","08:00"," ","-5.40","","-6.50","","92.00","","9.00","","11.00","","48.30","","101.99","","","","-10.00","","Mainly Clear"
"2011-01-01 09:00","2011","01","01","09:00"," ","-4.00","","-5.40","","90.00","","11.00","","9.00","","48.30","","102.05","","","","-8.00","","Mainly Clear"
"2011-01-01 10:00","2011","01","01","10:00"," ","-1.40","","-4.10","","82.00","","0.00","","0.00","","48.30","","102.15","","","","","","Mainly Clear"
"2011-01-01 11:00","2011","01","01","11:00"," ","1.00","","-3.90","","70.00","","13.00","","7.00","","48.30","","102.19","","","","","","Mainly Clear"
"2011-01-01 12:00","2011","01","01","12:00"," ","2.00","","-4.90","","60.00","","0.00","","0.00","","48.30","","102.17","","","","","","Mostly Cloudy"
"2011-01-01 13:00","2011","01","01","13:00"," ","2.70","","-5.20","","56.00","","0.00","","0.00","","48.30","","102.13","","","","","","Mostly Cloudy"
"2011-01-01 14:00","2011","01","01","14:00"," ","2.40","","-5.00","","58.00","","0.00","","0.00","","48.30","","102.14","","","","","","Mostly Cloudy"
"2011-01-01 15:00","2011","01","01","15:00"," ","3.10","","-4.80","","56.00","","0.00","","0.00","","48.30","","102.15","","","","","","Mostly Cloudy"
"2011-01-01 16:00","2011","01","01","16:00"," ","1.60","","-5.00","","61.00","","0.00","","0.00","","48.30","","102.14","","","","","","Mostly Cloudy"
"2011-01-01 17:00","2011","01","01","17:00"," ","0.10","","-5.10","","68.00","","0.00","","0.00","","48.30","","102.18","","","","","","Mainly Clear"
"2011-01-01 18:00","2011","01","01","18:00"," ","-0.30","","-4.90","","71.00","","0.00","","0.00","","48.30","","102.17","","","","","","Mostly Cloudy"
"2011-01-01 19:00","2011","01","01","19:00"," ","-0.10","","-4.60","","72.00","","0.00","","0.00","","48.30","","102.19","","","","","","Mostly Cloudy"
"2011-01-01 20:00","2011","01","01","20:00"," ","-0.70","","-4.80","","74.00","","0.00","","0.00","","48.30","","102.22","","","","","","Mostly Cloudy"
"2011-01-01 21:00","2011","01","01","21:00"," ","-0.50","","-5.50","","69.00","","0.00","","0.00","","48.30","","102.26","","","","","","Mostly Cloudy"
"2011-01-01 22:00","2011","01","01","22:00"," ","-1.90","","-5.50","","76.00","","0.00","","0.00","","48.30","","102.32","","","","","","Mostly Cloudy"
"2011-01-01 23:00","2011","01","01","23:00"," ","-1.70","","-5.40","","76.00","","0.00","","0.00","","48.30","","102.34","","","","","","Mainly Clear"
"2011-01-02 00:00","2011","01","02","00:00"," ","-2.30","","-5.40","","79.00","","0.00","","0.00","","48.30","","102.36","","","","","","Mainly Clear"
"2011-01-02 01:00","2011","01","02","01:00"," ","-3.60","","-5.70","","85.00","","0.00","","0.00","","48.30","","102.37","","","","","","Mainly Clear"
"2011-01-02 02:00","2011","01","02","02:00"," ","-3.80","","-5.90","","85.00","","10.00","","7.00","","32.20","","102.37","","","","-7.00","","Mainly Clear"
"2011-01-02 03:00","2011","01","02","03:00"," ","-3.50","","-4.80","","91.00","","8.00","","6.00","","32.20","","102.41","","","","-6.00","","Mainly Clear"
"2011-01-02 04:00","2011","01","02","04:00"," ","-3.60","","-4.80","","91.00","","0.00","","0.00","","32.20","","102.39","","","","","","Mainly Clear"
"2011-01-02 05:00","2011","01","02","05:00"," ","-3.70","","-4.40","","95.00","","0.00","","0.00","","32.20","","102.38","","","","","","Clear"
"2011-01-02 06:00","2011","01","02","06:00"," ","-3.50","","-4.30","","94.00","","0.00","","0.00","","32.20","","102.38","","","","","","Clear"
"2011-01-02 07:00","2011","01","02","07:00"," ","-4.10","","-5.20","","92.00","","0.00","","0.00","","32.20","","102.40","","","","","","Clear"
"2011-01-02 08:00","2011","01","02","08:00"," ","-4.70","","-6.50","","87.00","","10.00","","7.00","","32.20","","102.41","","","","-8.00","","Clear"
"2011-01-02 09:00","2011","01","02","09:00"," ","-3.20","","-4.30","","92.00","","0.00","","0.00","","32.20","","102.43","","","","","","Clear"
"2011-01-02 10:00","2011","01","02","10:00"," ","-0.20","","-3.10","","81.00","","15.00","","4.00","","32.20","","102.44","","","","-1.00","","Clear"
"2011-01-02 11:00","2011","01","02","11:00"," ","1.90","","-3.10","","69.00","","0.00","","0.00","","32.20","","102.44","","","","","","Clear"
"2011-01-02 12:00","2011","01","02","12:00"," ","2.10","","-3.00","","69.00","","0.00","","0.00","","32.20","","102.38","","","","","","Mainly Clear"
"2011-01-02 13:00","2011","01","02","13:00"," ","3.00","","-2.40","","68.00","","30.00","","19.00","","32.20","","102.34","","","","","","Mainly Clear"
"2011-01-02 14:00","2011","01","02","14:00"," ","3.30","","-0.80","","74.00","","30.00","","15.00","","32.20","","102.30","","","","","","Clear"
"2011-01-02 15:00","2011","01","02","15:00"," ","3.20","","-0.60","","76.00","","29.00","","17.00","","32.20","","102.28","","","","","","Clear"
"2011-01-02 16:00","2011","01","02","16:00"," ","1.90","","-1.00","","81.00","","30.00","","15.00","","32.20","","102.26","","","","","","Clear"
"2011-01-02 17:00","2011","01","02","17:00"," ","0.60","","-2.80","","78.00","","32.00","","9.00","","32.20","","102.28","","","","","","Clear"
"2011-01-02 18:00","2011","01","02","18:00"," ","1.40","","-2.30","","76.00","","0.00","","0.00","","32.20","","102.28","","","","","","Clear"
"2011-01-02 19:00","2011","01","02","19:00"," ","-0.10","","-3.00","","81.00","","8.00","","7.00","","32.20","","102.32","","","","-3.00","","Mainly Clear"
"2011-01-02 20:00","2011","01","02","20:00"," ","-0.70","","-3.30","","83.00","","0.00","","0.00","","32.20","","102.33","","","","","","Clear"
"2011-01-02 21:00","2011","01","02","21:00"," ","-2.20","","-4.90","","82.00","","0.00","","0.00","","32.20","","102.34","","","","","","Clear"
"2011-01-02 22:00","2011","01","02","22:00"," ","-2.20","","-4.60","","84.00","","0.00","","0.00","","32.20","","102.33","","","","","","Clear"
"2011-01-02 23:00","2011","01","02","23:00"," ","-2.20","","-4.50","","84.00","","0.00","","0.00","","32.20","","102.33","","","","","","Clear"
"2011-01-03 00:00","2011","01","03","00:00"," ","-2.00","","-4.40","","84.00","","0.00","","0.00","","32.20","","102.33","","","","","","Clear"
"2011-01-03 01:00","2011","01","03","01:00"," ","-3.50","","-5.70","","85.00","","0.00","","0.00","","32.20","","102.32","","","","","","Clear"
"2011-01-03 02:00","2011","01","03","02:00"," ","-2.70","","-3.90","","91.00","","0.00","","0.00","","32.20","","102.34","","","","","","Clear"
"2011-01-03 03:00","2011","01","03","03:00"," ","-4.40","","-5.80","","90.00","","7.00","","9.00","","32.20","","102.39","","","","-8.00","","Clear"
"2011-01-03 04:00","2011","01","03","04:00"," ","-4.20","","-5.30","","92.00","","9.00","","7.00","","32.20","","102.36","","","","-7.00","","Clear"
"2011-01-03 05:00","2011","01","03","05:00"," ","-3.70","","-4.40","","95.00","","0.00","","0.00","","32.20","","102.38","","","","","","Clear"
"2011-01-03 06:00","2011","01","03","06:00"," ","-3.60","","-4.50","","93.00","","0.00","","0.00","","32.20","","102.38","","","","","","Clear"
"2011-01-03 07:00","2011","01","03","07:00"," ","-4.30","","-5.30","","93.00","","12.00","","6.00","","48.30","","102.34","","","","-7.00","","Clear"
"2011-01-03 08:00","2011","01","03","08:00"," ","-3.50","","-4.40","","93.00","","10.00","","11.00","","48.30","","102.36","","","","-8.00","","Mainly Clear"
"2011-01-03 09:00","2011","01","03","09:00"," ","-2.80","","-4.10","","91.00","","9.00","","7.00","","48.30","","102.38","","","","-6.00","","Mainly Clear"
"2011-01-03 10:00","2011","01","03","10:00"," ","-0.20","","-2.20","","86.00","","0.00","","0.00","","48.30","","102.45","","","","","","Mainly Clear"
"2011-01-03 11:00","2011","01","03","11:00"," ","2.60","","-1.40","","75.00","","0.00","","0.00","","48.30","","102.45","","","","","","Mainly Clear"
"2011-01-03 12:00","2011","01","03","12:00"," ","3.90","","-1.20","","69.00","","0.00","","0.00","","48.30","","102.39","","","","","","Mainly Clear"
"2011-01-03 13:00","2011","01","03","13:00"," ","3.40","","-0.40","","76.00","","29.00","","7.00","","48.30","","102.35","","","","","","Mainly Clear"
"2011-01-03 14:00","2011","01","03","14:00"," ","3.30","","-0.20","","78.00","","28.00","","11.00","","48.30","","102.36","","","","","","Mainly Clear"
"2011-01-03 15:00","2011","01","03","15:00"," ","3.50","","0.40","","80.00","","29.00","","9.00","","48.30","","102.33","","","","","","Mainly Clear"
"2011-01-03 16:00","2011","01","03","16:00"," ","2.20","","-0.40","","83.00","","30.00","","7.00","","48.30","","102.32","","","","","","Mainly Clear"
"2011-01-03 17:00","2011","01","03","17:00"," ","1.40","","-0.80","","85.00","","31.00","","7.00","","48.30","","102.35","","","","","","Mainly Clear"
"2011-01-03 18:00","2011","01","03","18:00"," ","1.00","","-1.00","","86.00","","0.00","","0.00","","48.30","","102.34","","","","","","Mainly Clear"
"2011-01-03 19:00","2011","01","03","19:00"," ","0.50","","-1.10","","89.00","","10.00","","6.00","","48.30","","102.33","","","","","","Mostly Cloudy"
"2011-01-03 20:00","2011","01","03","20:00"," ","0.40","","-1.30","","88.00","","0.00","","0.00","","48.30","","102.36","","","","","","Mostly Cloudy"
"2011-01-03 21:00","2011","01","03","21:00"," ","0.10","","-1.60","","88.00","","9.00","","13.00","","32.20","","102.38","","","","","","Cloudy"
"2011-01-03 22:00","2011","01","03","22:00"," ","-0.20","","-1.90","","88.00","","10.00","","11.00","","32.20","","102.38","","","","-4.00","","Mostly Cloudy"
"2011-01-03 23:00","2011","01","03","23:00"," ","-0.10","","-1.40","","91.00","","11.00","","9.00","","32.20","","102.39","","","","-3.00","","Cloudy"
"2011-01-04 00:00","2011","01","04","00:00"," ","0.40","","-1.40","","88.00","","11.00","","11.00","","32.20","","102.35","","","","","","Cloudy"
"2011-01-04 01:00","2011","01","04","01:00"," ","0.50","","-1.50","","86.00","","10.00","","7.00","","32.20","","102.36","","","","","","Cloudy"
"2011-01-04 02:00","2011","01","04","02:00"," ","0.10","","-1.70","","88.00","","10.00","","7.00","","32.20","","102.36","","","","","","Cloudy"
"2011-01-04 03:00","2011","01","04","03:00"," ","-0.90","","-2.20","","91.00","","10.00","","9.00","","32.20","","102.35","","","","-4.00","","Mostly Cloudy"
"2011-01-04 04:00","2011","01","04","04:00"," ","-2.10","","-3.20","","92.00","","9.00","","9.00","","32.20","","102.33","","","","-6.00","","Mostly Cloudy"
"2011-01-04 05:00","2011","01","04","05:00"," ","-0.70","","-1.80","","92.00","","9.00","","7.00","","32.20","","102.35","","","","-3.00","","Mostly Cloudy"
"2011-01-04 06:00","2011","01","04","06:00"," ","0.00","","-1.50","","90.00","","10.00","","13.00","","32.20","","102.34","","","","-4.00","","Cloudy"
"2011-01-04 07:00","2011","01","04","07:00"," ","0.30","","-0.80","","92.00","","11.00","","15.00","","32.20","","102.30","","","","","","Cloudy"
"2011-01-04 08:00","2011","01","04","08:00"," ","0.40","","-1.00","","90.00","","9.00","","7.00","","32.20","","102.35","","","","","","Cloudy"
"2011-01-04 09:00","2011","01","04","09:00"," ","0.80","","-0.80","","89.00","","9.00","","9.00","","32.20","","102.34","","","","","","Cloudy"
"2011-01-04 10:00","2011","01","04","10:00"," ","1.50","","-0.90","","84.00","","10.00","","15.00","","32.20","","102.36","","","","","","Cloudy"
"2011-01-04 11:00","2011","01","04","11:00"," ","2.10","","-0.70","","82.00","","10.00","","15.00","","32.20","","102.35","","","","","","Cloudy"
"2011-01-04 12:00","2011","01","04","12:00"," ","2.40","","-0.90","","79.00","","11.00","","15.00","","32.20","","102.32","","","","","","Cloudy"
"2011-01-04 13:00","2011","01","04","13:00"," ","2.70","","-0.80","","78.00","","10.00","","11.00","","32.20","","102.33","","","","","","Cloudy"
"2011-01-04 14:00","2011","01","04","14:00"," ","3.00","","-1.20","","74.00","","9.00","","11.00","","32.20","","102.30","","","","","","Cloudy"
"2011-01-04 15:00","2011","01","04","15:00"," ","2.50","","-1.10","","77.00","","11.00","","17.00","","24.10","","102.31","","","","","","Rain Showers"
"2011-01-04 16:00","2011","01","04","16:00"," ","1.70","","-0.50","","85.00","","11.00","","9.00","","19.30","","102.36","","","","","","Rain"
"2011-01-04 17:00","2011","01","04","17:00"," ","1.50","","-0.20","","88.00","","0.00","","0.00","","19.30","","102.36","","","","","","Rain"
"2011-01-04 18:00","2011","01","04","18:00"," ","1.80","","0.10","","88.00","","10.00","","11.00","","19.30","","102.35","","","","","","Rain"
"2011-01-04 19:00","2011","01","04","19:00"," ","2.00","","0.00","","87.00","","9.00","","6.00","","19.30","","102.41","","","","","","Rain"
"2011-01-04 20:00","2011","01","04","20:00"," ","1.90","","0.70","","92.00","","10.00","","19.00","","19.30","","102.39","","","","","","Rain"
"2011-01-04 21:00","2011","01","04","21:00"," ","2.00","","0.40","","89.00","","10.00","","15.00","","19.30","","102.41","","","","","","Rain"
"2011-01-04 22:00","2011","01","04","22:00"," ","2.00","","0.40","","89.00","","9.00","","15.00","","16.10","","102.40","","","","","","Rain"
"2011-01-04 23:00","2011","01","04","23:00"," ","1.90","","0.90","","93.00","","8.00","","17.00","","16.10","","102.40","","","","","","Rain"
"2011-01-05 00:00","2011","01","05","00:00"," ","1.90","","0.70","","92.00","","7.00","","13.00","","16.10","","102.38","","","","","","Rain"
"2011-01-05 01:00","2011","01","05","01:00"," ","2.30","","1.00","","91.00","","9.00","","17.00","","16.10","","102.34","","","","","","Rain"
"2011-01-05 02:00","2011","01","05","02:00"," ","2.40","","1.10","","91.00","","7.00","","13.00","","16.10","","102.35","","","","","","Rain"
"2011-01-05 03:00","2011","01","05","03:00"," ","2.20","","1.20","","93.00","","9.00","","11.00","","16.10","","102.37","","","","","","Rain"
"2011-01-05 04:00","2011","01","05","04:00"," ","2.20","","1.20","","93.00","","11.00","","11.00","","16.10","","102.35","","","","","","Rain"
"2011-01-05 05:00","2011","01","05","05:00"," ","2.00","","1.10","","94.00","","10.00","","13.00","","12.90","","102.36","","","","","","Rain"
"2011-01-05 06:00","2011","01","05","06:00"," ","1.70","","0.70","","93.00","","8.00","","19.00","","16.10","","102.28","","","","","","Rain"
"2011-01-05 07:00","2011","01","05","07:00"," ","1.50","","0.60","","94.00","","8.00","","15.00","","19.30","","102.22","","","","","","Rain"
"2011-01-05 08:00","2011","01","05","08:00"," ","1.50","","0.40","","92.00","","9.00","","17.00","","16.10","","102.16","","","","","","Rain"
"2011-01-05 09:00","2011","01","05","09:00"," ","1.60","","0.00","","89.00","","8.00","","20.00","","12.90","","102.20","","","","","","Rain"
"2011-01-05 10:00","2011","01","05","10:00"," ","2.00","","0.70","","91.00","","6.00","","28.00","","16.10","","102.18","","","","","","Rain"
"2011-01-05 11:00","2011","01","05","11:00"," ","2.50","","0.90","","89.00","","5.00","","26.00","","12.90","","102.17","","","","","","Rain"
"2011-01-05 12:00","2011","01","05","12:00"," ","3.10","","1.60","","90.00","","6.00","","26.00","","12.90","","102.12","","","","","","Rain"
"2011-01-05 13:00","2011","01","05","13:00"," ","3.30","","1.90","","91.00","","6.00","","24.00","","19.30","","102.10","","","","","","Rain"
"2011-01-05 14:00","2011","01","05","14:00"," ","3.50","","2.30","","92.00","","7.00","","24.00","","12.90","","102.11","","","","","","Rain"
"2011-01-05 15:00","2011","01","05","15:00"," ","3.90","","2.60","","91.00","","7.00","","24.00","","19.30","","102.14","","","","","","Rain"
"2011-01-05 16:00","2011","01","05","16:00"," ","4.30","","3.10","","92.00","","8.00","","19.00","","12.90","","102.17","","","","","","Rain"
"2011-01-05 17:00","2011","01","05","17:00"," ","4.40","","3.40","","93.00","","8.00","","15.00","","6.40","","102.21","","","","","","Rain,Fog"
"2011-01-05 18:00","2011","01","05","18:00"," ","4.90","","3.90","","93.00","","6.00","","19.00","","9.70","","102.25","","","","","","Rain,Fog"
"2011-01-05 19:00","2011","01","05","19:00"," ","4.90","","4.10","","95.00","","7.00","","17.00","","12.90","","102.25","","","","","","Rain"
"2011-01-05 20:00","2011","01","05","20:00"," ","5.10","","4.30","","95.00","","9.00","","19.00","","12.90","","102.24","","","","","","Rain"
"2011-01-05 21:00","2011","01","05","21:00"," ","5.30","","4.60","","95.00","","7.00","","15.00","","12.90","","102.25","","","","","","Rain"
"2011-01-05 22:00","2011","01","05","22:00"," ","5.30","","4.50","","95.00","","5.00","","15.00","","12.90","","102.29","","","","","","Rain"
"2011-01-05 23:00","2011","01","05","23:00"," ","5.60","","4.80","","95.00","","8.00","","15.00","","12.90","","102.31","","","","","","Rain"
"2011-01-06 00:00","2011","01","06","00:00"," ","5.80","","5.10","","95.00","","8.00","","13.00","","12.90","","102.34","","","","","","Rain"
"2011-01-06 01:00","2011","01","06","01:00"," ","5.60","","4.90","","95.00","","7.00","","15.00","","9.70","","102.32","","","","","","Rain,Fog"
"2011-01-06 02:00","2011","01","06","02:00"," ","5.70","","5.00","","95.00","","6.00","","15.00","","9.70","","102.36","","","","","","Rain,Fog"
"2011-01-06 03:00","2011","01","06","03:00"," ","5.40","","4.50","","94.00","","8.00","","11.00","","9.70","","102.39","","","","","","Rain,Fog"
"2011-01-06 04:00","2011","01","06","04:00"," ","5.10","","4.20","","94.00","","6.00","","11.00","","9.70","","102.38","","","","","","Rain,Fog"
"2011-01-06 05:00","2011","01","06","05:00"," ","4.90","","4.00","","94.00","","6.00","","13.00","","9.70","","102.34","","","","","","Rain,Fog"
"2011-01-06 06:00","2011","01","06","06:00"," ","4.80","","3.70","","93.00","","7.00","","11.00","","9.70","","102.31","","","","","","Rain,Fog"
"2011-01-06 07:00","2011","01","06","07:00"," ","4.80","","3.80","","93.00","","6.00","","11.00","","9.70","","102.28","","","","","","Rain,Fog"
"2011-01-06 08:00","2011","01","06","08:00"," ","4.80","","3.80","","93.00","","9.00","","6.00","","19.30","","102.29","","","","","","Rain"
"2011-01-06 09:00","2011","01","06","09:00"," ","5.00","","4.00","","93.00","","0.00","","0.00","","12.90","","102.32","","","","","","Rain"
"2011-01-06 10:00","2011","01","06","10:00"," ","5.30","","4.30","","93.00","","0.00","","0.00","","24.10","","102.31","","","","","","Rain"
"2011-01-06 11:00","2011","01","06","11:00"," ","5.40","","4.40","","93.00","","0.00","","0.00","","16.10","","102.31","","","","","","Rain"
"2011-01-06 12:00","2011","01","06","12:00"," ","5.70","","4.70","","93.00","","9.00","","9.00","","9.70","","102.24","","","","","","Rain,Fog"
"2011-01-06 13:00","2011","01","06","13:00"," ","5.60","","4.90","","95.00","","10.00","","13.00","","4.80","","102.18","","","","","","Rain,Fog"
"2011-01-06 14:00","2011","01","06","14:00"," ","5.50","","4.90","","96.00","","10.00","","9.00","","6.40","","102.17","","","","","","Rain,Fog"
"2011-01-06 15:00","2011","01","06","15:00"," ","5.40","","4.70","","95.00","","9.00","","13.00","","6.40","","102.13","","","","","","Rain,Fog"
"2011-01-06 16:00","2011","01","06","16:00"," ","5.30","","4.60","","95.00","","9.00","","15.00","","4.80","","102.11","","","","","","Rain,Drizzle,Fog"
"2011-01-06 17:00","2011","01","06","17:00"," ","5.60","","4.80","","95.00","","9.00","","13.00","","12.90","","102.07","","","","","","Cloudy"
"2011-01-06 18:00","2011","01","06","18:00"," ","5.90","","5.20","","95.00","","10.00","","19.00","","16.10","","102.04","","","","","","Cloudy"
"2011-01-06 19:00","2011","01","06","19:00"," ","6.00","","5.10","","94.00","","9.00","","20.00","","12.90","","102.03","","","","","","Cloudy"
"2011-01-06 20:00","2011","01","06","20:00"," ","6.30","","5.60","","95.00","","11.00","","19.00","","12.90","","102.00","","","","","","Cloudy"
"2011-01-06 21:00","2011","01","06","21:00"," ","6.50","","5.40","","93.00","","9.00","","20.00","","12.90","","101.95","","","","","","Cloudy"
"2011-01-06 22:00","2011","01","06","22:00"," ","6.70","","5.80","","94.00","","10.00","","20.00","","12.90","","101.93","","","","","","Cloudy"
"2011-01-06 23:00","2011","01","06","23:00"," ","6.60","","5.90","","95.00","","10.00","","22.00","","12.90","","101.89","","","","","","Cloudy"
"2011-01-07 00:00","2011","01","07","00:00"," ","7.30","","6.50","","95.00","","10.00","","20.00","","12.90","","101.84","","","","","","Cloudy"
"2011-01-07 01:00","2011","01","07","01:00"," ","7.00","","6.00","","93.00","","10.00","","22.00","","12.90","","101.73","","","","","","Cloudy"
"2011-01-07 02:00","2011","01","07","02:00"," ","7.70","","6.70","","93.00","","13.00","","22.00","","12.90","","101.66","","","","","","Rain"
"2011-01-07 03:00","2011","01","07","03:00"," ","7.90","","6.90","","93.00","","13.00","","20.00","","12.90","","101.60","","","","","","Rain"
"2011-01-07 04:00","2011","01","07","04:00"," ","8.00","","7.10","","94.00","","12.00","","28.00","","12.90","","101.47","","","","","","Rain"
"2011-01-07 05:00","2011","01","07","05:00"," ","8.10","","7.10","","93.00","","12.00","","30.00","","12.90","","101.41","","","","","","Cloudy"
"2011-01-07 06:00","2011","01","07","06:00"," ","8.40","","7.10","","92.00","","13.00","","28.00","","12.90","","101.31","","","","","","Cloudy"
"2011-01-07 07:00","2011","01","07","07:00"," ","8.30","","7.10","","92.00","","14.00","","30.00","","16.10","","101.21","","","","","","Rain"
"2011-01-07 08:00","2011","01","07","08:00"," ","8.30","","7.00","","92.00","","14.00","","26.00","","16.10","","101.19","","","","","","Rain"
"2011-01-07 09:00","2011","01","07","09:00"," ","8.30","","6.70","","90.00","","15.00","","26.00","","12.90","","101.18","","","","","","Rain"
"2011-01-07 10:00","2011","01","07","10:00"," ","8.40","","6.80","","90.00","","17.00","","30.00","","16.10","","101.16","","","","","","Rain"
"2011-01-07 11:00","2011","01","07","11:00"," ","8.40","","6.40","","87.00","","18.00","","22.00","","24.10","","101.20","","","","","","Mainly Clear"
"2011-01-07 12:00","2011","01","07","12:00"," ","8.00","","5.40","","84.00","","28.00","","30.00","","24.10","","101.24","","","","","","Mainly Clear"
"2011-01-07 13:00","2011","01","07","13:00"," ","6.90","","4.50","","85.00","","28.00","","28.00","","24.10","","101.26","","","","","","Cloudy"
"2011-01-07 14:00","2011","01","07","14:00"," ","7.10","","3.30","","77.00","","29.00","","35.00","","48.30","","101.32","","","","","","Mainly Clear"
"2011-01-07 15:00","2011","01","07","15:00"," ","6.30","","2.40","","76.00","","28.00","","39.00","","48.30","","101.40","","","","","","Mostly Cloudy"
"2011-01-07 16:00","2011","01","07","16:00"," ","5.60","","1.80","","77.00","","30.00","","37.00","","48.30","","101.47","","","","","","Mostly Cloudy"
"2011-01-07 17:00","2011","01","07","17:00"," ","5.50","","2.00","","78.00","","29.00","","32.00","","32.20","","101.49","","","","","","Rain"
"2011-01-07 18:00","2011","01","07","18:00"," ","4.80","","1.90","","81.00","","29.00","","32.00","","24.10","","101.54","","","","","","Rain Showers"
"2011-01-07 19:00","2011","01","07","19:00"," ","4.70","","0.80","","76.00","","27.00","","30.00","","24.10","","101.55","","","","","","Rain Showers"
"2011-01-07 20:00","2011","01","07","20:00"," ","5.40","","1.30","","75.00","","29.00","","32.00","","24.10","","101.50","","","","","","Mostly Cloudy"
"2011-01-07 21:00","2011","01","07","21:00"," ","4.70","","1.70","","81.00","","27.00","","39.00","","24.10","","101.55","","","","","","Mostly Cloudy"
"2011-01-07 22:00","2011","01","07","22:00"," ","5.10","","1.50","","78.00","","27.00","","37.00","","24.10","","101.56","","","","","","Mainly Clear"
"2011-01-07 23:00","2011","01","07","23:00"," ","4.80","","1.80","","81.00","","26.00","","32.00","","24.10","","101.58","","","","","","Mainly Clear"
"2011-01-08 00:00","2011","01","08","00:00"," ","4.50","","1.20","","79.00","","26.00","","28.00","","24.10","","101.62","","","","","","Mainly Clear"
"2011-01-08 01:00","2011","01","08","01:00"," ","4.40","","1.20","","80.00","","27.00","","32.00","","24.10","","101.64","","","","","","Mainly Clear"
"2011-01-08 02:00","2011","01","08","02:00"," ","3.70","","0.60","","80.00","","28.00","","22.00","","24.10","","101.68","","","","","","Mainly Clear"
"2011-01-08 03:00","2011","01","08","03:00"," ","4.60","","1.70","","81.00","","27.00","","28.00","","24.10","","101.68","","","","","","Mainly Clear"
"2011-01-08 04:00","2011","01","08","04:00"," ","4.10","","1.20","","81.00","","27.00","","30.00","","24.10","","101.69","","","","","","Mainly Clear"
"2011-01-08 05:00","2011","01","08","05:00"," ","4.10","","1.50","","83.00","","27.00","","26.00","","24.10","","101.70","","","","","","Mainly Clear"
"2011-01-08 06:00","2011","01","08","06:00"," ","3.90","","1.60","","85.00","","27.00","","22.00","","24.10","","101.72","","","","","","Mainly Clear"
"2011-01-08 07:00","2011","01","08","07:00"," ","3.80","","1.30","","84.00","","27.00","","28.00","","24.10","","101.70","","","","","","Mainly Clear"
"2011-01-08 08:00","2011","01","08","08:00"," ","3.60","","1.20","","84.00","","26.00","","20.00","","24.10","","101.71","","","","","","Mostly Cloudy"
"2011-01-08 09:00","2011","01","08","09:00"," ","4.20","","1.30","","81.00","","26.00","","20.00","","48.30","","101.76","","","","","","Mostly Cloudy"
"2011-01-08 10:00","2011","01","08","10:00"," ","4.80","","1.90","","81.00","","26.00","","22.00","","48.30","","101.79","","","","","","Mostly Cloudy"
"2011-01-08 11:00","2011","01","08","11:00"," ","4.80","","2.40","","84.00","","25.00","","22.00","","48.30","","101.75","","","","","","Mostly Cloudy"
"2011-01-08 12:00","2011","01","08","12:00"," ","4.90","","2.00","","81.00","","26.00","","30.00","","48.30","","101.75","","","","","","Mostly Cloudy"
"2011-01-08 13:00","2011","01","08","13:00"," ","4.80","","1.70","","80.00","","28.00","","26.00","","48.30","","101.73","","","","","","Mostly Cloudy"
"2011-01-08 14:00","2011","01","08","14:00"," ","4.70","","1.00","","77.00","","28.00","","24.00","","48.30","","101.71","","","","","","Mainly Clear"
"2011-01-08 15:00","2011","01","08","15:00"," ","4.90","","1.10","","76.00","","29.00","","26.00","","48.30","","101.74","","","","","","Mainly Clear"
"2011-01-08 16:00","2011","01","08","16:00"," ","3.40","","0.30","","80.00","","29.00","","15.00","","48.30","","101.74","","","","","","Mainly Clear"
"2011-01-08 17:00","2011","01","08","17:00"," ","2.50","","-0.20","","82.00","","29.00","","15.00","","48.30","","101.73","","","","","","Mainly Clear"
"2011-01-08 18:00","2011","01","08","18:00"," ","3.60","","0.50","","80.00","","29.00","","13.00","","48.30","","101.71","","","","","","Mostly Cloudy"
"2011-01-08 19:00","2011","01","08","19:00"," ","1.70","","-0.30","","87.00","","9.00","","15.00","","48.30","","101.71","","","","","","Mostly Cloudy"
"2011-01-08 20:00","2011","01","08","20:00"," ","0.80","","-0.80","","89.00","","9.00","","7.00","","48.30","","101.71","","","","","","Mainly Clear"
"2011-01-08 21:00","2011","01","08","21:00"," ","1.20","","-0.50","","88.00","","10.00","","15.00","","48.30","","101.72","","","","","","Mainly Clear"
"2011-01-08 22:00","2011","01","08","22:00"," ","1.40","","0.00","","90.00","","8.00","","11.00","","48.30","","101.76","","","","","","Mostly Cloudy"
"2011-01-08 23:00","2011","01","08","23:00"," ","1.70","","0.30","","90.00","","9.00","","19.00","","32.20","","101.77","","","","","","Mostly Cloudy"
"2011-01-09 00:00","2011","01","09","00:00"," ","1.20","","-0.30","","90.00","","11.00","","13.00","","32.20","","101.81","","","","","","Cloudy"
"2011-01-09 01:00","2011","01","09","01:00"," ","1.10","","-0.60","","88.00","","0.00","","0.00","","32.20","","101.82","","","","","","Mostly Cloudy"
"2011-01-09 02:00","2011","01","09","02:00"," ","-0.50","","-7.40","","60.00","","0.00","","0.00","","32.20","","101.87","","","","","","Mostly Cloudy"
"2011-01-09 03:00","2011","01","09","03:00"," ","-1.00","","-1.40","","97.00","","0.00","","0.00","","32.20","","101.90","","","","","","Mainly Clear"
"2011-01-09 04:00","2011","01","09","04:00"," ","-0.20","","-0.60","","97.00","","0.00","","0.00","","32.20","","101.93","","","","","","Mostly Cloudy"
"2011-01-09 05:00","2011","01","09","05:00"," ","-0.30","","-0.70","","97.00","","0.00","","0.00","","32.20","","101.95","","","","","","Cloudy"
"2011-01-09 06:00","2011","01","09","06:00"," ","-0.10","","-0.70","","96.00","","0.00","","0.00","","32.20","","101.97","","","","","","Cloudy"
"2011-01-09 07:00","2011","01","09","07:00"," ","-0.60","","-1.30","","95.00","","11.00","","9.00","","32.20","","102.01","","","","-4.00","","Cloudy"
"2011-01-09 08:00","2011","01","09","08:00"," ","-0.60","","-3.70","","80.00","","7.00","","11.00","","32.20","","102.08","","","","-4.00","","Mostly Cloudy"
"2011-01-09 09:00","2011","01","09","09:00"," ","0.30","","-5.90","","63.00","","0.00","","0.00","","48.30","","102.16","","","","","","Mostly Cloudy"
"2011-01-09 10:00","2011","01","09","10:00"," ","1.00","","-5.10","","64.00","","9.00","","7.00","","48.30","","102.18","","","","","","Mainly Clear"
"2011-01-09 11:00","2011","01","09","11:00"," ","3.70","","-5.30","","52.00","","0.00","","0.00","","48.30","","102.20","","","","","","Mainly Clear"
"2011-01-09 12:00","2011","01","09","12:00"," ","3.90","","-5.80","","49.00","","20.00","","9.00","","48.30","","102.18","","","","","","Mainly Clear"
"2011-01-09 13:00","2011","01","09","13:00"," ","3.70","","-6.30","","48.00","","21.00","","6.00","","48.30","","102.18","","","","","","Mainly Clear"
"2011-01-09 14:00","2011","01","09","14:00"," ","4.30","","-5.50","","49.00","","0.00","","0.00","","48.30","","102.20","","","","","","Mainly Clear"
"2011-01-09 15:00","2011","01","09","15:00"," ","3.80","","-6.80","","46.00","","22.00","","7.00","","48.30","","102.26","","","","","","Mainly Clear"
"2011-01-09 16:00","2011","01","09","16:00"," ","3.50","","-5.50","","52.00","","20.00","","4.00","","48.30","","102.31","","","","","","Mainly Clear"
"2011-01-09 17:00","2011","01","09","17:00"," ","2.10","","-5.40","","58.00","","19.00","","7.00","","48.30","","102.34","","","","","","Mainly Clear"
"2011-01-09 18:00","2011","01","09","18:00"," ","0.90","","-7.20","","55.00","","14.00","","9.00","","48.30","","102.39","","","","","","Mainly Clear"
"2011-01-09 19:00","2011","01","09","19:00"," ","-0.70","","-7.10","","62.00","","11.00","","9.00","","48.30","","102.46","","","","-4.00","","Mainly Clear"
"2011-01-09 20:00","2011","01","09","20:00"," ","-2.00","","-7.10","","68.00","","9.00","","9.00","","48.30","","102.52","","","","-5.00","","Mainly Clear"
"2011-01-09 21:00","2011","01","09","21:00"," ","-2.50","","-8.10","","65.00","","11.00","","17.00","","40.20","","102.57","","","","-8.00","","Clear"
"2011-01-09 22:00","2011","01","09","22:00"," ","-3.00","","-8.50","","66.00","","11.00","","19.00","","40.20","","102.60","","","","-9.00","","Clear"
"2011-01-09 23:00","2011","01","09","23:00"," ","-2.60","","-9.20","","60.00","","11.00","","9.00","","40.20","","102.67","","","","-6.00","","Clear"
"2011-01-10 00:00","2011","01","10","00:00"," ","-3.20","","-8.50","","67.00","","11.00","","9.00","","40.20","","102.69","","","","-7.00","","Clear"
"2011-01-10 01:00","2011","01","10","01:00"," ","-3.00","","-8.90","","64.00","","11.00","","11.00","","40.20","","102.73","","","","-7.00","","Clear"
"2011-01-10 02:00","2011","01","10","02:00"," ","-3.40","","-8.60","","67.00","","11.00","","9.00","","40.20","","102.76","","","","-7.00","","Mainly Clear"
"2011-01-10 03:00","2011","01","10","03:00"," ","-3.70","","-9.00","","67.00","","0.00","","0.00","","40.20","","102.82","","","","","","Mainly Clear"
"2011-01-10 04:00","2011","01","10","04:00"," ","-3.50","","-8.00","","71.00","","0.00","","0.00","","40.20","","102.79","","","","","","Mainly Clear"
"2011-01-10 05:00","2011","01","10","05:00"," ","-3.10","","-7.90","","69.00","","0.00","","0.00","","40.20","","102.79","","","","","","Mostly Cloudy"
"2011-01-10 06:00","2011","01","10","06:00"," ","-2.70","","-7.90","","67.00","","0.00","","0.00","","40.20","","102.83","","","","","","Mostly Cloudy"
"2011-01-10 07:00","2011","01","10","07:00"," ","-1.80","","-7.90","","63.00","","0.00","","0.00","","48.30","","102.87","","","","","","Cloudy"
"2011-01-10 08:00","2011","01","10","08:00"," ","-1.70","","-6.10","","72.00","","0.00","","0.00","","48.30","","102.91","","","","","","Cloudy"
"2011-01-10 09:00","2011","01","10","09:00"," ","-1.40","","-6.20","","70.00","","0.00","","0.00","","48.30","","102.93","","","","","","Cloudy"
"2011-01-10 10:00","2011","01","10","10:00"," ","-0.40","","-5.90","","66.00","","0.00","","0.00","","32.20","","102.93","","","","","","Cloudy"
"2011-01-10 11:00","2011","01","10","11:00"," ","0.40","","-6.90","","58.00","","11.00","","4.00","","32.20","","102.90","","","","","","Cloudy"
"2011-01-10 12:00","2011","01","10","12:00"," ","0.70","","-6.40","","59.00","","12.00","","7.00","","32.20","","102.85","","","","","","Cloudy"
"2011-01-10 13:00","2011","01","10","13:00"," ","1.10","","-7.20","","54.00","","0.00","","0.00","","32.20","","102.80","","","","","","Cloudy"
"2011-01-10 14:00","2011","01","10","14:00"," ","1.60","","-6.70","","54.00","","10.00","","7.00","","32.20","","102.79","","","","","","Mostly Cloudy"
"2011-01-10 15:00","2011","01","10","15:00"," ","1.10","","-5.10","","63.00","","0.00","","0.00","","32.20","","102.80","","","","","","Cloudy"
"2011-01-10 16:00","2011","01","10","16:00"," ","0.80","","-5.70","","62.00","","0.00","","0.00","","32.20","","102.79","","","","","","Cloudy"
"2011-01-10 17:00","2011","01","10","17:00"," ","0.60","","-6.00","","61.00","","0.00","","0.00","","32.20","","102.74","","","","","","Cloudy"
"2011-01-10 18:00","2011","01","10","18:00"," ","0.10","","-6.60","","61.00","","0.00","","0.00","","32.20","","102.73","","","","","","Cloudy"
"2011-01-10 19:00","2011","01","10","19:00"," ","0.10","","-6.20","","63.00","","0.00","","0.00","","32.20","","102.73","","","","","","Cloudy"
"2011-01-10 20:00","2011","01","10","20:00"," ","-0.50","","-3.60","","80.00","","0.00","","0.00","","32.20","","102.70","","","","","","Cloudy"
"2011-01-10 21:00","2011","01","10","21:00"," ","-0.60","","-3.00","","84.00","","11.00","","11.00","","32.20","","102.69","","","","-4.00","","Cloudy"
"2011-01-10 22:00","2011","01","10","22:00"," ","-0.70","","-2.80","","86.00","","10.00","","11.00","","32.20","","102.69","","","","-4.00","","Cloudy"
"2011-01-10 23:00","2011","01","10","23:00"," ","-0.70","","-2.90","","85.00","","11.00","","11.00","","32.20","","102.68","","","","-4.00","","Cloudy"
"2011-01-11 00:00","2011","01","11","00:00"," ","-0.70","","-3.10","","84.00","","8.00","","6.00","","32.20","","102.65","","","","-3.00","","Cloudy"
"2011-01-11 01:00","2011","01","11","01:00"," ","-0.90","","-3.50","","82.00","","0.00","","0.00","","32.20","","102.62","","","","","","Cloudy"
"2011-01-11 02:00","2011","01","11","02:00"," ","-1.40","","-4.00","","82.00","","11.00","","7.00","","32.20","","102.60","","","","-4.00","","Mostly Cloudy"
"2011-01-11 03:00","2011","01","11","03:00"," ","-1.60","","-4.20","","82.00","","0.00","","0.00","","32.20","","102.62","","","","","","Cloudy"
"2011-01-11 04:00","2011","01","11","04:00"," ","-1.70","","-4.40","","82.00","","0.00","","0.00","","32.20","","102.59","","","","","","Mostly Cloudy"
"2011-01-11 05:00","2011","01","11","05:00"," ","-2.50","","-4.90","","84.00","","0.00","","0.00","","32.20","","102.52","","","","","","Mostly Cloudy"
"2011-01-11 06:00","2011","01","11","06:00"," ","-2.50","","-4.90","","84.00","","0.00","","0.00","","32.20","","102.45","","","","","","Mostly Cloudy"
"2011-01-11 07:00","2011","01","11","07:00"," ","-2.70","","-5.20","","83.00","","10.00","","6.00","","32.20","","102.38","","","","-5.00","","Mostly Cloudy"
"2011-01-11 08:00","2011","01","11","08:00"," ","-2.90","","-5.50","","82.00","","9.00","","7.00","","32.20","","102.37","","","","-6.00","","Mostly Cloudy"
"2011-01-11 09:00","2011","01","11","09:00"," ","-1.90","","-4.90","","80.00","","0.00","","0.00","","32.20","","102.39","","","","","","Mostly Cloudy"
"2011-01-11 10:00","2011","01","11","10:00"," ","-0.60","","-4.70","","74.00","","6.00","","9.00","","32.20","","102.36","","","","-4.00","","Mostly Cloudy"
"2011-01-11 11:00","2011","01","11","11:00"," ","0.90","","-4.70","","66.00","","10.00","","6.00","","32.20","","102.29","","","","","","Cloudy"
"2011-01-11 12:00","2011","01","11","12:00"," ","1.10","","-4.90","","64.00","","10.00","","15.00","","32.20","","102.20","","","","","","Cloudy"
"2011-01-11 13:00","2011","01","11","13:00"," ","1.30","","-5.20","","62.00","","9.00","","17.00","","32.20","","102.11","","","","","","Cloudy"
"2011-01-11 14:00","2011","01","11","14:00"," ","1.60","","-5.00","","61.00","","8.00","","11.00","","32.20","","102.04","","","","","","Cloudy"
"2011-01-11 15:00","2011","01","11","15:00"," ","1.70","","-4.80","","62.00","","10.00","","9.00","","32.20","","102.03","","","","","","Cloudy"
"2011-01-11 16:00","2011","01","11","16:00"," ","1.20","","-4.00","","68.00","","9.00","","13.00","","32.20","","101.97","","","","","","Cloudy"
"2011-01-11 17:00","2011","01","11","17:00"," ","1.70","","-5.40","","59.00","","8.00","","11.00","","12.90","","101.87","","","","","","Cloudy"
"2011-01-11 18:00","2011","01","11","18:00"," ","1.20","","-4.40","","66.00","","10.00","","20.00","","12.90","","101.73","","","","","","Cloudy"
"2011-01-11 19:00","2011","01","11","19:00"," ","1.10","","-4.00","","69.00","","10.00","","17.00","","12.90","","101.65","","","","","","Cloudy"
"2011-01-11 20:00","2011","01","11","20:00"," ","0.90","","-2.50","","78.00","","9.00","","17.00","","4.80","","101.57","","","","","","Snow"
"2011-01-11 21:00","2011","01","11","21:00"," ","0.00","","-0.40","","97.00","","10.00","","22.00","","1.20","","101.43","","","","-6.00","","Snow"
"2011-01-11 22:00","2011","01","11","22:00"," ","-0.40","","-0.80","","97.00","","10.00","","20.00","","0.80","","101.28","","","","-6.00","","Moderate Snow"
"2011-01-11 23:00","2011","01","11","23:00"," ","-0.30","","-0.70","","97.00","","9.00","","24.00","","0.80","","101.05","","","","-6.00","","Moderate Snow"
"2011-01-12 00:00","2011","01","12","00:00"," ","0.10","","-0.20","","98.00","","10.00","","22.00","","0.80","","100.86","","","","","","Moderate Snow"
"2011-01-12 01:00","2011","01","12","01:00"," ","0.10","","-0.30","","97.00","","10.00","","22.00","","0.80","","100.70","","","","","","Moderate Snow"
"2011-01-12 02:00","2011","01","12","02:00"," ","0.10","","-0.40","","96.00","","11.00","","24.00","","0.80","","100.62","","","","","","Moderate Snow"
"2011-01-12 03:00","2011","01","12","03:00"," ","0.10","","-0.30","","97.00","","9.00","","24.00","","1.20","","100.55","","","","","","Snow"
"2011-01-12 04:00","2011","01","12","04:00"," ","0.30","","-0.20","","96.00","","8.00","","20.00","","1.20","","100.47","","","","","","Snow"
"2011-01-12 05:00","2011","01","12","05:00"," ","0.60","","-0.10","","95.00","","9.00","","30.00","","1.20","","100.40","","","","","","Snow"
"2011-01-12 06:00","2011","01","12","06:00"," ","1.10","","0.20","","94.00","","8.00","","37.00","","4.80","","100.35","","","","","","Rain,Fog"
"2011-01-12 07:00","2011","01","12","07:00"," ","1.20","","0.50","","95.00","","9.00","","24.00","","6.40","","100.36","","","","","","Rain,Fog"
"2011-01-12 08:00","2011","01","12","08:00"," ","1.30","","0.60","","95.00","","9.00","","26.00","","4.80","","100.43","","","","","","Rain,Fog"
"2011-01-12 09:00","2011","01","12","09:00"," ","2.90","","2.10","","94.00","","11.00","","26.00","","9.70","","100.57","","","","","","Rain,Fog"
"2011-01-12 10:00","2011","01","12","10:00"," ","4.60","","3.70","","94.00","","14.00","","24.00","","24.10","","100.63","","","","","","Mostly Cloudy"
"2011-01-12 11:00","2011","01","12","11:00"," ","5.90","","4.30","","89.00","","16.00","","26.00","","32.20","","100.72","","","","","","Mostly Cloudy"
"2011-01-12 12:00","2011","01","12","12:00"," ","6.30","","4.30","","87.00","","18.00","","20.00","","32.20","","100.87","","","","","","Mostly Cloudy"
"2011-01-12 13:00","2011","01","12","13:00"," ","7.30","","3.50","","77.00","","20.00","","28.00","","32.20","","100.98","","","","","","Cloudy"
"2011-01-12 14:00","2011","01","12","14:00"," ","7.30","","2.60","","72.00","","20.00","","30.00","","32.20","","101.10","","","","","","Cloudy"
"2011-01-12 15:00","2011","01","12","15:00"," ","7.30","","1.80","","68.00","","20.00","","15.00","","32.20","","101.31","","","","","","Mostly Cloudy"
"2011-01-12 16:00","2011","01","12","16:00"," ","6.90","","1.70","","69.00","","21.00","","22.00","","32.20","","101.43","","","","","","Mostly Cloudy"
"2011-01-12 17:00","2011","01","12","17:00"," ","6.60","","1.40","","69.00","","21.00","","20.00","","32.20","","101.56","","","","","","Cloudy"
"2011-01-12 18:00","2011","01","12","18:00"," ","6.60","","1.00","","67.00","","21.00","","22.00","","32.20","","101.60","","","","","","Cloudy"
"2011-01-12 19:00","2011","01","12","19:00"," ","4.50","","1.90","","83.00","","1.00","","4.00","","24.10","","101.64","","","","","","Cloudy"
"2011-01-12 20:00","2011","01","12","20:00"," ","4.40","","0.60","","76.00","","11.00","","19.00","","24.10","","101.68","","","","","","Cloudy"
"2011-01-12 21:00","2011","01","12","21:00"," ","4.00","","0.90","","80.00","","9.00","","9.00","","24.10","","101.69","","","","","","Cloudy"
"2011-01-12 22:00","2011","01","12","22:00"," ","3.70","","1.30","","84.00","","9.00","","15.00","","24.10","","101.69","","","","","","Cloudy"
"2011-01-12 23:00","2011","01","12","23:00"," ","3.70","","1.60","","86.00","","9.00","","7.00","","19.30","","101.62","","","","","","Rain"
"2011-01-13 00:00","2011","01","13","00:00"," ","3.30","","1.90","","91.00","","0.00","","0.00","","19.30","","101.56","","","","","","Rain"
"2011-01-13 01:00","2011","01","13","01:00"," ","3.10","","2.00","","92.00","","9.00","","11.00","","19.30","","101.43","","","","","","Rain"
"2011-01-13 02:00","2011","01","13","02:00"," ","3.10","","2.10","","93.00","","9.00","","7.00","","12.90","","101.29","","","","","","Rain"
"2011-01-13 03:00","2011","01","13","03:00"," ","3.10","","2.20","","94.00","","6.00","","13.00","","16.10","","101.13","","","","","","Rain"
"2011-01-13 04:00","2011","01","13","04:00"," ","3.90","","2.70","","92.00","","6.00","","13.00","","12.90","","100.97","","","","","","Rain"
"2011-01-13 05:00","2011","01","13","05:00"," ","3.70","","2.60","","93.00","","9.00","","13.00","","9.70","","100.86","","","","","","Rain,Fog"
"2011-01-13 06:00","2011","01","13","06:00"," ","3.60","","2.60","","93.00","","12.00","","9.00","","12.90","","100.70","","","","","","Rain"
"2011-01-13 07:00","2011","01","13","07:00"," ","3.90","","2.80","","93.00","","8.00","","9.00","","12.90","","100.74","","","","","","Rain"
"2011-01-13 08:00","2011","01","13","08:00"," ","3.90","","2.90","","93.00","","8.00","","13.00","","2.40","","100.73","","","","","","Rain,Fog"
"2011-01-13 09:00","2011","01","13","09:00"," ","4.40","","3.50","","94.00","","7.00","","13.00","","2.40","","100.81","","","","","","Rain,Fog"
"2011-01-13 10:00","2011","01","13","10:00"," ","5.50","","4.40","","93.00","","11.00","","17.00","","9.70","","100.85","","","","","","Fog"
"2011-01-13 11:00","2011","01","13","11:00"," ","6.40","","5.30","","93.00","","9.00","","20.00","","9.70","","100.88","","","","","","Fog"
"2011-01-13 12:00","2011","01","13","12:00"," ","7.20","","6.00","","92.00","","9.00","","17.00","","9.70","","100.94","","","","","","Fog"
"2011-01-13 13:00","2011","01","13","13:00"," ","7.70","","6.40","","91.00","","9.00","","19.00","","19.30","","100.89","","","","","","Mostly Cloudy"
"2011-01-13 14:00","2011","01","13","14:00"," ","8.40","","7.00","","91.00","","8.00","","13.00","","19.30","","100.97","","","","","","Mostly Cloudy"
"2011-01-13 15:00","2011","01","13","15:00"," ","8.40","","6.90","","90.00","","8.00","","24.00","","19.30","","100.97","","","","","","Mostly Cloudy"
"2011-01-13 16:00","2011","01","13","16:00"," ","8.30","","6.70","","90.00","","9.00","","15.00","","24.10","","101.03","","","","","","Mostly Cloudy"
"2011-01-13 17:00","2011","01","13","17:00"," ","9.00","","7.00","","87.00","","9.00","","13.00","","24.10","","101.03","","","","","","Mostly Cloudy"
"2011-01-13 18:00","2011","01","13","18:00"," ","10.30","","7.10","","81.00","","18.00","","26.00","","24.10","","101.06","","","","","","Cloudy"
"2011-01-13 19:00","2011","01","13","19:00"," ","10.20","","6.90","","80.00","","18.00","","24.00","","24.10","","101.11","","","","","","Cloudy"
"2011-01-13 20:00","2011","01","13","20:00"," ","10.40","","6.70","","78.00","","18.00","","24.00","","24.10","","101.21","","","","","","Cloudy"
"2011-01-13 21:00","2011","01","13","21:00"," ","10.30","","6.40","","77.00","","19.00","","24.00","","24.10","","101.34","","","","","","Cloudy"
"2011-01-13 22:00","2011","01","13","22:00"," ","10.10","","6.00","","76.00","","18.00","","20.00","","24.10","","101.43","","","","","","Cloudy"
"2011-01-13 23:00","2011","01","13","23:00"," ","10.20","","5.00","","70.00","","19.00","","22.00","","24.10","","101.49","","","","","","Cloudy"
"2011-01-14 00:00","2011","01","14","00:00"," ","9.90","","4.80","","71.00","","18.00","","20.00","","32.20","","101.54","","","","","","Cloudy"
"2011-01-14 01:00","2011","01","14","01:00"," ","8.70","","5.20","","79.00","","8.00","","9.00","","32.20","","101.64","","","","","","Cloudy"
"2011-01-14 02:00","2011","01","14","02:00"," ","9.10","","4.90","","75.00","","12.00","","9.00","","32.20","","101.68","","","","","","Cloudy"
"2011-01-14 03:00","2011","01","14","03:00"," ","8.90","","5.70","","80.00","","15.00","","19.00","","19.30","","101.71","","","","","","Rain"
"2011-01-14 04:00","2011","01","14","04:00"," ","8.00","","6.40","","90.00","","13.00","","17.00","","19.30","","101.74","","","","","","Rain"
"2011-01-14 05:00","2011","01","14","05:00"," ","7.90","","6.50","","91.00","","12.00","","20.00","","19.30","","101.73","","","","","","Rain"
"2011-01-14 06:00","2011","01","14","06:00"," ","8.00","","6.70","","91.00","","12.00","","24.00","","24.10","","101.64","","","","","","Rain"
"2011-01-14 07:00","2011","01","14","07:00"," ","","","","","","","","","","","","","","","","","","",""
"2011-01-14 08:00","2011","01","14","08:00"," ","8.20","","7.00","","92.00","","12.00","","30.00","","9.70","","101.50","","","","","","Rain,Fog"
"2011-01-14 09:00","2011","01","14","09:00"," ","8.70","","7.30","","91.00","","13.00","","28.00","","11.30","","101.44","","","","","","Rain"
"2011-01-14 10:00","2011","01","14","10:00"," ","8.80","","7.40","","91.00","","14.00","","19.00","","19.30","","101.47","","","","","","Rain"
"2011-01-14 11:00","2011","01","14","11:00"," ","9.60","","7.80","","89.00","","14.00","","20.00","","24.10","","101.52","","","","","","Cloudy"
"2011-01-14 12:00","2011","01","14","12:00"," ","10.10","","8.00","","87.00","","14.00","","24.00","","32.20","","101.51","","","","","","Mostly Cloudy"
"2011-01-14 13:00","2011","01","14","13:00"," ","11.30","","8.40","","82.00","","14.00","","19.00","","48.30","","101.53","","","","","","Mainly Clear"
"2011-01-14 14:00","2011","01","14","14:00"," ","12.20","","8.30","","77.00","","13.00","","17.00","","48.30","","101.57","","","","","","Cloudy"
"2011-01-14 15:00","2011","01","14","15:00"," ","11.70","","8.20","","79.00","","14.00","","17.00","","48.30","","101.68","","","","","","Cloudy"
"2011-01-14 16:00","2011","01","14","16:00"," ","12.30","","5.50","","63.00","","20.00","","22.00","","48.30","","101.73","","","","","","Cloudy"
"2011-01-14 17:00","2011","01","14","17:00"," ","12.00","","5.20","","63.00","","17.00","","13.00","","48.30","","101.77","","","","","","Cloudy"
"2011-01-14 18:00","2011","01","14","18:00"," ","11.50","","5.20","","65.00","","13.00","","20.00","","48.30","","101.85","","","","","","Cloudy"
"2011-01-14 19:00","2011","01","14","19:00"," ","11.20","","5.40","","67.00","","13.00","","20.00","","32.20","","101.91","","","","","","Cloudy"
"2011-01-14 20:00","2011","01","14","20:00"," ","11.30","","5.40","","67.00","","14.00","","20.00","","24.10","","101.98","","","","","","Cloudy"
"2011-01-14 21:00","2011","01","14","21:00"," ","11.70","","5.70","","67.00","","14.00","","26.00","","24.10","","102.08","","","","","","Cloudy"
"2011-01-14 22:00","2011","01","14","22:00"," ","10.20","","6.60","","78.00","","11.00","","30.00","","24.10","","102.16","","","","","","Cloudy"
"2011-01-14 23:00","2011","01","14","23:00"," ","10.20","","6.90","","80.00","","15.00","","26.00","","24.10","","102.19","","","","","","Rain"
"2011-01-15 00:00","2011","01","15","00:00"," ","10.20","","6.50","","78.00","","16.00","","30.00","","24.10","","102.18","","","","","","Cloudy"
"2011-01-15 01:00","2011","01","15","01:00"," ","10.90","","6.40","","74.00","","17.00","","26.00","","24.10","","102.19","","","","","","Cloudy"
"2011-01-15 02:00","2011","01","15","02:00"," ","10.40","","6.40","","76.00","","15.00","","20.00","","24.10","","102.17","","","","","","Cloudy"
"2011-01-15 03:00","2011","01","15","03:00"," ","10.00","","6.30","","78.00","","14.00","","17.00","","24.10","","102.20","","","","","","Cloudy"
"2011-01-15 04:00","2011","01","15","04:00"," ","9.50","","6.30","","80.00","","14.00","","19.00","","24.10","","102.16","","","","","","Mostly Cloudy"
"2011-01-15 05:00","2011","01","15","05:00"," ","10.10","","5.90","","75.00","","15.00","","19.00","","24.10","","102.17","","","","","","Mostly Cloudy"
"2011-01-15 06:00","2011","01","15","06:00"," ","9.80","","6.40","","79.00","","17.00","","26.00","","24.10","","102.18","","","","","","Cloudy"
"2011-01-15 07:00","2011","01","15","07:00"," ","10.00","","6.40","","78.00","","17.00","","19.00","","24.10","","102.16","","","","","","Cloudy"
"2011-01-15 08:00","2011","01","15","08:00"," ","8.60","","6.20","","85.00","","11.00","","15.00","","24.10","","102.19","","","","","","Cloudy"
"2011-01-15 09:00","2011","01","15","09:00"," ","8.90","","6.30","","84.00","","12.00","","11.00","","24.10","","102.16","","","","","","Cloudy"
"2011-01-15 10:00","2011","01","15","10:00"," ","9.80","","6.60","","80.00","","14.00","","17.00","","24.10","","102.19","","","","","","Cloudy"
"2011-01-15 11:00","2011","01","15","11:00"," ","10.10","","6.60","","79.00","","16.00","","17.00","","24.10","","102.14","","","","","","Cloudy"
"2011-01-15 12:00","2011","01","15","12:00"," ","10.60","","6.90","","78.00","","9.00","","15.00","","24.10","","101.97","","","","","","Cloudy"
"2011-01-15 13:00","2011","01","15","13:00"," ","10.20","","7.10","","81.00","","9.00","","11.00","","24.10","","101.86","","","","","","Cloudy"
"2011-01-15 14:00","2011","01","15","14:00"," ","10.70","","7.20","","79.00","","9.00","","13.00","","24.10","","101.70","","","","","","Cloudy"
"2011-01-15 15:00","2011","01","15","15:00"," ","9.80","","7.60","","86.00","","8.00","","17.00","","19.30","","101.50","","","","","","Rain"
"2011-01-15 16:00","2011","01","15","16:00"," ","9.30","","7.90","","91.00","","11.00","","11.00","","12.90","","101.34","","","","","","Moderate Rain"
"2011-01-15 17:00","2011","01","15","17:00"," ","8.70","","7.40","","92.00","","9.00","","20.00","","16.10","","101.19","","","","","","Rain"
"2011-01-15 18:00","2011","01","15","18:00"," ","8.60","","7.40","","92.00","","5.00","","22.00","","16.10","","101.01","","","","","","Rain"
"2011-01-15 19:00","2011","01","15","19:00"," ","8.70","","7.20","","90.00","","5.00","","15.00","","16.10","","100.99","","","","","","Rain"
"2011-01-15 20:00","2011","01","15","20:00"," ","8.10","","6.70","","91.00","","6.00","","15.00","","24.10","","100.83","","","","","","Cloudy"
"2011-01-15 21:00","2011","01","15","21:00"," ","7.70","","6.00","","89.00","","9.00","","11.00","","19.30","","100.85","","","","","","Rain"
"2011-01-15 22:00","2011","01","15","22:00"," ","7.20","","5.80","","91.00","","10.00","","15.00","","24.10","","100.86","","","","","","Rain Showers"
"2011-01-15 23:00","2011","01","15","23:00"," ","7.00","","5.80","","92.00","","10.00","","22.00","","24.10","","100.59","","","","","","Rain Showers"
"2011-01-16 00:00","2011","01","16","00:00"," ","7.50","","6.20","","91.00","","6.00","","19.00","","19.30","","100.51","","","","","","Rain Showers"
"2011-01-16 01:00","2011","01","16","01:00"," ","7.90","","6.70","","92.00","","9.00","","7.00","","6.40","","100.62","","","","","","Rain Showers,Fog"
"2011-01-16 02:00","2011","01","16","02:00"," ","8.00","","7.00","","93.00","","9.00","","9.00","","24.10","","100.59","","","","","","Rain Showers"
"2011-01-16 03:00","2011","01","16","03:00"," ","8.10","","7.20","","94.00","","7.00","","11.00","","24.10","","100.61","","","","","","Rain Showers"
"2011-01-16 04:00","2011","01","16","04:00"," ","8.40","","7.40","","93.00","","9.00","","11.00","","24.10","","100.51","","","","","","Rain Showers"
"2011-01-16 05:00","2011","01","16","05:00"," ","8.30","","7.20","","93.00","","9.00","","20.00","","24.10","","100.45","","","","","","Cloudy"
"2011-01-16 06:00","2011","01","16","06:00"," ","8.40","","7.40","","93.00","","9.00","","17.00","","24.10","","100.39","","","","","","Cloudy"
"2011-01-16 07:00","2011","01","16","07:00"," ","8.80","","7.70","","93.00","","8.00","","11.00","","19.30","","100.37","","","","","","Cloudy"
"2011-01-16 08:00","2011","01","16","08:00"," ","10.10","","8.20","","88.00","","17.00","","22.00","","19.30","","100.34","","","","","","Rain Showers"
"2011-01-16 09:00","2011","01","16","09:00"," ","10.20","","8.50","","89.00","","14.00","","20.00","","24.10","","100.41","","","","","","Cloudy"
"2011-01-16 10:00","2011","01","16","10:00"," ","9.90","","8.60","","92.00","","13.00","","15.00","","19.30","","100.41","","","","","","Rain Showers"
"2011-01-16 11:00","2011","01","16","11:00"," ","10.20","","8.90","","92.00","","10.00","","17.00","","19.30","","100.39","","","","","","Rain Showers"
"2011-01-16 12:00","2011","01","16","12:00"," ","10.90","","9.60","","92.00","","10.00","","13.00","","24.10","","100.38","","","","","","Mostly Cloudy"
"2011-01-16 13:00","2011","01","16","13:00"," ","","","","","","","","","","","","","","","","","","",""
"2011-01-16 14:00","2011","01","16","14:00"," ","","","","","","","","","","","","","","","","","","",""
"2011-01-16 15:00","2011","01","16","15:00"," ","","","","","","","","","","","","","","","","","","",""
"2011-01-16 16:00","2011","01","16","16:00"," ","","","","","","","","","","","","","","","","","","",""
"2011-01-16 17:00","2011","01","16","17:00"," ","","","","","","","","","","","","","","","","","","",""
"2011-01-16 18:00","2011","01","16","18:00"," ","","","","","","","","","","","","","","","","","","",""
"2011-01-16 19:00","2011","01","16","19:00"," ","","","","","","","","","","","","","","","","","","",""
"2011-01-16 20:00","2011","01","16","20:00"," ","","","","","","","","","","","","","","","","","","",""
"2011-01-16 21:00","2011","01","16","21:00"," ","","","","","","","","","","","","","","","","","","",""
"2011-01-16 22:00","2011","01","16","22:00"," ","","","","","","","","","","","","","","","","","","",""
"2011-01-16 23:00","2011","01","16","23:00"," ","","","","","","","","","","","","","","","","","","",""
"2011-01-17 00:00","2011","01","17","00:00"," ","","","","","","","","","","","","","","","","","","",""
"2011-01-17 01:00","2011","01","17","01:00"," ","","","","","","","","","","","","","","","","","","",""
"2011-01-17 02:00","2011","01","17","02:00"," ","","","","","","","","","","","","","","","","","","",""
"2011-01-17 03:00","2011","01","17","03:00"," ","","","","","","","","","","","","","","","","","","",""
"2011-01-17 04:00","2011","01","17","04:00"," ","","","","","","","","","","","","","","","","","","",""
"2011-01-17 05:00","2011","01","17","05:00"," ","","","","","","","","","","","","","","","","","","",""
"2011-01-17 06:00","2011","01","17","06:00"," ","","","","","","","","","","","","","","","","","","",""
"2011-01-17 07:00","2011","01","17","07:00"," ","","","","","","","","","","","","","","","","","","",""
"2011-01-17 08:00","2011","01","17","08:00"," ","","","","","","","","","","","","","","","","","","",""
"2011-01-17 09:00","2011","01","17","09:00"," ","","","","","","","","","","","","","","","","","","",""
"2011-01-17 10:00","2011","01","17","10:00"," ","","","","","","","","","","","","","","","","","","",""
"2011-01-17 11:00","2011","01","17","11:00"," ","","","","","","","","","","","","","","","","","","",""
"2011-01-17 12:00","2011","01","17","12:00"," ","","","","","","","","","","","","","","","","","","",""
"2011-01-17 13:00","2011","01","17","13:00"," ","","","","","","","","","","","","","","","","","","",""
"2011-01-17 14:00","2011","01","17","14:00"," ","","","","","","","","","","","","","","","","","","",""
"2011-01-17 15:00","2011","01","17","15:00"," ","","","","","","","","","","","","","","","","","","",""
"2011-01-17 16:00","2011","01","17","16:00"," ","","","","","","","","","","","","","","","","","","",""
"2011-01-17 17:00","2011","01","17","17:00"," ","","","","","","","","","","","","","","","","","","",""
"2011-01-17 18:00","2011","01","17","18:00"," ","","","","","","","","","","","","","","","","","","",""
"2011-01-17 19:00","2011","01","17","19:00"," ","","","","","","","","","","","","","","","","","","",""
"2011-01-17 20:00","2011","01","17","20:00"," ","","","","","","","","","","","","","","","","","","",""
"2011-01-17 21:00","2011","01","17","21:00"," ","","","","","","","","","","","","","","","","","","",""
"2011-01-17 22:00","2011","01","17","22:00"," ","","","","","","","","","","","","","","","","","","",""
"2011-01-17 23:00","2011","01","17","23:00"," ","","","","","","","","","","","","","","","","","","",""
"2011-01-18 00:00","2011","01","18","00:00"," ","","","","","","","","","","","","","","","","","","",""
"2011-01-18 01:00","2011","01","18","01:00"," ","","","","","","","","","","","","","","","","","","",""
"2011-01-18 02:00","2011","01","18","02:00"," ","","","","","","","","","","","","","","","","","","",""
"2011-01-18 03:00","2011","01","18","03:00"," ","","","","","","","","","","","","","","","","","","",""
"2011-01-18 04:00","2011","01","18","04:00"," ","","","","","","","","","","","","","","","","","","",""
"2011-01-18 05:00","2011","01","18","05:00"," ","","","","","","","","","","","","","","","","","","",""
"2011-01-18 06:00","2011","01","18","06:00"," ","","","","","","","","","","","","","","","","","","",""
"2011-01-18 07:00","2011","01","18","07:00"," ","","","","","","","","","","","","","","","","","","",""
"2011-01-18 08:00","2011","01","18","08:00"," ","","","","","","","","","","","","","","","","","","",""
"2011-01-18 09:00","2011","01","18","09:00"," ","","","","","","","","","","","","","","","","","","",""
"2011-01-18 10:00","2011","01","18","10:00"," ","","","","","","","","","","","","","","","","","","",""
"2011-01-18 11:00","2011","01","18","11:00"," ","","","","","","","","","","","","","","","","","","",""
"2011-01-18 12:00","2011","01","18","12:00"," ","","","","","","","","","","","","","","","","","","",""
"2011-01-18 13:00","2011","01","18","13:00"," ","","","","","","","","","","","","","","","","","","",""
"2011-01-18 14:00","2011","01","18","14:00"," ","","","","","","","","","","","","","","","","","","",""
"2011-01-18 15:00","2011","01","18","15:00"," ","","","","","","","","","","","","","","","","","","",""
"2011-01-18 16:00","2011","01","18","16:00"," ","","","","","","","","","","","","","","","","","","",""
"2011-01-18 17:00","2011","01","18","17:00"," ","","","","","","","","","","","","","","","","","","",""
"2011-01-18 18:00","2011","01","18","18:00"," ","","","","","","","","","","","","","","","","","","",""
"2011-01-18 19:00","2011","01","18","19:00"," ","","","","","","","","","","","","","","","","","","",""
"2011-01-18 20:00","2011","01","18","20:00"," ","","","","","","","","","","","","","","","","","","",""
"2011-01-18 21:00","2011","01","18","21:00"," ","","","","","","","","","","","","","","","","","","",""
"2011-01-18 22:00","2011","01","18","22:00"," ","","","","","","","","","","","","","","","","","","",""
"2011-01-18 23:00","2011","01","18","23:00"," ","","","","","","","","","","","","","","","","","","",""
"2011-01-19 00:00","2011","01","19","00:00"," ","","","","","","","","","","","","","","","","","","",""
"2011-01-19 01:00","2011","01","19","01:00"," ","","","","","","","","","","","","","","","","","","",""
"2011-01-19 02:00","2011","01","19","02:00"," ","","","","","","","","","","","","","","","","","","",""
"2011-01-19 03:00","2011","01","19","03:00"," ","","","","","","","","","","","","","","","","","","",""
"2011-01-19 04:00","2011","01","19","04:00"," ","","","","","","","","","","","","","","","","","","",""
"2011-01-19 05:00","2011","01","19","05:00"," ","","","","","","","","","","","","","","","","","","",""
"2011-01-19 06:00","2011","01","19","06:00"," ","","","","","","","","","","","","","","","","","","",""
"2011-01-19 07:00","2011","01","19","07:00"," ","","","","","","","","","","","","","","","","","","",""
"2011-01-19 08:00","2011","01","19","08:00"," ","","","","","","","","","","","","","","","","","","",""
"2011-01-19 09:00","2011","01","19","09:00"," ","","","","","","","","","","","","","","","","","","",""
"2011-01-19 10:00","2011","01","19","10:00"," ","","","","","","","","","","","","","","","","","","",""
"2011-01-19 11:00","2011","01","19","11:00"," ","","","","","","","","","","","","","","","","","","",""
"2011-01-19 12:00","2011","01","19","12:00"," ","","","","","","","","","","","","","","","","","","",""
"2011-01-19 13:00","2011","01","19","13:00"," ","","","","","","","","","","","","","","","","","","",""
"2011-01-19 14:00","2011","01","19","14:00"," ","","","","","","","","","","","","","","","","","","",""
"2011-01-19 15:00","2011","01","19","15:00"," ","","","","","","","","","","","","","","","","","","",""
"2011-01-19 16:00","2011","01","19","16:00"," ","","","","","","","","","","","","","","","","","","",""
"2011-01-19 17:00","2011","01","19","17:00"," ","","","","","","","","","","","","","","","","","","",""
"2011-01-19 18:00","2011","01","19","18:00"," ","","","","","","","","","","","","","","","","","","",""
"2011-01-19 19:00","2011","01","19","19:00"," ","","","","","","","","","","","","","","","","","","",""
"2011-01-19 20:00","2011","01","19","20:00"," ","","","","","","","","","","","","","","","","","","",""
"2011-01-19 21:00","2011","01","19","21:00"," ","","","","","","","","","","","","","","","","","","",""
"2011-01-19 22:00","2011","01","19","22:00"," ","","","","","","","","","","","","","","","","","","",""
"2011-01-19 23:00","2011","01","19","23:00"," ","","","","","","","","","","","","","","","","","","",""
"2011-01-20 00:00","2011","01","20","00:00"," ","","","","","","","","","","","","","","","","","","",""
"2011-01-20 01:00","2011","01","20","01:00"," ","","","","","","","","","","","","","","","","","","",""
"2011-01-20 02:00","2011","01","20","02:00"," ","","","","","","","","","","","","","","","","","","",""
"2011-01-20 03:00","2011","01","20","03:00"," ","","","","","","","","","","","","","","","","","","",""
"2011-01-20 04:00","2011","01","20","04:00"," ","","","","","","","","","","","","","","","","","","",""
"2011-01-20 05:00","2011","01","20","05:00"," ","","","","","","","","","","","","","","","","","","",""
"2011-01-20 06:00","2011","01","20","06:00"," ","","","","","","","","","","","","","","","","","","",""
"2011-01-20 07:00","2011","01","20","07:00"," ","","","","","","","","","","","","","","","","","","",""
"2011-01-20 08:00","2011","01","20","08:00"," ","","","","","","","","","","","","","","","","","","",""
"2011-01-20 09:00","2011","01","20","09:00"," ","","","","","","","","","","","","","","","","","","",""
"2011-01-20 10:00","2011","01","20","10:00"," ","","","","","","","","","","","","","","","","","","",""
"2011-01-20 11:00","2011","01","20","11:00"," ","","","","","","","","","","","","","","","","","","",""
"2011-01-20 12:00","2011","01","20","12:00"," ","","","","","","","","","","","","","","","","","","",""
"2011-01-20 13:00","2011","01","20","13:00"," ","","","","","","","","","","","","","","","","","","",""
"2011-01-20 14:00","2011","01","20","14:00"," ","","","","","","","","","","","","","","","","","","",""
"2011-01-20 15:00","2011","01","20","15:00"," ","","","","","","","","","","","","","","","","","","",""
"2011-01-20 16:00","2011","01","20","16:00"," ","","","","","","","","","","","","","","","","","","",""
"2011-01-20 17:00","2011","01","20","17:00"," ","","","","","","","","","","","","","","","","","","",""
"2011-01-20 18:00","2011","01","20","18:00"," ","","","","","","","","","","","","","","","","","","",""
"2011-01-20 19:00","2011","01","20","19:00"," ","","","","","","","","","","","","","","","","","","",""
"2011-01-20 20:00","2011","01","20","20:00"," ","","","","","","","","","","","","","","","","","","",""
"2011-01-20 21:00","2011","01","20","21:00"," ","","","","","","","","","","","","","","","","","","",""
"2011-01-20 22:00","2011","01","20","22:00"," ","","","","","","","","","","","","","","","","","","",""
"2011-01-20 23:00","2011","01","20","23:00"," ","","","","","","","","","","","","","","","","","","",""
"2011-01-21 00:00","2011","01","21","00:00"," ","","","","","","","","","","","","","","","","","","",""
"2011-01-21 01:00","2011","01","21","01:00"," ","","","","","","","","","","","","","","","","","","",""
"2011-01-21 02:00","2011","01","21","02:00"," ","","","","","","","","","","","","","","","","","","",""
"2011-01-21 03:00","2011","01","21","03:00"," ","","","","","","","","","","","","","","","","","","",""
"2011-01-21 04:00","2011","01","21","04:00"," ","","","","","","","","","","","","","","","","","","",""
"2011-01-21 05:00","2011","01","21","05:00"," ","","","","","","","","","","","","","","","","","","",""
"2011-01-21 06:00","2011","01","21","06:00"," ","","","","","","","","","","","","","","","","","","",""
"2011-01-21 07:00","2011","01","21","07:00"," ","","","","","","","","","","","","","","","","","","",""
"2011-01-21 08:00","2011","01","21","08:00"," ","","","","","","","","","","","","","","","","","","",""
"2011-01-21 09:00","2011","01","21","09:00"," ","","","","","","","","","","","","","","","","","","",""
"2011-01-21 10:00","2011","01","21","10:00"," ","","","","","","","","","","","","","","","","","","",""
"2011-01-21 11:00","2011","01","21","11:00"," ","","","","","","","","","","","","","","","","","","",""
"2011-01-21 12:00","2011","01","21","12:00"," ","","","","","","","","","","","","","","","","","","",""
"2011-01-21 13:00","2011","01","21","13:00"," ","","","","","","","","","","","","","","","","","","",""
"2011-01-21 14:00","2011","01","21","14:00"," ","","","","","","","","","","","","","","","","","","",""
"2011-01-21 15:00","2011","01","21","15:00"," ","","","","","","","","","","","","","","","","","","",""
"2011-01-21 16:00","2011","01","21","16:00"," ","","","","","","","","","","","","","","","","","","",""
"2011-01-21 17:00","2011","01","21","17:00"," ","","","","","","","","","","","","","","","","","","",""
"2011-01-21 18:00","2011","01","21","18:00"," ","","","","","","","","","","","","","","","","","","",""
"2011-01-21 19:00","2011","01","21","19:00"," ","","","","","","","","","","","","","","","","","","",""
"2011-01-21 20:00","2011","01","21","20:00"," ","","","","","","","","","","","","","","","","","","",""
"2011-01-21 21:00","2011","01","21","21:00"," ","","","","","","","","","","","","","","","","","","",""
"2011-01-21 22:00","2011","01","21","22:00"," ","","","","","","","","","","","","","","","","","","",""
"2011-01-21 23:00","2011","01","21","23:00"," ","","","","","","","","","","","","","","","","","","",""
"2011-01-22 00:00","2011","01","22","00:00"," ","","","","","","","","","","","","","","","","","","",""
"2011-01-22 01:00","2011","01","22","01:00"," ","","","","","","","","","","","","","","","","","","",""
"2011-01-22 02:00","2011","01","22","02:00"," ","","","","","","","","","","","","","","","","","","",""
"2011-01-22 03:00","2011","01","22","03:00"," ","","","","","","","","","","","","","","","","","","",""
"2011-01-22 04:00","2011","01","22","04:00"," ","","","","","","","","","","","","","","","","","","",""
"2011-01-22 05:00","2011","01","22","05:00"," ","","","","","","","","","","","","","","","","","","",""
"2011-01-22 06:00","2011","01","22","06:00"," ","","","","","","","","","","","","","","","","","","",""
"2011-01-22 07:00","2011","01","22","07:00"," ","","","","","","","","","","","","","","","","","","",""
"2011-01-22 08:00","2011","01","22","08:00"," ","","","","","","","","","","","","","","","","","","",""
"2011-01-22 09:00","2011","01","22","09:00"," ","","","","","","","","","","","","","","","","","","",""
"2011-01-22 10:00","2011","01","22","10:00"," ","","","","","","","","","","","","","","","","","","",""
"2011-01-22 11:00","2011","01","22","11:00"," ","","","","","","","","","","","","","","","","","","",""
"2011-01-22 12:00","2011","01","22","12:00"," ","","","","","","","","","","","","","","","","","","",""
"2011-01-22 13:00","2011","01","22","13:00"," ","","","","","","","","","","","","","","","","","","",""
"2011-01-22 14:00","2011","01","22","14:00"," ","","","","","","","","","","","","","","","","","","",""
"2011-01-22 15:00","2011","01","22","15:00"," ","","","","","","","","","","","","","","","","","","",""
"2011-01-22 16:00","2011","01","22","16:00"," ","","","","","","","","","","","","","","","","","","",""
"2011-01-22 17:00","2011","01","22","17:00"," ","","","","","","","","","","","","","","","","","","",""
"2011-01-22 18:00","2011","01","22","18:00"," ","","","","","","","","","","","","","","","","","","",""
"2011-01-22 19:00","2011","01","22","19:00"," ","","","","","","","","","","","","","","","","","","",""
"2011-01-22 20:00","2011","01","22","20:00"," ","","","","","","","","","","","","","","","","","","",""
"2011-01-22 21:00","2011","01","22","21:00"," ","","","","","","","","","","","","","","","","","","",""
"2011-01-22 22:00","2011","01","22","22:00"," ","","","","","","","","","","","","","","","","","","",""
"2011-01-22 23:00","2011","01","22","23:00"," ","","","","","","","","","","","","","","","","","","",""
"2011-01-23 00:00","2011","01","23","00:00"," ","","","","","","","","","","","","","","","","","","",""
"2011-01-23 01:00","2011","01","23","01:00"," ","","","","","","","","","","","","","","","","","","",""
"2011-01-23 02:00","2011","01","23","02:00"," ","","","","","","","","","","","","","","","","","","",""
"2011-01-23 03:00","2011","01","23","03:00"," ","","","","","","","","","","","","","","","","","","",""
"2011-01-23 04:00","2011","01","23","04:00"," ","","","","","","","","","","","","","","","","","","",""
"2011-01-23 05:00","2011","01","23","05:00"," ","","","","","","","","","","","","","","","","","","",""
"2011-01-23 06:00","2011","01","23","06:00"," ","","","","","","","","","","","","","","","","","","",""
"2011-01-23 07:00","2011","01","23","07:00"," ","","","","","","","","","","","","","","","","","","",""
"2011-01-23 08:00","2011","01","23","08:00"," ","","","","","","","","","","","","","","","","","","",""
"2011-01-23 09:00","2011","01","23","09:00"," ","","","","","","","","","","","","","","","","","","",""
"2011-01-23 10:00","2011","01","23","10:00"," ","","","","","","","","","","","","","","","","","","",""
"2011-01-23 11:00","2011","01","23","11:00"," ","","","","","","","","","","","","","","","","","","",""
"2011-01-23 12:00","2011","01","23","12:00"," ","","","","","","","","","","","","","","","","","","",""
"2011-01-23 13:00","2011","01","23","13:00"," ","","","","","","","","","","","","","","","","","","",""
"2011-01-23 14:00","2011","01","23","14:00"," ","","","","","","","","","","","","","","","","","","",""
"2011-01-23 15:00","2011","01","23","15:00"," ","","","","","","","","","","","","","","","","","","",""
"2011-01-23 16:00","2011","01","23","16:00"," ","","","","","","","","","","","","","","","","","","",""
"2011-01-23 17:00","2011","01","23","17:00"," ","","","","","","","","","","","","","","","","","","",""
"2011-01-23 18:00","2011","01","23","18:00"," ","","","","","","","","","","","","","","","","","","",""
"2011-01-23 19:00","2011","01","23","19:00"," ","","","","","","","","","","","","","","","","","","",""
"2011-01-23 20:00","2011","01","23","20:00"," ","","","","","","","","","","","","","","","","","","",""
"2011-01-23 21:00","2011","01","23","21:00"," ","","","","","","","","","","","","","","","","","","",""
"2011-01-23 22:00","2011","01","23","22:00"," ","","","","","","","","","","","","","","","","","","",""
"2011-01-23 23:00","2011","01","23","23:00"," ","","","","","","","","","","","","","","","","","","",""
"2011-01-24 00:00","2011","01","24","00:00"," ","","","","","","","","","","","","","","","","","","",""
"2011-01-24 01:00","2011","01","24","01:00"," ","","","","","","","","","","","","","","","","","","",""
"2011-01-24 02:00","2011","01","24","02:00"," ","","","","","","","","","","","","","","","","","","",""
"2011-01-24 03:00","2011","01","24","03:00"," ","","","","","","","","","","","","","","","","","","",""
"2011-01-24 04:00","2011","01","24","04:00"," ","","","","","","","","","","","","","","","","","","",""
"2011-01-24 05:00","2011","01","24","05:00"," ","","","","","","","","","","","","","","","","","","",""
"2011-01-24 06:00","2011","01","24","06:00"," ","","","","","","","","","","","","","","","","","","",""
"2011-01-24 07:00","2011","01","24","07:00"," ","","","","","","","","","","","","","","","","","","",""
"2011-01-24 08:00","2011","01","24","08:00"," ","","","","","","","","","","","","","","","","","","",""
"2011-01-24 09:00","2011","01","24","09:00"," ","","","","","","","","","","","","","","","","","","",""
"2011-01-24 10:00","2011","01","24","10:00"," ","","","","","","","","","","","","","","","","","","",""
"2011-01-24 11:00","2011","01","24","11:00"," ","","","","","","","","","","","","","","","","","","",""
"2011-01-24 12:00","2011","01","24","12:00"," ","","","","","","","","","","","","","","","","","","",""
"2011-01-24 13:00","2011","01","24","13:00"," ","","","","","","","","","","","","","","","","","","",""
"2011-01-24 14:00","2011","01","24","14:00"," ","","","","","","","","","","","","","","","","","","",""
"2011-01-24 15:00","2011","01","24","15:00"," ","","","","","","","","","","","","","","","","","","",""
"2011-01-24 16:00","2011","01","24","16:00"," ","","","","","","","","","","","","","","","","","","",""
"2011-01-24 17:00","2011","01","24","17:00"," ","","","","","","","","","","","","","","","","","","",""
"2011-01-24 18:00","2011","01","24","18:00"," ","","","","","","","","","","","","","","","","","","",""
"2011-01-24 19:00","2011","01","24","19:00"," ","","","","","","","","","","","","","","","","","","",""
"2011-01-24 20:00","2011","01","24","20:00"," ","","","","","","","","","","","","","","","","","","",""
"2011-01-24 21:00","2011","01","24","21:00"," ","","","","","","","","","","","","","","","","","","",""
"2011-01-24 22:00","2011","01","24","22:00"," ","","","","","","","","","","","","","","","","","","",""
"2011-01-24 23:00","2011","01","24","23:00"," ","","","","","","","","","","","","","","","","","","",""
"2011-01-25 00:00","2011","01","25","00:00"," ","","","","","","","","","","","","","","","","","","",""
"2011-01-25 01:00","2011","01","25","01:00"," ","","","","","","","","","","","","","","","","","","",""
"2011-01-25 02:00","2011","01","25","02:00"," ","","","","","","","","","","","","","","","","","","",""
"2011-01-25 03:00","2011","01","25","03:00"," ","","","","","","","","","","","","","","","","","","",""
"2011-01-25 04:00","2011","01","25","04:00"," ","","","","","","","","","","","","","","","","","","",""
"2011-01-25 05:00","2011","01","25","05:00"," ","","","","","","","","","","","","","","","","","","",""
"2011-01-25 06:00","2011","01","25","06:00"," ","","","","","","","","","","","","","","","","","","",""
"2011-01-25 07:00","2011","01","25","07:00"," ","","","","","","","","","","","","","","","","","","",""
"2011-01-25 08:00","2011","01","25","08:00"," ","","","","","","","","","","","","","","","","","","",""
"2011-01-25 09:00","2011","01","25","09:00"," ","","","","","","","","","","","","","","","","","","",""
"2011-01-25 10:00","2011","01","25","10:00"," ","","","","","","","","","","","","","","","","","","",""
"2011-01-25 11:00","2011","01","25","11:00"," ","","","","","","","","","","","","","","","","","","",""
"2011-01-25 12:00","2011","01","25","12:00"," ","","","","","","","","","","","","","","","","","","",""
"2011-01-25 13:00","2011","01","25","13:00"," ","","","","","","","","","","","","","","","","","","",""
"2011-01-25 14:00","2011","01","25","14:00"," ","","","","","","","","","","","","","","","","","","",""
"2011-01-25 15:00","2011","01","25","15:00"," ","","","","","","","","","","","","","","","","","","",""
"2011-01-25 16:00","2011","01","25","16:00"," ","","","","","","","","","","","","","","","","","","",""
"2011-01-25 17:00","2011","01","25","17:00"," ","","","","","","","","","","","","","","","","","","",""
"2011-01-25 18:00","2011","01","25","18:00"," ","","","","","","","","","","","","","","","","","","",""
"2011-01-25 19:00","2011","01","25","19:00"," ","","","","","","","","","","","","","","","","","","",""
"2011-01-25 20:00","2011","01","25","20:00"," ","","","","","","","","","","","","","","","","","","",""
"2011-01-25 21:00","2011","01","25","21:00"," ","","","","","","","","","","","","","","","","","","",""
"2011-01-25 22:00","2011","01","25","22:00"," ","","","","","","","","","","","","","","","","","","",""
"2011-01-25 23:00","2011","01","25","23:00"," ","","","","","","","","","","","","","","","","","","",""
"2011-01-26 00:00","2011","01","26","00:00"," ","","","","","","","","","","","","","","","","","","",""
"2011-01-26 01:00","2011","01","26","01:00"," ","","","","","","","","","","","","","","","","","","",""
"2011-01-26 02:00","2011","01","26","02:00"," ","","","","","","","","","","","","","","","","","","",""
"2011-01-26 03:00","2011","01","26","03:00"," ","","","","","","","","","","","","","","","","","","",""
"2011-01-26 04:00","2011","01","26","04:00"," ","","","","","","","","","","","","","","","","","","",""
"2011-01-26 05:00","2011","01","26","05:00"," ","","","","","","","","","","","","","","","","","","",""
"2011-01-26 06:00","2011","01","26","06:00"," ","","","","","","","","","","","","","","","","","","",""
"2011-01-26 07:00","2011","01","26","07:00"," ","","","","","","","","","","","","","","","","","","",""
"2011-01-26 08:00","2011","01","26","08:00"," ","","","","","","","","","","","","","","","","","","",""
"2011-01-26 09:00","2011","01","26","09:00"," ","","","","","","","","","","","","","","","","","","",""
"2011-01-26 10:00","2011","01","26","10:00"," ","","","","","","","","","","","","","","","","","","",""
"2011-01-26 11:00","2011","01","26","11:00"," ","","","","","","","","","","","","","","","","","","",""
"2011-01-26 12:00","2011","01","26","12:00"," ","","","","","","","","","","","","","","","","","","",""
"2011-01-26 13:00","2011","01","26","13:00"," ","","","","","","","","","","","","","","","","","","",""
"2011-01-26 14:00","2011","01","26","14:00"," ","","","","","","","","","","","","","","","","","","",""
"2011-01-26 15:00","2011","01","26","15:00"," ","","","","","","","","","","","","","","","","","","",""
"2011-01-26 16:00","2011","01","26","16:00"," ","","","","","","","","","","","","","","","","","","",""
"2011-01-26 17:00","2011","01","26","17:00"," ","","","","","","","","","","","","","","","","","","",""
"2011-01-26 18:00","2011","01","26","18:00"," ","","","","","","","","","","","","","","","","","","",""
"2011-01-26 19:00","2011","01","26","19:00"," ","","","","","","","","","","","","","","","","","","",""
"2011-01-26 20:00","2011","01","26","20:00"," ","","","","","","","","","","","","","","","","","","",""
"2011-01-26 21:00","2011","01","26","21:00"," ","","","","","","","","","","","","","","","","","","",""
"2011-01-26 22:00","2011","01","26","22:00"," ","","","","","","","","","","","","","","","","","","",""
"2011-01-26 23:00","2011","01","26","23:00"," ","","","","","","","","","","","","","","","","","","",""
"2011-01-27 00:00","2011","01","27","00:00"," ","","","","","","","","","","","","","","","","","","",""
"2011-01-27 01:00","2011","01","27","01:00"," ","","","","","","","","","","","","","","","","","","",""
"2011-01-27 02:00","2011","01","27","02:00"," ","","","","","","","","","","","","","","","","","","",""
"2011-01-27 03:00","2011","01","27","03:00"," ","","","","","","","","","","","","","","","","","","",""
"2011-01-27 04:00","2011","01","27","04:00"," ","","","","","","","","","","","","","","","","","","",""
"2011-01-27 05:00","2011","01","27","05:00"," ","","","","","","","","","","","","","","","","","","",""
"2011-01-27 06:00","2011","01","27","06:00"," ","","","","","","","","","","","","","","","","","","",""
"2011-01-27 07:00","2011","01","27","07:00"," ","","","","","","","","","","","","","","","","","","",""
"2011-01-27 08:00","2011","01","27","08:00"," ","","","","","","","","","","","","","","","","","","",""
"2011-01-27 09:00","2011","01","27","09:00"," ","","","","","","","","","","","","","","","","","","",""
"2011-01-27 10:00","2011","01","27","10:00"," ","","","","","","","","","","","","","","","","","","",""
"2011-01-27 11:00","2011","01","27","11:00"," ","","","","","","","","","","","","","","","","","","",""
"2011-01-27 12:00","2011","01","27","12:00"," ","","","","","","","","","","","","","","","","","","",""
"2011-01-27 13:00","2011","01","27","13:00"," ","","","","","","","","","","","","","","","","","","",""
"2011-01-27 14:00","2011","01","27","14:00"," ","","","","","","","","","","","","","","","","","","",""
"2011-01-27 15:00","2011","01","27","15:00"," ","","","","","","","","","","","","","","","","","","",""
"2011-01-27 16:00","2011","01","27","16:00"," ","","","","","","","","","","","","","","","","","","",""
"2011-01-27 17:00","2011","01","27","17:00"," ","","","","","","","","","","","","","","","","","","",""
"2011-01-27 18:00","2011","01","27","18:00"," ","","","","","","","","","","","","","","","","","","",""
"2011-01-27 19:00","2011","01","27","19:00"," ","","","","","","","","","","","","","","","","","","",""
"2011-01-27 20:00","2011","01","27","20:00"," ","","","","","","","","","","","","","","","","","","",""
"2011-01-27 21:00","2011","01","27","21:00"," ","","","","","","","","","","","","","","","","","","",""
"2011-01-27 22:00","2011","01","27","22:00"," ","","","","","","","","","","","","","","","","","","",""
"2011-01-27 23:00","2011","01","27","23:00"," ","","","","","","","","","","","","","","","","","","",""
"2011-01-28 00:00","2011","01","28","00:00"," ","","","","","","","","","","","","","","","","","","",""
"2011-01-28 01:00","2011","01","28","01:00"," ","","","","","","","","","","","","","","","","","","",""
"2011-01-28 02:00","2011","01","28","02:00"," ","","","","","","","","","","","","","","","","","","",""
"2011-01-28 03:00","2011","01","28","03:00"," ","","","","","","","","","","","","","","","","","","",""
"2011-01-28 04:00","2011","01","28","04:00"," ","","","","","","","","","","","","","","","","","","",""
"2011-01-28 05:00","2011","01","28","05:00"," ","","","","","","","","","","","","","","","","","","",""
"2011-01-28 06:00","2011","01","28","06:00"," ","","","","","","","","","","","","","","","","","","",""
"2011-01-28 07:00","2011","01","28","07:00"," ","","","","","","","","","","","","","","","","","","",""
"2011-01-28 08:00","2011","01","28","08:00"," ","","","","","","","","","","","","","","","","","","",""
"2011-01-28 09:00","2011","01","28","09:00"," ","","","","","","","","","","","","","","","","","","",""
"2011-01-28 10:00","2011","01","28","10:00"," ","","","","","","","","","","","","","","","","","","",""
"2011-01-28 11:00","2011","01","28","11:00"," ","","","","","","","","","","","","","","","","","","",""
"2011-01-28 12:00","2011","01","28","12:00"," ","","","","","","","","","","","","","","","","","","",""
"2011-01-28 13:00","2011","01","28","13:00"," ","","","","","","","","","","","","","","","","","","",""
"2011-01-28 14:00","2011","01","28","14:00"," ","","","","","","","","","","","","","","","","","","",""
"2011-01-28 15:00","2011","01","28","15:00"," ","","","","","","","","","","","","","","","","","","",""
"2011-01-28 16:00","2011","01","28","16:00"," ","","","","","","","","","","","","","","","","","","",""
"2011-01-28 17:00","2011","01","28","17:00"," ","","","","","","","","","","","","","","","","","","",""
"2011-01-28 18:00","2011","01","28","18:00"," ","","","","","","","","","","","","","","","","","","",""
"2011-01-28 19:00","2011","01","28","19:00"," ","","","","","","","","","","","","","","","","","","",""
"2011-01-28 20:00","2011","01","28","20:00"," ","","","","","","","","","","","","","","","","","","",""
"2011-01-28 21:00","2011","01","28","21:00"," ","","","","","","","","","","","","","","","","","","",""
"2011-01-28 22:00","2011","01","28","22:00"," ","","","","","","","","","","","","","","","","","","",""
"2011-01-28 23:00","2011","01","28","23:00"," ","","","","","","","","","","","","","","","","","","",""
"2011-01-29 00:00","2011","01","29","00:00"," ","","","","","","","","","","","","","","","","","","",""
"2011-01-29 01:00","2011","01","29","01:00"," ","","","","","","","","","","","","","","","","","","",""
"2011-01-29 02:00","2011","01","29","02:00"," ","","","","","","","","","","","","","","","","","","",""
"2011-01-29 03:00","2011","01","29","03:00"," ","","","","","","","","","","","","","","","","","","",""
"2011-01-29 04:00","2011","01","29","04:00"," ","","","","","","","","","","","","","","","","","","",""
"2011-01-29 05:00","2011","01","29","05:00"," ","","","","","","","","","","","","","","","","","","",""
"2011-01-29 06:00","2011","01","29","06:00"," ","","","","","","","","","","","","","","","","","","",""
"2011-01-29 07:00","2011","01","29","07:00"," ","","","","","","","","","","","","","","","","","","",""
"2011-01-29 08:00","2011","01","29","08:00"," ","","","","","","","","","","","","","","","","","","",""
"2011-01-29 09:00","2011","01","29","09:00"," ","","","","","","","","","","","","","","","","","","",""
"2011-01-29 10:00","2011","01","29","10:00"," ","","","","","","","","","","","","","","","","","","",""
"2011-01-29 11:00","2011","01","29","11:00"," ","","","","","","","","","","","","","","","","","","",""
"2011-01-29 12:00","2011","01","29","12:00"," ","","","","","","","","","","","","","","","","","","",""
"2011-01-29 13:00","2011","01","29","13:00"," ","","","","","","","","","","","","","","","","","","",""
"2011-01-29 14:00","2011","01","29","14:00"," ","","","","","","","","","","","","","","","","","","",""
"2011-01-29 15:00","2011","01","29","15:00"," ","","","","","","","","","","","","","","","","","","",""
"2011-01-29 16:00","2011","01","29","16:00"," ","","","","","","","","","","","","","","","","","","",""
"2011-01-29 17:00","2011","01","29","17:00"," ","","","","","","","","","","","","","","","","","","",""
"2011-01-29 18:00","2011","01","29","18:00"," ","","","","","","","","","","","","","","","","","","",""
"2011-01-29 19:00","2011","01","29","19:00"," ","","","","","","","","","","","","","","","","","","",""
"2011-01-29 20:00","2011","01","29","20:00"," ","","","","","","","","","","","","","","","","","","",""
"2011-01-29 21:00","2011","01","29","21:00"," ","","","","","","","","","","","","","","","","","","",""
"2011-01-29 22:00","2011","01","29","22:00"," ","","","","","","","","","","","","","","","","","","",""
"2011-01-29 23:00","2011","01","29","23:00"," ","","","","","","","","","","","","","","","","","","",""
"2011-01-30 00:00","2011","01","30","00:00"," ","","","","","","","","","","","","","","","","","","",""
"2011-01-30 01:00","2011","01","30","01:00"," ","","","","","","","","","","","","","","","","","","",""
"2011-01-30 02:00","2011","01","30","02:00"," ","","","","","","","","","","","","","","","","","","",""
"2011-01-30 03:00","2011","01","30","03:00"," ","","","","","","","","","","","","","","","","","","",""
"2011-01-30 04:00","2011","01","30","04:00"," ","","","","","","","","","","","","","","","","","","",""
"2011-01-30 05:00","2011","01","30","05:00"," ","","","","","","","","","","","","","","","","","","",""
"2011-01-30 06:00","2011","01","30","06:00"," ","","","","","","","","","","","","","","","","","","",""
"2011-01-30 07:00","2011","01","30","07:00"," ","","","","","","","","","","","","","","","","","","",""
"2011-01-30 08:00","2011","01","30","08:00"," ","","","","","","","","","","","","","","","","","","",""
"2011-01-30 09:00","2011","01","30","09:00"," ","","","","","","","","","","","","","","","","","","",""
"2011-01-30 10:00","2011","01","30","10:00"," ","","","","","","","","","","","","","","","","","","",""
"2011-01-30 11:00","2011","01","30","11:00"," ","","","","","","","","","","","","","","","","","","",""
"2011-01-30 12:00","2011","01","30","12:00"," ","","","","","","","","","","","","","","","","","","",""
"2011-01-30 13:00","2011","01","30","13:00"," ","","","","","","","","","","","","","","","","","","",""
"2011-01-30 14:00","2011","01","30","14:00"," ","","","","","","","","","","","","","","","","","","",""
"2011-01-30 15:00","2011","01","30","15:00"," ","","","","","","","","","","","","","","","","","","",""
"2011-01-30 16:00","2011","01","30","16:00"," ","","","","","","","","","","","","","","","","","","",""
"2011-01-30 17:00","2011","01","30","17:00"," ","","","","","","","","","","","","","","","","","","",""
"2011-01-30 18:00","2011","01","30","18:00"," ","","","","","","","","","","","","","","","","","","",""
"2011-01-30 19:00","2011","01","30","19:00"," ","","","","","","","","","","","","","","","","","","",""
"2011-01-30 20:00","2011","01","30","20:00"," ","","","","","","","","","","","","","","","","","","",""
"2011-01-30 21:00","2011","01","30","21:00"," ","","","","","","","","","","","","","","","","","","",""
"2011-01-30 22:00","2011","01","30","22:00"," ","","","","","","","","","","","","","","","","","","",""
"2011-01-30 23:00","2011","01","30","23:00"," ","","","","","","","","","","","","","","","","","","",""
"2011-01-31 00:00","2011","01","31","00:00"," ","","","","","","","","","","","","","","","","","","",""
"2011-01-31 01:00","2011","01","31","01:00"," ","","","","","","","","","","","","","","","","","","",""
"2011-01-31 02:00","2011","01","31","02:00"," ","","","","","","","","","","","","","","","","","","",""
"2011-01-31 03:00","2011","01","31","03:00"," ","","","","","","","","","","","","","","","","","","",""
"2011-01-31 04:00","2011","01","31","04:00"," ","","","","","","","","","","","","","","","","","","",""
"2011-01-31 05:00","2011","01","31","05:00"," ","","","","","","","","","","","","","","","","","","",""
"2011-01-31 06:00","2011","01","31","06:00"," ","","","","","","","","","","","","","","","","","","",""
"2011-01-31 07:00","2011","01","31","07:00"," ","","","","","","","","","","","","","","","","","","",""
"2011-01-31 08:00","2011","01","31","08:00"," ","","","","","","","","","","","","","","","","","","",""
"2011-01-31 09:00","2011","01","31","09:00"," ","","","","","","","","","","","","","","","","","","",""
"2011-01-31 10:00","2011","01","31","10:00"," ","","","","","","","","","","","","","","","","","","",""
"2011-01-31 11:00","2011","01","31","11:00"," ","","","","","","","","","","","","","","","","","","",""
"2011-01-31 12:00","2011","01","31","12:00"," ","","","","","","","","","","","","","","","","","","",""
"2011-01-31 13:00","2011","01","31","13:00"," ","","","","","","","","","","","","","","","","","","",""
"2011-01-31 14:00","2011","01","31","14:00"," ","","","","","","","","","","","","","","","","","","",""
"2011-01-31 15:00","2011","01","31","15:00"," ","","","","","","","","","","","","","","","","","","",""
"2011-01-31 16:00","2011","01","31","16:00"," ","","","","","","","","","","","","","","","","","","",""
"2011-01-31 17:00","2011","01","31","17:00"," ","","","","","","","","","","","","","","","","","","",""
"2011-01-31 18:00","2011","01","31","18:00"," ","","","","","","","","","","","","","","","","","","",""
"2011-01-31 19:00","2011","01","31","19:00"," ","","","","","","","","","","","","","","","","","","",""
"2011-01-31 20:00","2011","01","31","20:00"," ","","","","","","","","","","","","","","","","","","",""
"2011-01-31 21:00","2011","01","31","21:00"," ","","","","","","","","","","","","","","","","","","",""
"2011-01-31 22:00","2011","01","31","22:00"," ","","","","","","","","","","","","","","","","","","",""
"2011-01-31 23:00","2011","01","31","23:00"," ","","","","","","","","","","","","","","","","","","",""